"OBJECTID","TOWNNAME","TOWNNAME_SUGGEST","POSTCODE","PAYS","REGION","X","Y"
257536,"BRILLOUET","BRILLOUET","85210","FRANCE","85",-1.01899,46.52421
257538,"SAVONNIÈRE","SAVONNIÈRE","49700","FRANCE","49",-0.32104,47.16571
257540,"JUVARDEIL","JUVARDEIL","49330","FRANCE","49",-0.50032,47.65553
257541,"L'HÔTELLERIE-DE-FLÉE","L'HÔTELLERIE-DE-FLÉE","49500","FRANCE","49",-0.88832,47.7434
257543,"CHALLAIN-LA-POTHERIE","CHALLAIN-LA-POTHERIE","49440","FRANCE","49",-1.04557,47.6359
257545,"BELLEVILLE-SUR-VIE","BELLEVILLE-SUR-VIE","85170","FRANCE","85",-1.43069,46.78293
257551,"NOGENT-SUR-LOIR","NOGENT-SUR-LOIR","72500","FRANCE","72",0.39713,47.66789
257559,"LA BLANCHARDIÈRE","LA BLANCHARDIÈRE","85240","FRANCE","85",-0.62882,46.55751
257560,"AIZENAY","AIZENAY","85190","FRANCE","85",-1.60873,46.7404
257562,"VIVOIN-GARE","VIVOIN-GARE","72170","FRANCE","72",0.14409,48.23031
257565,"BOUESSAY","BOUESSAY","53290","FRANCE","53",-0.39293,47.87528
257569,"SAINT-BAUDELLE","SAINT-BAUDELLE","53100","FRANCE","53",-0.63399,48.2808
257782,"SAINTE-MARIE-SUR-MER","SAINTE-MARIE-SUR-MER","44210","FRANCE","44",-2.13062,47.11283
257783,"GÉTIGNÉ","GÉTIGNÉ","44190","FRANCE","44",-1.24978,47.07524
257790,"MOUZILLON","MOUZILLON","44330","FRANCE","44",-1.28242,47.14024
257794,"LOUISFERT","LOUISFERT","44110","FRANCE","44",-1.4327,47.67465
257798,"LE PORT DES ROCHES","LE PORT DES ROCHES","72800","FRANCE","72",0.09514,47.70175
257799,"VELLUIRE","VELLUIRE","85770","FRANCE","85",-0.89281,46.40593
257803,"DOLLON","DOLLON","72390","FRANCE","72",0.58655,48.03964
257805,"SAINT-SAUVEUR-DE-LANDEMONT","SAINT-SAUVEUR-DE-LANDEMONT","49270","FRANCE","49",-1.25474,47.28758
257809,"CHEFFOIS","CHEFFOIS","85390","FRANCE","85",-0.79215,46.66915
257810,"DOMFRONT-EN-CHAMPAGNE","DOMFRONT-EN-CHAMPAGNE","72240","FRANCE","72",0.02607,48.10529
257816,"XANTON-CHASSENON","XANTON-CHASSENON","85240","FRANCE","85",-0.69419,46.45369
257817,"LE LANGON","LE LANGON","85370","FRANCE","85",-0.94865,46.4386
257819,"SAINT-PIERRE-MONTLIMART","SAINT-PIERRE-MONTLIMART","49110","FRANCE","49",-1.02922,47.2735
257820,"NOUANS","NOUANS","72260","FRANCE","72",0.2215,48.23905
257821,"ANETZ","ANETZ","44150","FRANCE","44",-1.10246,47.38174
257822,"TIFFAUGES","TIFFAUGES","85130","FRANCE","85",-1.11567,47.01435
257827,"CHARCÉ","CHARCÉ","49320","FRANCE","49",-0.41126,47.35584
257828,"LA TARDIÈRE","LA TARDIÈRE","85120","FRANCE","85",-0.73224,46.66132
257830,"AVOISE","AVOISE","72430","FRANCE","72",-0.20893,47.86752
257831,"L'AIGUILLON-SUR-MER","L'AIGUILLON-SUR-MER","85460","FRANCE","85",-1.30922,46.33359
257834,"VAULANDRY","VAULANDRY","49150","FRANCE","49",-0.04379,47.59685
257841,"LA VILAINE","LA VILAINE","49540","FRANCE","49",-0.39706,47.26156
257845,"LA TRUGALLE","LA TRUGALLE","72190","FRANCE","72",0.22529,48.07375
257851,"SAINT-MESMIN","SAINT-MESMIN","85700","FRANCE","85",-0.73622,46.79341
257852,"LA CHAPELLE-AUX-CHOUX","LA CHAPELLE-AUX-CHOUX","72800","FRANCE","72",0.23218,47.63194
257855,"CHAVAGNES-EN-PAILLERS","CHAVAGNES-EN-PAILLERS","85250","FRANCE","85",-1.2508,46.89309
257857,"MAZIÈRES-EN-MAUGES","MAZIÈRES-EN-MAUGES","49280","FRANCE","49",-0.81623,47.04617
257859,"BÉGROLLES-EN-MAUGES","BÉGROLLES-EN-MAUGES","49122","FRANCE","49",-0.93867,47.14001
257860,"ALLONNES","ALLONNES","72700","FRANCE","72",0.15436,47.96857
257862,"LA RENAUDIÈRE","LA RENAUDIÈRE","49450","FRANCE","49",-1.05899,47.12022
257864,"HERCÉ","HERCÉ","53120","FRANCE","53",-0.85169,48.41819
257865,"LE GROS NOYER","LE GROS NOYER","85200","FRANCE","85",-0.81913,46.45884
257866,"SAINT-CHRISTOPHE-EN-CHAMPAGNE","SAINT-CHRISTOPHE-EN-CHAMPAGNE","72540","FRANCE","72",-0.13811,47.96752
257868,"CONLIE","CONLIE","72240","FRANCE","72",-0.01729,48.12413
257878,"LOUAILLES","LOUAILLES","72300","FRANCE","72",-0.25375,47.7932
257880,"CRAON","CRAON","53400","FRANCE","53",-0.94862,47.84838
257885,"CHÂTRES-LA-FORÊT","CHÂTRES-LA-FORÊT","53600","FRANCE","53",-0.43234,48.13332
257889,"VALLON-SUR-GÉE","VALLON-SUR-GÉE","72540","FRANCE","72",-0.06865,47.96261
257890,"SAINT-PIERRE-LE-VIEUX","SAINT-PIERRE-LE-VIEUX","85420","FRANCE","85",-0.75036,46.3876
257891,"JAUZÉ","JAUZÉ","72110","FRANCE","72",0.37698,48.21179
257892,"LA GARNACHE","LA GARNACHE","85710","FRANCE","85",-1.83182,46.89368
257894,"LA CHAPELLE-SUR-OUDON","LA CHAPELLE-SUR-OUDON","49500","FRANCE","49",-0.82787,47.67568
257896,"CHANGÉ","CHANGÉ","72560","FRANCE","72",0.28223,47.98733
257899,"KERMOISAN","KERMOISAN","44740","FRANCE","44",-2.45522,47.27855
257900,"AVESSÉ","AVESSÉ","72350","FRANCE","72",-0.2505,47.9552
257911,"SAINT-JEAN-SUR-MAYENNE","SAINT-JEAN-SUR-MAYENNE","53240","FRANCE","53",-0.75126,48.13105
257912,"SAINT-VINCENT-DES-LANDES","SAINT-VINCENT-DES-LANDES","44590","FRANCE","44",-1.50578,47.65618
257913,"LONGUEFUYE","LONGUEFUYE","53200","FRANCE","53",-0.61435,47.86651
257917,"MAMERS","MAMERS","72600","FRANCE","72",0.36865,48.35067
257924,"LA RIOTTIÈRE","LA RIOTTIÈRE","49123","FRANCE","49",-0.93491,47.4104
257931,"SAINT-HILAIRE-DE-LOULAY","SAINT-HILAIRE-DE-LOULAY","85600","FRANCE","85",-1.33124,47.00351
257935,"DAUMERAY","DAUMERAY","49640","FRANCE","49",-0.36374,47.70117
257936,"LA HAIE-FOUASSIÈRE","LA HAIE-FOUASSIÈRE","44690","FRANCE","44",-1.39871,47.15429
257947,"ÉTIAU","ÉTIAU","49670","FRANCE","49",-0.58042,47.2376
257949,"LA LEUE","LA LEUE","85210","FRANCE","85",-1.04093,46.62893
257953,"SAINT-COSME-EN-VAIRAIS","SAINT-COSME-EN-VAIRAIS","72110","FRANCE","72",0.45776,48.27586
257955,"TRIGNAC","TRIGNAC","44570","FRANCE","44",-2.18787,47.31743
257956,"LA HAIE","LA HAIE","44150","FRANCE","44",-1.12569,47.40357
257959,"LE MIGRON","LE MIGRON","44320","FRANCE","44",-1.91725,47.25552
257960,"SAINTE-FLORENCE","SAINTE-FLORENCE","85140","FRANCE","85",-1.1518,46.79885
257961,"ARGENTAY","ARGENTAY","49700","FRANCE","49",-0.26632,47.14018
257964,"TRÉZÉ","TRÉZÉ","49260","FRANCE","49",-0.07729,47.11165
257969,"LA DORÉE","LA DORÉE","53190","FRANCE","53",-0.96495,48.44867
257974,"LA CALUYÈRE","LA CALUYÈRE","72160","FRANCE","72",0.50184,48.05944
257976,"BEAULIEU-SOUS-LA-ROCHE","BEAULIEU-SOUS-LA-ROCHE","85190","FRANCE","85",-1.61073,46.67608
257977,"LES MAGNILS-REIGNIERS","LES MAGNILS-REIGNIERS","85400","FRANCE","85",-1.219,46.47953
257978,"SAINT-CYR-LE-GRAVELAIS","SAINT-CYR-LE-GRAVELAIS","53320","FRANCE","53",-1.02603,48.03501
257979,"LA COURPIÈRE","LA COURPIÈRE","85250","FRANCE","85",-1.16796,46.84174
257980,"DANGEUL","DANGEUL","72260","FRANCE","72",0.25778,48.24671
257981,"LA TÉLINDIÈRE","LA TÉLINDIÈRE","44640","FRANCE","44",-1.73653,47.19981
257986,"VAUCÉ","VAUCÉ","53300","FRANCE","53",-0.72977,48.46259
257990,"LE BUISSON","LE BUISSON","72610","FRANCE","72",0.18651,48.40683
257994,"SAINTE-GEMMES-D'ANDIGNÉ","SAINTE-GEMMES-D'ANDIGNÉ","49500","FRANCE","49",-0.88342,47.67527
257995,"L'HERBAUDIÈRE","L'HERBAUDIÈRE","85330","FRANCE","85",-2.30013,47.02234
257996,"CORNU","CORNU","49540","FRANCE","49",-0.46271,47.23228
257999,"CHAMMES","CHAMMES","53270","FRANCE","53",-0.37677,48.07731
258002,"VARADES","VARADES","44370","FRANCE","44",-1.03027,47.38491
258003,"FOUGERÉ","FOUGERÉ","85480","FRANCE","85",-1.2325,46.65783
258005,"SAINT-HILAIRE-LA-FORÊT","SAINT-HILAIRE-LA-FORÊT","85440","FRANCE","85",-1.52628,46.44773
258006,"LAUNAY-VILLAGE","LAUNAY-VILLAGE","44850","FRANCE","44",-1.38149,47.33198
258008,"CROSSAC","CROSSAC","44160","FRANCE","44",-2.16808,47.41187
258011,"ÉVRUNES","ÉVRUNES","85290","FRANCE","85",-0.97216,47.00026
258012,"BOURNEAU","BOURNEAU","85200","FRANCE","85",-0.81717,46.54082
258017,"NOYANT-LA-PLAINE","NOYANT-LA-PLAINE","49700","FRANCE","49",-0.3604,47.27619
258019,"OROUËT","OROUËT","85160","FRANCE","85",-1.99582,46.76266
258023,"LE CHAMPSIOME","LE CHAMPSIOME","44860","FRANCE","44",-1.5577,47.14811
258027,"BIERNÉ","BIERNÉ","53290","FRANCE","53",-0.54247,47.80991
258032,"TREFFIEUX","TREFFIEUX","44170","FRANCE","44",-1.53761,47.6194
258037,"LE GUÉDENIAU","LE GUÉDENIAU","49150","FRANCE","49",-0.04772,47.49575
258042,"MONTMIRAIL","MONTMIRAIL","72320","FRANCE","72",0.79155,48.10416
258043,"SAINT-BARTHÉLEMY-D'ANJOU","SAINT-BARTHÉLEMY-D'ANJOU","49124","FRANCE","49",-0.49434,47.46824
258045,"SAINT-VINCENT-DU-LOROUËR","SAINT-VINCENT-DU-LOROUËR","72150","FRANCE","72",0.48954,47.8253
258048,"CHANTELOUP-LES-BOIS","CHANTELOUP-LES-BOIS","49340","FRANCE","49",-0.68502,47.09528
258052,"NOTRE-DAME-DES-LANGUEURS","NOTRE-DAME-DES-LANGUEURS","44440","FRANCE","44",-1.47505,47.51709
258061,"LA CHAPELLE-ROUSSELIN","LA CHAPELLE-ROUSSELIN","49120","FRANCE","49",-0.79467,47.2136
258065,"CORCOUÉ-SUR-LOGNE","CORCOUÉ-SUR-LOGNE","44650","FRANCE","44",-1.57755,46.96527
258069,"PISSOTTE","PISSOTTE","85200","FRANCE","85",-0.80864,46.49679
258071,"CHOLET","CHOLET","49300","FRANCE","49",-0.8807,47.06259
258074,"SOMLOIRE","SOMLOIRE","49360","FRANCE","49",-0.6079,47.03229
258076,"COUËRON","COUËRON","44220","FRANCE","44",-1.72723,47.21086
258079,"SAINT-GERVAIS-DE-VIC","SAINT-GERVAIS-DE-VIC","72120","FRANCE","72",0.7413,47.8872
258080,"SAINT-VINCENT-STERLANGES","SAINT-VINCENT-STERLANGES","85110","FRANCE","85",-1.08838,46.74309
258081,"LA SALLE","LA SALLE","44470","FRANCE","44",-1.4404,47.30033
258083,"SAINT-ÉMILIEN DE BLAIN","SAINT-ÉMILIEN DE BLAIN","44130","FRANCE","44",-1.71158,47.43335
258089,"VILLAINES-LA-GONAIS","VILLAINES-LA-GONAIS","72400","FRANCE","72",0.60023,48.13613
258091,"LE PITEAU","LE PITEAU","44190","FRANCE","44",-1.26694,47.1025
258093,"SAINT-PHILBERT-EN-MAUGES","SAINT-PHILBERT-EN-MAUGES","49600","FRANCE","49",-1.01746,47.15179
258100,"GESNES","GESNES","53150","FRANCE","53",-0.58529,48.14681
258104,"MONTREUIL-LE-HENRI","MONTREUIL-LE-HENRI","72150","FRANCE","72",0.56533,47.86723
258106,"PUY-DE-SERRE","PUY-DE-SERRE","85240","FRANCE","85",-0.67007,46.56335
258107,"ALLONNES","ALLONNES","49650","FRANCE","49",0.02226,47.29363
258108,"LA FOSSE-DE-TIGNÉ","LA FOSSE-DE-TIGNÉ","49540","FRANCE","49",-0.42924,47.18239
258112,"COURCEMONT","COURCEMONT","72110","FRANCE","72",0.34917,48.17376
258114,"BRAINS-SUR-LES-MARCHES","BRAINS-SUR-LES-MARCHES","53350","FRANCE","53",-1.18166,47.88646
258115,"BELLEVUE","BELLEVUE","44550","FRANCE","44",-2.17723,47.30869
258121,"L'ÉPAUD","L'ÉPAUD","85700","FRANCE","85",-0.9058,46.83638
258123,"SAULGÉ-L'HÔPITAL","SAULGÉ-L'HÔPITAL","49320","FRANCE","49",-0.3834,47.2965
258127,"LA BRIANTIÈRE","LA BRIANTIÈRE","44850","FRANCE","44",-1.35354,47.37168
258128,"LA COGNARDIÈRE","LA COGNARDIÈRE","44330","FRANCE","44",-1.36549,47.15546
258129,"LA MEIGNANNE","LA MEIGNANNE","49770","FRANCE","49",-0.66977,47.51928
258130,"SAINT-MATHURIN-SUR-LOIRE","SAINT-MATHURIN-SUR-LOIRE","49250","FRANCE","49",-0.3192,47.40886
258132,"SOUIL","SOUIL","85420","FRANCE","85",-0.76539,46.40564
258140,"BOIS DEUX","BOIS DEUX","49500","FRANCE","49",-0.92468,47.69977
258144,"MAIGNÉ","MAIGNÉ","72210","FRANCE","72",-0.05316,47.93868
258149,"SAFFRÉ","SAFFRÉ","44390","FRANCE","44",-1.57848,47.50148
258150,"BRAINS-SUR-GÉE","BRAINS-SUR-GÉE","72550","FRANCE","72",-0.02501,48.01525
258151,"FAYE-D'ANJOU","FAYE-D'ANJOU","49380","FRANCE","49",-0.52497,47.29458
258155,"LEVARÉ","LEVARÉ","53120","FRANCE","53",-0.91344,48.41791
258163,"LA CHAPELLE AUBRY","LA CHAPELLE AUBRY","49110","FRANCE","49",-0.96118,47.24436
258165,"ROUPERROUX-LE-COQUET","ROUPERROUX-LE-COQUET","72110","FRANCE","72",0.42998,48.22686
258170,"FERCÉ","FERCÉ","44660","FRANCE","44",-1.41574,47.79671
258172,"NONNAIRE","NONNAIRE","44140","FRANCE","44",-1.46935,47.03649
258178,"FAYMOREAU-CENTRE MINIER","FAYMOREAU-CENTRE MINIER","85240","FRANCE","85",-0.62898,46.55358
258182,"LA VINEUSE","LA VINEUSE","85210","FRANCE","85",-1.08038,46.57225
258183,"MARCÉ","MARCÉ","49140","FRANCE","49",-0.32831,47.58051
258184,"LA RIBOTIÈRE","LA RIBOTIÈRE","85170","FRANCE","85",-1.43046,46.73137
258189,"PAIMBOEUF","PAIMBOEUF","44560","FRANCE","44",-2.0348,47.28887
258192,"DISSAY-SOUS-COURCILLON","DISSAY-SOUS-COURCILLON","72500","FRANCE","72",0.47208,47.66467
258200,"SAINT-GEORGES-DE-MONTAIGU","SAINT-GEORGES-DE-MONTAIGU","85600","FRANCE","85",-1.29668,46.94779
258202,"NOTRE-DAME-DE-GRÂCE","NOTRE-DAME-DE-GRÂCE","44530","FRANCE","44",-1.93109,47.48945
258206,"SAINT-JULIEN-LE-PAUVRE","SAINT-JULIEN-LE-PAUVRE","72240","FRANCE","72",-0.00785,48.05732
258207,"COULANS-SUR-GÉE","COULANS-SUR-GÉE","72550","FRANCE","72",0.01346,48.02132
258209,"PARIGNÉ-LE-PÔLIN","PARIGNÉ-LE-PÔLIN","72330","FRANCE","72",0.11072,47.85091
258212,"LE TABLIER","LE TABLIER","85310","FRANCE","85",-1.34313,46.57447
258214,"GRÉZILLÉ","GRÉZILLÉ","49320","FRANCE","49",-0.34736,47.32619
258215,"MONCÉ-EN-SAOSNOIS","MONCÉ-EN-SAOSNOIS","72260","FRANCE","72",0.39071,48.27494
258216,"CHÂTEAU-DU-LOIR","CHÂTEAU-DU-LOIR","72500","FRANCE","72",0.41794,47.69548
258220,"LAMNAY","LAMNAY","72320","FRANCE","72",0.70321,48.11695
258222,"CHÊNEHUTTE","CHÊNEHUTTE","49350","FRANCE","49",-0.15236,47.30759
258223,"SAINT-AUBIN-DE-LOCQUENAY","SAINT-AUBIN-DE-LOCQUENAY","72130","FRANCE","72",0.02493,48.27236
258224,"MESNARD-LA-BAROTIÈRE","MESNARD-LA-BAROTIÈRE","85500","FRANCE","85",-1.09939,46.86045
258225,"LONGUÉ-JUMELLES","LONGUÉ-JUMELLES","49160","FRANCE","49",-0.10653,47.37642
258228,"SAINTE-CHRISTINE","SAINTE-CHRISTINE","49120","FRANCE","49",-0.84901,47.28668
258232,"GOHIER","GOHIER","49320","FRANCE","49",-0.36014,47.40485
258235,"MONTAILLÉ","MONTAILLÉ","72120","FRANCE","72",0.70117,47.93656
258243,"SAINT-SATURNIN-SUR-LOIRE","SAINT-SATURNIN-SUR-LOIRE","49320","FRANCE","49",-0.43794,47.39399
258245,"LA GICQUELIÈRE","LA GICQUELIÈRE","44440","FRANCE","44",-1.40783,47.50651
258248,"ARMAILLÉ","ARMAILLÉ","49420","FRANCE","49",-1.1284,47.71503
258252,"LE PLESSIS-GRAMMOIRE","LE PLESSIS-GRAMMOIRE","49124","FRANCE","49",-0.43103,47.50132
258253,"MONHOUDOU","MONHOUDOU","72260","FRANCE","72",0.32715,48.2861
258258,"PONT HABERT","PONT HABERT","85300","FRANCE","85",-1.8999,46.85692
258272,"CHAVAGNES-LES-EAUX","CHAVAGNES-LES-EAUX","49380","FRANCE","49",-0.45544,47.26926
258274,"LE LIBARET","LE LIBARET","53410","FRANCE","53",-0.9689,48.10466
258276,"CLÉRÉ-SUR-LAYON","CLÉRÉ-SUR-LAYON","49560","FRANCE","49",-0.42122,47.0922
258277,"FROSSAY","FROSSAY","44320","FRANCE","44",-1.93096,47.24511
258280,"MÉNIL","MÉNIL","53200","FRANCE","53",-0.67709,47.77571
258284,"RENÉ","RENÉ","72260","FRANCE","72",0.2216,48.27853
258286,"BOURG","BOURG","49460","FRANCE","49",-0.55538,47.59138
258288,"SION-LES-MINES","SION-LES-MINES","44590","FRANCE","44",-1.59192,47.73467
258291,"AVESSAC","AVESSAC","44460","FRANCE","44",-1.98887,47.65378
258295,"SAINT-HILAIRE-DE-CHALÉONS","SAINT-HILAIRE-DE-CHALÉONS","44680","FRANCE","44",-1.86456,47.10322
258298,"AUBIGNY","AUBIGNY","85430","FRANCE","85",-1.45292,46.59667
258301,"SAINT-GEORGES-DES-SEPT-VOIES","SAINT-GEORGES-DES-SEPT-VOIES","49350","FRANCE","49",-0.30492,47.35363
258303,"LAVERNAT","LAVERNAT","72500","FRANCE","72",0.33305,47.71787
258305,"FORGES","FORGES","49700","FRANCE","49",-0.24421,47.21872
258310,"NOIRMOUTIER-EN-L'ÎLE","NOIRMOUTIER-EN-L'ÎLE","85330","FRANCE","85",-2.24766,47.00029
258314,"LE PELLERIN","LE PELLERIN","44640","FRANCE","44",-1.75437,47.20179
258317,"SAINT-BRICE","SAINT-BRICE","53290","FRANCE","53",-0.44243,47.85915
258323,"SAINT-CÉLERIN-LE-CLÉRÉ","SAINT-CÉLERIN-LE-CLÉRÉ","72110","FRANCE","72",0.43232,48.12375
258324,"LE GÂVRE","LE GÂVRE","44130","FRANCE","44",-1.75422,47.52336
258326,"SOULGÉ-SUR-OUETTE","SOULGÉ-SUR-OUETTE","53210","FRANCE","53",-0.56999,48.06008
258328,"GRAND'LANDES","GRAND'LANDES","85670","FRANCE","85",-1.64932,46.8201
258334,"CHAMBELLAY","CHAMBELLAY","49220","FRANCE","49",-0.68351,47.68999
258337,"L'HERMENAULT","L'HERMENAULT","85570","FRANCE","85",-0.9005,46.52002
258339,"CHAINTRE","CHAINTRE","49400","FRANCE","49",-0.04906,47.22378
258342,"L'ÎLE-D'ELLE","L'ÎLE-D'ELLE","85770","FRANCE","85",-0.9509,46.32502
258343,"SAINT-DENIS-DES-COUDRAIS","SAINT-DENIS-DES-COUDRAIS","72110","FRANCE","72",0.50667,48.15091
258347,"SAINT-HILAIRE-DU-MAINE","SAINT-HILAIRE-DU-MAINE","53380","FRANCE","53",-0.92991,48.2273
258349,"SAINT-LAURENT-DE-LA-PLAINE","SAINT-LAURENT-DE-LA-PLAINE","49290","FRANCE","49",-0.80378,47.31667
258351,"MAYUN","MAYUN","44410","FRANCE","44",-2.25923,47.44316
258352,"MIRÉ","MIRÉ","49330","FRANCE","49",-0.49092,47.75809
258357,"CAMER","CAMER","44410","FRANCE","44",-2.24584,47.42957
258358,"DENANT","DENANT","85240","FRANCE","85",-0.68751,46.43965
258360,"THOUARÉ-SUR-LOIRE","THOUARÉ-SUR-LOIRE","44470","FRANCE","44",-1.44068,47.26695
258361,"MATHEFLON","MATHEFLON","49140","FRANCE","49",-0.35622,47.58681
258363,"NIORT-LA-FONTAINE","NIORT-LA-FONTAINE","53110","FRANCE","53",-0.54062,48.43755
258364,"TERREHAULT","TERREHAULT","72110","FRANCE","72",0.40129,48.20748
258365,"CUGAND","CUGAND","85610","FRANCE","85",-1.25383,47.06586
258366,"BAZOGES-EN-PAREDS","BAZOGES-EN-PAREDS","85390","FRANCE","85",-0.91477,46.65697
258368,"TORFOU","TORFOU","49660","FRANCE","49",-1.11617,47.03777
258369,"CHEVAIGNÉ-DU-MAINE","CHEVAIGNÉ-DU-MAINE","53250","FRANCE","53",-0.3874,48.43746
258374,"LA BERNERIE-EN-RETZ","LA BERNERIE-EN-RETZ","44760","FRANCE","44",-2.03446,47.08233
258375,"CHAMPTEUSSÉ-SUR-BACONNE","CHAMPTEUSSÉ-SUR-BACONNE","49220","FRANCE","49",-0.65594,47.66726
258381,"GIVRAND","GIVRAND","85800","FRANCE","85",-1.88438,46.67125
258383,"CHAIX","CHAIX","85200","FRANCE","85",-0.85476,46.43321
258384,"BOUSSE","BOUSSE","72270","FRANCE","72",-0.05896,47.76959
258386,"LASSERON","LASSERON","44370","FRANCE","44",-0.96911,47.47362
258388,"MOZÉ-SUR-LOUET","MOZÉ-SUR-LOUET","49610","FRANCE","49",-0.55129,47.35708
258390,"SAINT-MALÔ-DU-BOIS","SAINT-MALÔ-DU-BOIS","85590","FRANCE","85",-0.90009,46.92906
258392,"LA POITEVINIÈRE","LA POITEVINIÈRE","44440","FRANCE","44",-1.30687,47.53325
258398,"LA VARENNE","LA VARENNE","49270","FRANCE","49",-1.32205,47.31298
258418,"ANDREZÉ","ANDREZÉ","49600","FRANCE","49",-0.95439,47.17156
258421,"PALLUAU","PALLUAU","85670","FRANCE","85",-1.62074,46.80462
258422,"BEAUMONT-SUR-DÊME","BEAUMONT-SUR-DÊME","72340","FRANCE","72",0.56959,47.69404
258424,"LA PROMENADE","LA PROMENADE","49300","FRANCE","49",-0.93012,47.06002
258428,"MESSAN","MESSAN","44640","FRANCE","44",-1.8528,47.19265
258432,"L'ÉPOIDS","L'ÉPOIDS","85230","FRANCE","85",-2.05811,46.93431
258436,"NORT-SUR-ERDRE","NORT-SUR-ERDRE","44390","FRANCE","44",-1.49424,47.43998
258443,"LA FRADINIÉRE","LA FRADINIÉRE","85270","FRANCE","85",-1.96392,46.77267
258445,"SAUMOUSSAY","SAUMOUSSAY","49260","FRANCE","49",-0.07899,47.19877
258448,"VOIVRES-LÈS-LE-MANS","VOIVRES-LÈS-LE-MANS","72210","FRANCE","72",0.07193,47.92931
258455,"LE BREIL-SUR-MÉRIZE","LE BREIL-SUR-MÉRIZE","72370","FRANCE","72",0.47805,48.00814
258457,"COSSÉ-LE-VIVIEN","COSSÉ-LE-VIVIEN","53230","FRANCE","53",-0.91248,47.94557
258460,"CHAILLAND","CHAILLAND","53420","FRANCE","53",-0.87527,48.22668
258461,"SAINT-GERVAIS","SAINT-GERVAIS","85230","FRANCE","85",-1.99992,46.90256
258463,"SAINT-FIACRE-SUR-MAINE","SAINT-FIACRE-SUR-MAINE","44690","FRANCE","44",-1.41992,47.14439
258466,"GESVRES","GESVRES","53370","FRANCE","53",-0.14739,48.36912
258468,"LA COQUE","LA COQUE","72140","FRANCE","72",-0.12358,48.18146
258470,"LES ULMES","LES ULMES","49700","FRANCE","49",-0.18166,47.22062
258471,"ROCHEFORT-SUR-LOIRE","ROCHEFORT-SUR-LOIRE","49190","FRANCE","49",-0.65658,47.35712
258473,"LA COUTURE","LA COUTURE","85320","FRANCE","85",-1.26358,46.521
258475,"PANREUX","PANREUX","49260","FRANCE","49",-0.1282,47.10897
258476,"NUAILLÉ","NUAILLÉ","49340","FRANCE","49",-0.79533,47.09513
258479,"LA CHAPELLE-SAINT-FLORENT","LA CHAPELLE-SAINT-FLORENT","49410","FRANCE","49",-1.05665,47.33457
258495,"SAINTE-PAZANNE","SAINTE-PAZANNE","44680","FRANCE","44",-1.81234,47.10159
258497,"LA PRÉVIÈRE","LA PRÉVIÈRE","49420","FRANCE","49",-1.1783,47.71723
258499,"SAINT-MARS-DU-DÉSERT","SAINT-MARS-DU-DÉSERT","53700","FRANCE","53",-0.15917,48.2937
258502,"LE PAS","LE PAS","53300","FRANCE","53",-0.70075,48.42971
258506,"CHAUDRON-EN-MAUGES","CHAUDRON-EN-MAUGES","49110","FRANCE","49",-0.98376,47.29005
258509,"SAINT-NICOLAS-DE-REDON","SAINT-NICOLAS-DE-REDON","44460","FRANCE","44",-2.06718,47.64173
258516,"GENNES","GENNES","49350","FRANCE","49",-0.2321,47.34338
258519,"NOGENT-LE-BERNARD","NOGENT-LE-BERNARD","72110","FRANCE","72",0.48954,48.23683
258520,"SAINT-LÉGER-DES-BOIS","SAINT-LÉGER-DES-BOIS","49170","FRANCE","49",-0.71,47.46051
258526,"SAINT-LAMBERT-DU-LATTAY","SAINT-LAMBERT-DU-LATTAY","49750","FRANCE","49",-0.63218,47.30165
258529,"SAINT-JUST-SUR-DIVE","SAINT-JUST-SUR-DIVE","49260","FRANCE","49",-0.09064,47.18072
258530,"MOITRON-SUR-SARTHE","MOITRON-SUR-SARTHE","72170","FRANCE","72",0.03192,48.23976
258539,"LIGNÉ","LIGNÉ","44850","FRANCE","44",-1.37589,47.41067
258541,"PETIT-AUVERNÉ","PETIT-AUVERNÉ","44670","FRANCE","44",-1.29121,47.61141
258545,"LES TOUCHES","LES TOUCHES","44390","FRANCE","44",-1.43133,47.44218
258546,"SAINT-CHRISTOPHE-DU-LIGNERON","SAINT-CHRISTOPHE-DU-LIGNERON","85670","FRANCE","85",-1.76222,46.82394
258548,"LE VILLAGE","LE VILLAGE","85540","FRANCE","85",-1.3141,46.44267
258549,"VERTOU","VERTOU","44120","FRANCE","44",-1.47358,47.16793
258559,"PRÉVELLES","PRÉVELLES","72110","FRANCE","72",0.48374,48.15214
258560,"MOULINE","MOULINE","44240","FRANCE","44",-1.55248,47.32332
258564,"SOULLANS","SOULLANS","85300","FRANCE","85",-1.90073,46.79582
258568,"NUEIL-SUR-LAYON","NUEIL-SUR-LAYON","49560","FRANCE","49",-0.36529,47.11766
258572,"CHÉTIGNÉ","CHÉTIGNÉ","49400","FRANCE","49",-0.14147,47.21715
258577,"SAINT-FLORENT-DES-BOIS","SAINT-FLORENT-DES-BOIS","85310","FRANCE","85",-1.31535,46.59323
258584,"VOUVRAY-SUR-LOIR","VOUVRAY-SUR-LOIR","72500","FRANCE","72",0.46297,47.69612
258586,"ROCHEFORT","ROCHEFORT","53240","FRANCE","53",-0.74911,48.17929
258587,"LAVARDIN","LAVARDIN","72240","FRANCE","72",0.06211,48.07708
258588,"SEMUR-EN-VALLON","SEMUR-EN-VALLON","72390","FRANCE","72",0.65393,48.02325
258589,"BELLIGNÉ","BELLIGNÉ","44370","FRANCE","44",-1.02769,47.46944
258593,"LE CHEVAIN","LE CHEVAIN","72610","FRANCE","72",0.12438,48.43341
258598,"THORIGNÉ-SUR-DUÉ","THORIGNÉ-SUR-DUÉ","72160","FRANCE","72",0.53408,48.03757
258600,"SAINT-MICHEL-DE-CHAVAIGNES","SAINT-MICHEL-DE-CHAVAIGNES","72440","FRANCE","72",0.57,48.01885
258604,"VILLEPOT","VILLEPOT","44110","FRANCE","44",-1.27826,47.77551
258609,"CHEMIRÉ-EN-CHARNIE","CHEMIRÉ-EN-CHARNIE","72540","FRANCE","72",-0.20322,48.05387
258610,"LINIÈRES-BOUTON","LINIÈRES-BOUTON","49490","FRANCE","49",0.07734,47.45986
258615,"LES DUNES","LES DUNES","85470","FRANCE","85",-1.84557,46.60919
258617,"SANZIERS","SANZIERS","49260","FRANCE","49",-0.20986,47.11312
258620,"MONTIGNY","MONTIGNY","72600","FRANCE","72",0.18542,48.45756
258626,"VAUTORTE","VAUTORTE","53500","FRANCE","53",-0.83232,48.30183
258627,"LA MARNE","LA MARNE","44270","FRANCE","44",-1.74266,46.99495
258632,"SAINT-MAURICE-LE-GIRARD","SAINT-MAURICE-LE-GIRARD","85390","FRANCE","85",-0.80546,46.64428
258633,"TILLIÈRES","TILLIÈRES","49230","FRANCE","49",-1.16413,47.14429
258639,"PRUNIERS","PRUNIERS","49080","FRANCE","49",-0.60083,47.45043
258644,"MISSILLAC","MISSILLAC","44780","FRANCE","44",-2.15909,47.48214
258646,"BRISSARTHE","BRISSARTHE","49330","FRANCE","49",-0.45149,47.70294
258648,"PONT LÉGÉ","PONT LÉGÉ","85600","FRANCE","85",-1.22609,46.92835
258649,"ÉCOUÉ","ÉCOUÉ","85200","FRANCE","85",-0.84356,46.39876
258652,"MÉRAL","MÉRAL","53230","FRANCE","53",-0.98186,47.96038
258655,"SAINT-QUENTIN-LES-ANGES","SAINT-QUENTIN-LES-ANGES","53400","FRANCE","53",-0.88599,47.77359
258656,"LE CORMIER","LE CORMIER","49300","FRANCE","49",-0.91732,47.03126
258799,"ANGERS","ANGERS","49100","FRANCE","49",-0.55324,47.4707
258804,"LA PIERRE-PERCÉE","LA PIERRE-PERCÉE","44450","FRANCE","44",-1.38433,47.28133
258805,"FREIGNÉ","FREIGNÉ","49440","FRANCE","49",-1.12312,47.54873
258811,"AUBIGNÉ-RACAN","AUBIGNÉ-RACAN","72800","FRANCE","72",0.26797,47.69036
258819,"CAREIL","CAREIL","44350","FRANCE","44",-2.40098,47.29796
258823,"MONTABON","MONTABON","72500","FRANCE","72",0.38615,47.68053
258832,"TORCÉ-EN-VALLÉE","TORCÉ-EN-VALLÉE","72110","FRANCE","72",0.39742,48.13423
258659,"TRÉMENTINES","TRÉMENTINES","49340","FRANCE","49",-0.7881,47.12355
258660,"LA JUMELLIÈRE","LA JUMELLIÈRE","49120","FRANCE","49",-0.73062,47.28111
258664,"RABLAY-SUR-LAYON","RABLAY-SUR-LAYON","49750","FRANCE","49",-0.57634,47.29515
258668,"NEUILLY-LE-VENDIN","NEUILLY-LE-VENDIN","53250","FRANCE","53",-0.34057,48.49532
258670,"SAINT-ELLIER","SAINT-ELLIER","49320","FRANCE","49",-0.39157,47.35391
258679,"FONTAINE-GUÉRIN","FONTAINE-GUÉRIN","49250","FRANCE","49",-0.18957,47.48624
258692,"LE PIN","LE PIN","44540","FRANCE","44",-1.15486,47.58981
258731,"ÎLE D'ERRAND","ÎLE D'ERRAND","44550","FRANCE","44",-2.16342,47.36752
258734,"QUILLY","QUILLY","44750","FRANCE","44",-1.95473,47.46178
258736,"PAULX","PAULX","44270","FRANCE","44",-1.75304,46.96202
258737,"LE RIBAY","LE RIBAY","53640","FRANCE","53",-0.40972,48.38336
258742,"LUCEAU","LUCEAU","72500","FRANCE","72",0.39754,47.71133
258753,"BEUGNÉ L'ABBÉ","BEUGNÉ L'ABBÉ","85400","FRANCE","85",-1.19992,46.46065
258754,"LA GRANDE BERNEGOUE","LA GRANDE BERNEGOUE","85420","FRANCE","85",-0.76295,46.33662
258755,"FAYMOREAU-BOURG","FAYMOREAU-BOURG","85240","FRANCE","85",-0.6278,46.53817
258756,"LA CHAPELLE-PALLUAU","LA CHAPELLE-PALLUAU","85670","FRANCE","85",-1.62158,46.78368
258757,"LA BARBINIÈRE","LA BARBINIÈRE","85110","FRANCE","85",-0.97956,46.64928
258762,"COSSÉ-EN-CHAMPAGNE","COSSÉ-EN-CHAMPAGNE","53340","FRANCE","53",-0.33404,47.96258
258868,"AUZAY","AUZAY","85200","FRANCE","85",-0.86963,46.44201
258871,"FOUSSAIS-PAYRÉ","FOUSSAIS-PAYRÉ","85240","FRANCE","85",-0.68308,46.52965
258880,"LE COUGOU","LE COUGOU","44530","FRANCE","44",-2.00982,47.54423
258884,"DÉNEZÉ-SOUS-LE-LUDE","DÉNEZÉ-SOUS-LE-LUDE","49490","FRANCE","49",0.1358,47.53005
258885,"ROCHARD","ROCHARD","85130","FRANCE","85",-0.94292,46.96574
258886,"GRIGNÉ","GRIGNÉ","49110","FRANCE","49",-1.06144,47.26937
258887,"LA CHABOSSONIÈRE","LA CHABOSSONIÈRE","85800","FRANCE","85",-1.92174,46.70376
258888,"LAVARÉ","LAVARÉ","72390","FRANCE","72",0.6444,48.05347
258895,"PERAY","PERAY","72260","FRANCE","72",0.36486,48.24879
258897,"CHANTONNAY","CHANTONNAY","85110","FRANCE","85",-1.04825,46.68512
258900,"SAINT-GERMAIN-SUR-MOINE","SAINT-GERMAIN-SUR-MOINE","49230","FRANCE","49",-1.1239,47.11864
258901,"SAINT-BREVIN-L'OCÉAN","SAINT-BREVIN-L'OCÉAN","44250","FRANCE","44",-2.17404,47.23151
258694,"LA SUARDIÈRE","LA SUARDIÈRE","44190","FRANCE","44",-1.2428,47.1025
258698,"REZÉ","REZÉ","44400","FRANCE","44",-1.5698,47.19126
258702,"VAIGES","VAIGES","53480","FRANCE","53",-0.47478,48.04392
258705,"PEUTON","PEUTON","53360","FRANCE","53",-0.82236,47.88532
258712,"LES CHÂTELLIERS-CHÂTEAUMUR","LES CHÂTELLIERS-CHÂTEAUMUR","85700","FRANCE","85",-0.83116,46.84839
258713,"GRANDCHAMP","GRANDCHAMP","72610","FRANCE","72",0.18213,48.30484
258717,"LE PORT DE JUIGNÉ","LE PORT DE JUIGNÉ","72300","FRANCE","72",-0.30161,47.85452
258726,"AMBILLOU-CHÂTEAU","AMBILLOU-CHÂTEAU","49700","FRANCE","49",-0.34463,47.26259
258763,"PUCEUL","PUCEUL","44390","FRANCE","44",-1.61331,47.5232
258766,"SAINT-OUËN-DES-VALLONS","SAINT-OUËN-DES-VALLONS","53150","FRANCE","53",-0.54891,48.16792
258767,"LA BOISSIÈRE-SUR-ÈVRE","LA BOISSIÈRE-SUR-ÈVRE","49110","FRANCE","49",-1.08011,47.30142
258770,"MONTIGNÉ-LÈS-RAIRIES","MONTIGNÉ-LÈS-RAIRIES","49430","FRANCE","49",-0.20715,47.62407
258772,"BLOU","BLOU","49160","FRANCE","49",-0.03704,47.36278
258776,"DENAZÉ","DENAZÉ","53400","FRANCE","53",-0.88753,47.88427
258778,"SAINT-PHILBERT-DE-BOUAINE","SAINT-PHILBERT-DE-BOUAINE","85660","FRANCE","85",-1.52129,46.98493
258780,"SAINT-HILAIRE-DE-CLISSON","SAINT-HILAIRE-DE-CLISSON","44190","FRANCE","44",-1.30882,47.06291
258783,"LA MEILLERAYE-DE-BRETAGNE","LA MEILLERAYE-DE-BRETAGNE","44520","FRANCE","44",-1.40225,47.55897
258784,"LE MAGASIN","LE MAGASIN","72600","FRANCE","72",0.37161,48.3413
258785,"SAINT-ÉTIENNE-DE-MER-MORTE","SAINT-ÉTIENNE-DE-MER-MORTE","44270","FRANCE","44",-1.74213,46.92792
258797,"LA HUTTE","LA HUTTE","72130","FRANCE","72",0.09511,48.30063
258833,"SAINT-HERBLON","SAINT-HERBLON","44150","FRANCE","44",-1.09559,47.40812
258834,"SAINT-PIERRE-DES-ORMES","SAINT-PIERRE-DES-ORMES","72600","FRANCE","72",0.421,48.30715
258837,"ANCIEN BOURG DE BELGEARD","ANCIEN BOURG DE BELGEARD","53440","FRANCE","53",-0.55724,48.26608
258839,"NESSIER","NESSIER","85490","FRANCE","85",-0.64659,46.34464
258842,"SAINT-GERMAIN-D'ARCÉ","SAINT-GERMAIN-D'ARCÉ","72800","FRANCE","72",0.2912,47.62378
258848,"NOËLLET","NOËLLET","49520","FRANCE","49",-1.09084,47.6941
258850,"BRECÉ","BRECÉ","53120","FRANCE","53",-0.78947,48.39874
258851,"SAINT-LUMINE-DE-COUTAIS","SAINT-LUMINE-DE-COUTAIS","44310","FRANCE","44",-1.72652,47.05495
258852,"LA DEMENURE","LA DEMENURE","44440","FRANCE","44",-1.43414,47.52114
258853,"ALEXAIN","ALEXAIN","53240","FRANCE","53",-0.76831,48.22981
258857,"MOULAY","MOULAY","53100","FRANCE","53",-0.62579,48.27209
258858,"LA MARTINIÈRE","LA MARTINIÈRE","44640","FRANCE","44",-1.77852,47.20589
258859,"SAINT-MARTIN-DU-LIMET","SAINT-MARTIN-DU-LIMET","53800","FRANCE","53",-1.02158,47.81469
258861,"LA CHÂTAIGNERAIE","LA CHÂTAIGNERAIE","85120","FRANCE","85",-0.74186,46.65097
258864,"PRUILLÉ-L'ÉGUILLÉ","PRUILLÉ-L'ÉGUILLÉ","72150","FRANCE","72",0.43148,47.83716
258866,"ÉCOMMOY","ÉCOMMOY","72220","FRANCE","72",0.27486,47.83029
257575,"LA HAIE-TRAVERSAINE","LA HAIE-TRAVERSAINE","53300","FRANCE","53",-0.60665,48.36942
257577,"LA POSSONNIÈRE","LA POSSONNIÈRE","49170","FRANCE","49",-0.68714,47.37452
257581,"CRANNES-EN-CHAMPAGNE","CRANNES-EN-CHAMPAGNE","72540","FRANCE","72",-0.0507,47.98045
257582,"SAINT-AIGNAN","SAINT-AIGNAN","53200","FRANCE","53",-0.56586,47.83564
257583,"LA CHAPELLE-THÉMER","LA CHAPELLE-THÉMER","85210","FRANCE","85",-0.95647,46.55918
257584,"SILLÉ-LE-GUILLAUME","SILLÉ-LE-GUILLAUME","72140","FRANCE","72",-0.12746,48.18344
257585,"ARTHEZÉ","ARTHEZÉ","72270","FRANCE","72",-0.11967,47.78719
257587,"MOLIÈRES","MOLIÈRES","53200","FRANCE","53",-0.74812,47.75414
257589,"BRAIN-SUR-ALLONNES","BRAIN-SUR-ALLONNES","49650","FRANCE","49",0.06591,47.3026
257590,"LE BERNARD","LE BERNARD","85560","FRANCE","85",-1.46888,46.43874
257591,"BEL-AIR","BEL-AIR","49520","FRANCE","49",-0.98743,47.71054
257592,"MARTIGNÉ-SUR-MAYENNE","MARTIGNÉ-SUR-MAYENNE","53470","FRANCE","53",-0.66603,48.19569
257599,"BLAIN","BLAIN","44130","FRANCE","44",-1.76356,47.47576
257603,"SOUVIGNÉ-SUR-MÊME","SOUVIGNÉ-SUR-MÊME","72400","FRANCE","72",0.63645,48.21952
257338,"LE BAS-MATZ","LE BAS-MATZ","44260","FRANCE","44",-1.95134,47.3701
257343,"LA JAILETTE","LA JAILETTE","49500","FRANCE","49",-0.76587,47.67341
257347,"MALVILLE","MALVILLE","44260","FRANCE","44",-1.86319,47.35988
257348,"JUPILLES","JUPILLES","72500","FRANCE","72",0.41166,47.79236
257352,"BOUVRON","BOUVRON","44130","FRANCE","44",-1.84652,47.41754
257356,"CHEMILLÉ","CHEMILLÉ","49120","FRANCE","49",-0.73052,47.21255
257357,"DOUX","DOUX","85200","FRANCE","85",-0.82349,46.39485
257358,"SAINTE-FLAIVE-DES-LOUPS","SAINTE-FLAIVE-DES-LOUPS","85150","FRANCE","85",-1.57964,46.61164
257609,"DONGES","DONGES","44480","FRANCE","44",-2.07462,47.31906
257611,"ROUESSÉ-FONTAINE","ROUESSÉ-FONTAINE","72610","FRANCE","72",0.15081,48.32375
257616,"VILLENEUVE","VILLENEUVE","49600","FRANCE","49",-1.05839,47.22355
257619,"BOURNIGAL","BOURNIGAL","44190","FRANCE","44",-1.25451,47.09771
257630,"DOMPIERRE-SUR-YON","DOMPIERRE-SUR-YON","85170","FRANCE","85",-1.38514,46.73762
257633,"SAINT-QUENTIN-EN-MAUGES","SAINT-QUENTIN-EN-MAUGES","49110","FRANCE","49",-0.90867,47.29377
257634,"LE VOIDE","LE VOIDE","49310","FRANCE","49",-0.5461,47.16139
257638,"SAINT-GEORGES-DE-POINTINDOUX","SAINT-GEORGES-DE-POINTINDOUX","85150","FRANCE","85",-1.62253,46.6444
257639,"LES HALLES","LES HALLES","72500","FRANCE","72",0.31562,47.65575
257360,"SAINTE-LUCE-SUR-LOIRE","SAINTE-LUCE-SUR-LOIRE","44980","FRANCE","44",-1.48669,47.24961
257361,"DAMVIX","DAMVIX","85420","FRANCE","85",-0.73352,46.31512
257362,"OUDON","OUDON","44521","FRANCE","44",-1.288,47.34922
257363,"LA POUËZE","LA POUËZE","49370","FRANCE","49",-0.81232,47.55669
257364,"SAINTE-GEMME-LA-PLAINE","SAINTE-GEMME-LA-PLAINE","85400","FRANCE","85",-1.11166,46.48296
257370,"MONTREUIL","MONTREUIL","72190","FRANCE","72",0.20754,48.09018
257379,"LES NOYERS","LES NOYERS","49540","FRANCE","49",-0.4854,47.23467
257380,"BOUCHAMPS-LÈS-CRAON","BOUCHAMPS-LÈS-CRAON","53800","FRANCE","53",-0.99354,47.8146
257381,"SAINT-RÉMY-DE-SILLÉ","SAINT-RÉMY-DE-SILLÉ","72140","FRANCE","72",-0.09261,48.18635
257389,"CHASNAIS","CHASNAIS","85400","FRANCE","85",-1.2222,46.46317
257390,"BRÉTIGNOLLES-LE-MOULIN","BRÉTIGNOLLES-LE-MOULIN","53110","FRANCE","53",-0.53452,48.47133
257394,"LES BOIS LAVAU","LES BOIS LAVAU","49300","FRANCE","49",-0.89348,47.0821
257648,"NUILLÉ-LE-JALAIS","NUILLÉ-LE-JALAIS","72370","FRANCE","72",0.48409,48.02193
257649,"VILLAINES-LA-JUHEL","VILLAINES-LA-JUHEL","53700","FRANCE","53",-0.27813,48.34599
257651,"PASSAY","PASSAY","44118","FRANCE","44",-1.63414,47.09655
257653,"LA LIMOUZINIÈRE","LA LIMOUZINIÈRE","44310","FRANCE","44",-1.59698,46.99223
257654,"BRÉCUN","BRÉCUN","44720","FRANCE","44",-2.19214,47.38287
257659,"ARTANNES-SUR-THOUET","ARTANNES-SUR-THOUET","49260","FRANCE","49",-0.09385,47.19926
257660,"SAINT-MOLF","SAINT-MOLF","44350","FRANCE","44",-2.42294,47.3929
257665,"SAINT-PIERRE-DES-LANDES","SAINT-PIERRE-DES-LANDES","53500","FRANCE","53",-1.02773,48.27381
257666,"COULONGÉ","COULONGÉ","72800","FRANCE","72",0.20068,47.68921
257667,"ANCINNES","ANCINNES","72610","FRANCE","72",0.18307,48.36795
257668,"ASTILLÉ","ASTILLÉ","53230","FRANCE","53",-0.85197,47.96376
257669,"SAINT-POIX","SAINT-POIX","53540","FRANCE","53",-1.04362,47.96548
257670,"LA SALLE-DE-VIHIERS","LA SALLE-DE-VIHIERS","49310","FRANCE","49",-0.63876,47.15637
257673,"LONCÉ","LONCÉ","44550","FRANCE","44",-2.1833,47.32921
257674,"SAINT-MICHEL-CHEF-CHEF","SAINT-MICHEL-CHEF-CHEF","44730","FRANCE","44",-2.14747,47.18244
257395,"VERNOIL-LE-FOURRIER","VERNOIL-LE-FOURRIER","49390","FRANCE","49",0.08432,47.38732
257396,"DEUX-ÉVAILLES","DEUX-ÉVAILLES","53150","FRANCE","53",-0.52614,48.19325
257399,"JOUÉ-EN-CHARNIE","JOUÉ-EN-CHARNIE","72540","FRANCE","72",-0.19065,48.0178
257401,"KER BOSSY","KER BOSSY","85350","FRANCE","85",-2.34722,46.71284
257405,"LE PETIT PARIS","LE PETIT PARIS","85180","FRANCE","85",-1.71524,46.47389
257409,"MARLAND","MARLAND","44117","FRANCE","44",-2.29143,47.32771
257411,"COUFFÉ","COUFFÉ","44521","FRANCE","44",-1.28917,47.39296
257412,"LA REGRIPPIÈRE","LA REGRIPPIÈRE","44330","FRANCE","44",-1.17554,47.18139
257415,"L'ANGLE","L'ANGLE","85110","FRANCE","85",-1.11078,46.66135
257418,"LA GÉNÉTOUZE","LA GÉNÉTOUZE","85190","FRANCE","85",-1.51344,46.72682
257421,"BOUIN","BOUIN","85230","FRANCE","85",-1.99797,46.972
257425,"ERBRAY","ERBRAY","44110","FRANCE","44",-1.31765,47.65504
257426,"PORT AU LOUP","PORT AU LOUP","44420","FRANCE","44",-2.52699,47.38709
257427,"LA CHAPELLE-ANTHENAISE","LA CHAPELLE-ANTHENAISE","53950","FRANCE","53",-0.67683,48.12205
257428,"ROFFIAT","ROFFIAT","44740","FRANCE","44",-2.44582,47.27738
257430,"GENESTON","GENESTON","44140","FRANCE","44",-1.51365,47.05728
257677,"GROSBREUIL","GROSBREUIL","85440","FRANCE","85",-1.61747,46.53971
257678,"FAY-DE-BRETAGNE","FAY-DE-BRETAGNE","44130","FRANCE","44",-1.79205,47.41501
257682,"LE COUDRAY-MACOUARD","LE COUDRAY-MACOUARD","49260","FRANCE","49",-0.11769,47.19306
257684,"MONTREUIL-POULAY","MONTREUIL-POULAY","53640","FRANCE","53",-0.52126,48.38331
257691,"AVRILLÉ","AVRILLÉ","85440","FRANCE","85",-1.49331,46.47064
257694,"LE GRAND RIGNÉ","LE GRAND RIGNÉ","44660","FRANCE","44",-1.40488,47.74902
257698,"LE BOURG-BÂTARD","LE BOURG-BÂTARD","85120","FRANCE","85",-0.72653,46.64829
257708,"DÉSERTINES","DÉSERTINES","53190","FRANCE","53",-0.86788,48.46871
257710,"LES MONCEAUX","LES MONCEAUX","44470","FRANCE","44",-1.50837,47.31159
257434,"ÉVAILLÉ","ÉVAILLÉ","72120","FRANCE","72",0.63063,47.90069
257436,"SEICHES-SUR-LE-LOIR","SEICHES-SUR-LE-LOIR","49140","FRANCE","49",-0.35885,47.57429
257437,"REMOUILLÉ","REMOUILLÉ","44140","FRANCE","44",-1.37293,47.05714
257438,"LIGNIÈRES-LA-CARELLE","LIGNIÈRES-LA-CARELLE","72610","FRANCE","72",0.17307,48.4353
257440,"LOIRON","LOIRON","53320","FRANCE","53",-0.93541,48.0587
257444,"PONCÉ-SUR-LE-LOIR","PONCÉ-SUR-LE-LOIR","72340","FRANCE","72",0.6562,47.76211
257446,"ORGÈRES LA-ROCHE","ORGÈRES LA-ROCHE","53140","FRANCE","53",-0.23844,48.55686
257450,"TRÉGATÉ","TRÉGATÉ","44740","FRANCE","44",-2.45358,47.28155
257452,"COËX","COËX","85220","FRANCE","85",-1.76099,46.69746
257453,"SAINT-GERMAIN-LE-FOUILLOUX","SAINT-GERMAIN-LE-FOUILLOUX","53240","FRANCE","53",-0.79164,48.13674
257455,"ANTIGNY","ANTIGNY","85120","FRANCE","85",-0.77013,46.62048
257460,"LOUPFOUGÈRES","LOUPFOUGÈRES","53700","FRANCE","53",-0.34812,48.33855
257461,"COMBRÉE","COMBRÉE","49520","FRANCE","49",-1.02826,47.70504
257463,"GRANDE CANTIÈRE LE PONT","GRANDE CANTIÈRE LE PONT","85120","FRANCE","85",-0.72911,46.65783
257464,"NEUVILLETTE-EN-CHARNIE","NEUVILLETTE-EN-CHARNIE","72140","FRANCE","72",-0.21099,48.0938
257713,"LA VERRIE","LA VERRIE","85130","FRANCE","85",-0.99355,46.96542
257718,"SAINTE-CÉCILE","SAINTE-CÉCILE","85110","FRANCE","85",-1.11422,46.74586
257724,"LA MAINBORGÈRE","LA MAINBORGÈRE","85320","FRANCE","85",-1.2818,46.57165
257727,"SAINT-MARS-LA-BRIÈRE","SAINT-MARS-LA-BRIÈRE","72470","FRANCE","72",0.37122,48.02908
257728,"THÉLIGNY","THÉLIGNY","72320","FRANCE","72",0.79849,48.17587
257731,"QUARTIER DE BEAUREGARD","QUARTIER DE BEAUREGARD","85390","FRANCE","85",-0.84566,46.67783
257732,"LE PERRIER","LE PERRIER","85300","FRANCE","85",-1.99409,46.81862
257734,"SOULIGNÉ-SOUS-BALLON","SOULIGNÉ-SOUS-BALLON","72290","FRANCE","72",0.23721,48.13767
257735,"MARSAIS-SAINTE-RADÉGONDE","MARSAIS-SAINTE-RADÉGONDE","85570","FRANCE","85",-0.8812,46.53809
257736,"VEZOT","VEZOT","72600","FRANCE","72",0.2905,48.35293
257739,"L'ÉPINE","L'ÉPINE","85740","FRANCE","85",-2.27049,46.97916
257740,"GUENROUET","GUENROUET","44530","FRANCE","44",-1.95518,47.51971
257741,"BEAULIEU-SUR-LAYON","BEAULIEU-SUR-LAYON","49750","FRANCE","49",-0.59008,47.31077
257744,"CHALONNES-SOUS-LE-LUDE","CHALONNES-SOUS-LE-LUDE","49490","FRANCE","49",0.17285,47.55924
257466,"BRAINS","BRAINS","44830","FRANCE","44",-1.7247,47.16995
257476,"LES CLOUZEAUX","LES CLOUZEAUX","85430","FRANCE","85",-1.50671,46.63001
257480,"SAINT-CHRISTOPHE-DU-LUAT","SAINT-CHRISTOPHE-DU-LUAT","53150","FRANCE","53",-0.46117,48.13362
257483,"MONTILLIERS","MONTILLIERS","49310","FRANCE","49",-0.50464,47.18276
257489,"MAILLÉ","MAILLÉ","85420","FRANCE","85",-0.78785,46.34221
257748,"KER CHAUVINEAU","KER CHAUVINEAU","85350","FRANCE","85",-2.36688,46.71236
257749,"ÉTRICHÉ","ÉTRICHÉ","49330","FRANCE","49",-0.44467,47.65066
257752,"LE CHAMP-SAINT-PÈRE","LE CHAMP-SAINT-PÈRE","85540","FRANCE","85",-1.34696,46.50681
257754,"LE GUÉ-DE-VELLUIRE","LE GUÉ-DE-VELLUIRE","85770","FRANCE","85",-0.92362,46.3737
257755,"L'IMMACULÉE","L'IMMACULÉE","44600","FRANCE","44",-2.25975,47.28336
257756,"SAINT-MARS-DES-PRÉS","SAINT-MARS-DES-PRÉS","85110","FRANCE","85",-1.00299,46.68218
257757,"CASSON","CASSON","44390","FRANCE","44",-1.55775,47.38708
257758,"SAINT-JEAN-DE-BOISEAU","SAINT-JEAN-DE-BOISEAU","44640","FRANCE","44",-1.72472,47.19526
257765,"BEAULIEU","BEAULIEU","85320","FRANCE","85",-1.2229,46.52753
257767,"LE TREMBLAY","LE TREMBLAY","49520","FRANCE","49",-1.01759,47.67696
257768,"SAINT-JULIEN-DE-VOUVANTES","SAINT-JULIEN-DE-VOUVANTES","44670","FRANCE","44",-1.23851,47.64182
257776,"TRÉMONT","TRÉMONT","49310","FRANCE","49",-0.44704,47.15742
257500,"SAINTE-RADÉGONDE-DES-NOYERS","SAINTE-RADÉGONDE-DES-NOYERS","85450","FRANCE","85",-1.06311,46.37458
257501,"LERNAY","LERNAY","49260","FRANCE","49",-0.16263,47.08268
257503,"LE FUILET","LE FUILET","49270","FRANCE","49",-1.11536,47.28148
257509,"CORNÉ","CORNÉ","49630","FRANCE","49",-0.35125,47.47113
257511,"BAZOUGES","BAZOUGES","53200","FRANCE","53",-0.71944,47.83549
257512,"BONNE-FONTAINE","BONNE-FONTAINE","44660","FRANCE","44",-1.46725,47.81104
257513,"LES ANGES","LES ANGES","49500","FRANCE","49",-0.88354,47.76376
257514,"SAINT-HILAIRE-DU-BOIS","SAINT-HILAIRE-DU-BOIS","85410","FRANCE","85",-0.93884,46.63322
257516,"JARD-SUR-MER","JARD-SUR-MER","85520","FRANCE","85",-1.5769,46.41494
257517,"MONNIÈRES","MONNIÈRES","44690","FRANCE","44",-1.35535,47.13135
257518,"PARÇAY-LES-PINS","PARÇAY-LES-PINS","49390","FRANCE","49",0.1617,47.43795
257525,"LA BILLONNIÈRE","LA BILLONNIÈRE","85150","FRANCE","85",-1.69152,46.51306
257526,"LA PETITE BAZONNIÈRE","LA PETITE BAZONNIÈRE","44680","FRANCE","44",-1.80438,47.11601
257530,"LA BRÉBIONNIÈRE","LA BRÉBIONNIÈRE","44190","FRANCE","44",-1.27177,47.10859
257532,"SAINT-LAURENT-DE-LA-SALLE","SAINT-LAURENT-DE-LA-SALLE","85410","FRANCE","85",-0.91721,46.56881
257534,"CURES","CURES","72240","FRANCE","72",-0.00562,48.10099
261395,"LES CERQUEUX-SOUS-PASSAVANT","LES CERQUEUX-SOUS-PASSAVANT","49310","FRANCE","49",-0.46755,47.10803
261396,"L'AIGUILLON-SUR-VIE","L'AIGUILLON-SUR-VIE","85220","FRANCE","85",-1.83074,46.67364
261399,"LE PIN-EN-MAUGES","LE PIN-EN-MAUGES","49110","FRANCE","49",-0.89859,47.2539
261401,"SARRIGNÉ","SARRIGNÉ","49800","FRANCE","49",-0.38499,47.50146
261402,"LIVET","LIVET","53150","FRANCE","53",-0.46113,48.10811
261405,"SAINT-MAIXENT","SAINT-MAIXENT","72320","FRANCE","72",0.65412,48.08996
261407,"LA BOISSIÈRE-DU-DORÉ","LA BOISSIÈRE-DU-DORÉ","44430","FRANCE","44",-1.21898,47.23316
261408,"MALLIÈVRE","MALLIÈVRE","85590","FRANCE","85",-0.86462,46.91245
261410,"MASSÉRAC","MASSÉRAC","44290","FRANCE","44",-1.91643,47.67303
261414,"LA GRÉE SAINT-JACQUES","LA GRÉE SAINT-JACQUES","44540","FRANCE","44",-1.05142,47.56506
261415,"LA TOUCHE","LA TOUCHE","44110","FRANCE","44",-1.33038,47.68693
261419,"PETOSSE","PETOSSE","85570","FRANCE","85",-0.90824,46.48196
261421,"LE GRAND-LUCÉ","LE GRAND-LUCÉ","72150","FRANCE","72",0.46934,47.865
261423,"LA CHAPELLE-DES-MARAIS","LA CHAPELLE-DES-MARAIS","44410","FRANCE","44",-2.24124,47.44781
261424,"CAMPBON","CAMPBON","44750","FRANCE","44",-1.96989,47.41285
261675,"CHÂTELAIN","CHÂTELAIN","53200","FRANCE","53",-0.59759,47.80918
261676,"LANDEMONT","LANDEMONT","49270","FRANCE","49",-1.2426,47.26507
261677,"LES PINEAUX","LES PINEAUX","85320","FRANCE","85",-1.17978,46.59659
261681,"CHAUVÉ","CHAUVÉ","44320","FRANCE","44",-1.98488,47.15053
261693,"FAVERAYE","FAVERAYE","49380","FRANCE","49",-0.50175,47.25234
261695,"SAINT-MICHEL-DE-FEINS","SAINT-MICHEL-DE-FEINS","53290","FRANCE","53",-0.56905,47.77799
261696,"MONTFAUCON","MONTFAUCON","49230","FRANCE","49",-1.12505,47.10001
261698,"FLÉE","FLÉE","72500","FRANCE","72",0.45327,47.73641
261704,"PRÉ-EN-PAIL","PRÉ-EN-PAIL","53140","FRANCE","53",-0.19827,48.4598
261956,"LA BOISSIÈRE-DES-LANDES","LA BOISSIÈRE-DES-LANDES","85430","FRANCE","85",-1.46208,46.56464
261960,"COURCEBOEUFS","COURCEBOEUFS","72290","FRANCE","72",0.28719,48.13729
261962,"DÉNEZÉ-SOUS-DOUÉ","DÉNEZÉ-SOUS-DOUÉ","49700","FRANCE","49",-0.27487,47.24741
261968,"BOURGNEUF","BOURGNEUF","85200","FRANCE","85",-0.82648,46.41934
261969,"LE BEIGNON-BASSET","LE BEIGNON-BASSET","85170","FRANCE","85",-1.42681,46.72681
261971,"SAINT-SATURNIN","SAINT-SATURNIN","72650","FRANCE","72",0.16446,48.06139
261974,"LA BLINIÈRE","LA BLINIÈRE","49120","FRANCE","49",-0.70936,47.30472
261976,"LIGNIÈRES-ORGÈRES","LIGNIÈRES-ORGÈRES","53140","FRANCE","53",-0.20651,48.54213
261978,"HAMEAU DE SAINT-DENIS DU TERTRE","HAMEAU DE SAINT-DENIS DU TERTRE","72470","FRANCE","72",0.39876,48.01772
261979,"COUTURES","COUTURES","49320","FRANCE","49",-0.35479,47.36255
261981,"SAINT-LÉGER-LES-VIGNES","SAINT-LÉGER-LES-VIGNES","44710","FRANCE","44",-1.73561,47.13576
261983,"SAVIGNÉ-SOUS-LE-LUDE","SAVIGNÉ-SOUS-LE-LUDE","72800","FRANCE","72",0.05801,47.61845
261984,"LE CELLIER","LE CELLIER","44850","FRANCE","44",-1.34612,47.3191
261985,"SAINT-MARTIN-DE-FRAIGNEAU","SAINT-MARTIN-DE-FRAIGNEAU","85200","FRANCE","85",-0.7454,46.43493
261986,"FOUGEROLLES-DU-PLESSIS","FOUGEROLLES-DU-PLESSIS","53190","FRANCE","53",-0.97228,48.47472
262199,"LA LANDE-CHASLES","LA LANDE-CHASLES","49150","FRANCE","49",-0.06392,47.46995
262201,"LONGEVILLE-SUR-MER","LONGEVILLE-SUR-MER","85560","FRANCE","85",-1.48981,46.42463
262202,"TRÈVES","TRÈVES","49350","FRANCE","49",-0.18544,47.3217
262206,"SAINT-GERMAIN-SUR-SARTHE","SAINT-GERMAIN-SUR-SARTHE","72130","FRANCE","72",0.09599,48.28567
262210,"LE BOULAY","LE BOULAY","44850","FRANCE","44",-1.32838,47.43025
262213,"CHENILLÉ-CHANGÉ","CHENILLÉ-CHANGÉ","49220","FRANCE","49",-0.66662,47.6998
262221,"PENDU","PENDU","53200","FRANCE","53",-0.69899,47.81734
262224,"AUVERSE","AUVERSE","49490","FRANCE","49",0.05241,47.51795
262228,"LA MIMEROLLE","LA MIMEROLLE","49350","FRANCE","49",-0.14267,47.30045
262231,"SAINT-MÉDARD DES PRÉS","SAINT-MÉDARD DES PRÉS","85200","FRANCE","85",-0.81221,46.45456
262232,"SAINT-MARC-SUR-MER","SAINT-MARC-SUR-MER","44600","FRANCE","44",-2.27848,47.24031
262233,"MACHECOUL","MACHECOUL","44270","FRANCE","44",-1.82451,46.99533
262235,"VUE","VUE","44640","FRANCE","44",-1.87731,47.19981
262238,"DUREIL","DUREIL","72270","FRANCE","72",-0.14674,47.84333
262239,"AUBIGNÉ-SUR-LAYON","AUBIGNÉ-SUR-LAYON","49540","FRANCE","49",-0.45988,47.21248
262240,"LES ESSAIS","LES ESSAIS","85150","FRANCE","85",-1.65781,46.62245
262244,"RENAZÉ","RENAZÉ","53800","FRANCE","53",-1.05581,47.79412
262255,"SAINT-ULPHACE","SAINT-ULPHACE","72320","FRANCE","72",0.81742,48.15881
262257,"CHARZAIS","CHARZAIS","85200","FRANCE","85",-0.77274,46.46836
262258,"MONT","MONT","49380","FRANCE","49",-0.54048,47.30071
262259,"FRESNAY-EN-RETZ","FRESNAY-EN-RETZ","44580","FRANCE","44",-1.87772,47.02514
262261,"LA HITIÈRE","LA HITIÈRE","44470","FRANCE","44",-1.43815,47.29998
262263,"LA BAZOUGE-DE-CHEMERÉ","LA BAZOUGE-DE-CHEMERÉ","53170","FRANCE","53",-0.48781,48.00148
262265,"HÉRIC","HÉRIC","44810","FRANCE","44",-1.65227,47.41402
262269,"SAINT-HILAIRE-SAINT-FLORENT","SAINT-HILAIRE-SAINT-FLORENT","49400","FRANCE","49",-0.10234,47.26613
262277,"SAINT-MARS-SUR-COLMONT","SAINT-MARS-SUR-COLMONT","53300","FRANCE","53",-0.69709,48.37508
262278,"CHANTENAY-VILLEDIEU","CHANTENAY-VILLEDIEU","72430","FRANCE","72",-0.16129,47.92108
262279,"ROCHEMENIER","ROCHEMENIER","49700","FRANCE","49",-0.29746,47.23406
262289,"LA BOSSE","LA BOSSE","72400","FRANCE","72",0.52719,48.17066
262290,"NYOISEAU","NYOISEAU","49500","FRANCE","49",-0.91584,47.71633
262291,"LA MÉTAIRIE","LA MÉTAIRIE","44690","FRANCE","44",-1.40398,47.14316
262295,"LE CERF","LE CERF","85240","FRANCE","85",-0.63451,46.56861
262296,"ÉPIRÉ","ÉPIRÉ","49170","FRANCE","49",-0.63432,47.3978
262299,"CORDEMAIS","CORDEMAIS","44360","FRANCE","44",-1.8788,47.29003
262300,"NOTRE-DAME-DES-MAUGES","NOTRE-DAME-DES-MAUGES","49510","FRANCE","49",-0.82544,47.23554
262304,"BOUËR","BOUËR","72390","FRANCE","72",0.63019,48.08221
262307,"LE CROISIC","LE CROISIC","44490","FRANCE","44",-2.5138,47.29535
262308,"CHERREAU","CHERREAU","72400","FRANCE","72",0.68396,48.19264
262309,"BOUILLÉ","BOUILLÉ","85420","FRANCE","85",-0.6871,46.39118
262315,"BALLOIRE","BALLOIRE","49260","FRANCE","49",-0.08781,47.13551
262317,"CONNERRÉ","CONNERRÉ","72160","FRANCE","72",0.49141,48.06043
262320,"ROU-MARSON","ROU-MARSON","49400","FRANCE","49",-0.15841,47.23514
262323,"BLÈVES","BLÈVES","72600","FRANCE","72",0.34638,48.45514
262324,"VARENNES-SUR-LOIRE","VARENNES-SUR-LOIRE","49730","FRANCE","49",0.05378,47.24393
262325,"LA GUILTIÈRE","LA GUILTIÈRE","49230","FRANCE","49",-1.22412,47.13311
262326,"SAINT-AIGNAN-DE-COUPTRAIN","SAINT-AIGNAN-DE-COUPTRAIN","53250","FRANCE","53",-0.30316,48.45564
262327,"SAINT-BIEZ-EN-BELIN","SAINT-BIEZ-EN-BELIN","72220","FRANCE","72",0.23904,47.82143
262329,"LA PAQUELAIS","LA PAQUELAIS","44360","FRANCE","44",-1.69656,47.33304
262332,"KER PISSOT","KER PISSOT","85350","FRANCE","85",-2.35786,46.71122
262335,"CHÉMERÉ-LE-ROI","CHÉMERÉ-LE-ROI","53340","FRANCE","53",-0.44175,47.9782
262341,"LIEZ","LIEZ","85420","FRANCE","85",-0.70324,46.37014
262347,"COSSÉ-D'ANJOU","COSSÉ-D'ANJOU","49120","FRANCE","49",-0.67497,47.16488
262350,"AIGREFEUILLE-SUR-MAINE","AIGREFEUILLE-SUR-MAINE","44140","FRANCE","44",-1.3997,47.07658
262351,"LA FORGE","LA FORGE","44520","FRANCE","44",-1.34823,47.60712
262352,"PORT-SAINT-PÈRE","PORT-SAINT-PÈRE","44710","FRANCE","44",-1.74817,47.13383
262353,"BROC","BROC","49490","FRANCE","49",0.16784,47.57952
262355,"SAINT-CRESPIN-SUR-MOINE","SAINT-CRESPIN-SUR-MOINE","49230","FRANCE","49",-1.18685,47.09932
262360,"SAINT-FORT","SAINT-FORT","53200","FRANCE","53",-0.72127,47.79726
262362,"SAINT-HERBLAIN","SAINT-HERBLAIN","44800","FRANCE","44",-1.65405,47.21175
262365,"SAINT-MARS-D'OUTILLÉ","SAINT-MARS-D'OUTILLÉ","72220","FRANCE","72",0.33256,47.87066
262368,"LA POTERIE","LA POTERIE","49230","FRANCE","49",-1.14227,47.15259
262370,"BOURGNEUF","BOURGNEUF","49140","FRANCE","49",-0.32562,47.61503
262372,"SOUILLÉ","SOUILLÉ","72380","FRANCE","72",0.18251,48.11889
262381,"LA DIONNIÈRE","LA DIONNIÈRE","49140","FRANCE","49",-0.48315,47.54451
262383,"ROZAY","ROZAY","44630","FRANCE","44",-1.91067,47.53088
262389,"LE GUÉ-ORY","LE GUÉ-ORY","72130","FRANCE","72",-0.06308,48.30969
262392,"LA RABATELIÈRE","LA RABATELIÈRE","85250","FRANCE","85",-1.26154,46.86245
262393,"ORIGNÉ","ORIGNÉ","53360","FRANCE","53",-0.73102,47.95242
262394,"CHENAY","CHENAY","72610","FRANCE","72",0.16412,48.44897
262396,"TORCÉ-VIVIERS-EN-CHARNIE","TORCÉ-VIVIERS-EN-CHARNIE","53270","FRANCE","53",-0.26176,48.09876
262399,"NOZAY","NOZAY","44170","FRANCE","44",-1.62759,47.56591
262402,"SAUMUR","SAUMUR","49400","FRANCE","49",-0.07932,47.25976
262404,"VALANJOU","VALANJOU","49670","FRANCE","49",-0.59413,47.21316
262407,"VILLEVÊQUE","VILLEVÊQUE","49140","FRANCE","49",-0.42644,47.56083
262411,"BILAC","BILAC","44117","FRANCE","44",-2.31312,47.32851
262412,"SAINT-AUBIN-DES-CHÂTEAUX","SAINT-AUBIN-DES-CHÂTEAUX","44110","FRANCE","44",-1.48758,47.72045
262413,"JUIGNÉ-SUR-SARTHE","JUIGNÉ-SUR-SARTHE","72300","FRANCE","72",-0.28747,47.86221
262417,"POUANCÉ","POUANCÉ","49420","FRANCE","49",-1.17438,47.74054
262420,"SAINT-PÈRE-EN-RETZ","SAINT-PÈRE-EN-RETZ","44320","FRANCE","44",-2.04406,47.20572
262421,"SAINT-GEORGES-SUR-LOIRE","SAINT-GEORGES-SUR-LOIRE","49170","FRANCE","49",-0.76076,47.40876
262426,"BEAUSSE","BEAUSSE","49410","FRANCE","49",-0.92781,47.32081
262427,"SAINT-ANDRÉ-DES-EAUX","SAINT-ANDRÉ-DES-EAUX","44117","FRANCE","44",-2.31154,47.3137
262433,"VAUCHRÉTIEN","VAUCHRÉTIEN","49320","FRANCE","49",-0.47696,47.33234
262437,"MAISONCELLES","MAISONCELLES","72440","FRANCE","72",0.57093,47.93583
262439,"NOTRE-DAME-DE-MONTS","NOTRE-DAME-DE-MONTS","85690","FRANCE","85",-2.13187,46.82799
262441,"RUILLÉ-EN-CHAMPAGNE","RUILLÉ-EN-CHAMPAGNE","72240","FRANCE","72",-0.08278,48.05996
262444,"LA BABINIÈRE","LA BABINIÈRE","44360","FRANCE","44",-1.72626,47.29312
262445,"LA GAUDINIÈRE","LA GAUDINIÈRE","44360","FRANCE","44",-1.71121,47.30202
262446,"MONTFAUCON-MONTIGNÉ","MONTFAUCON-MONTIGNÉ","49230","FRANCE","49",-1.13611,47.0863
262447,"COUDRAY","COUDRAY","53200","FRANCE","53",-0.64331,47.79027
262449,"BOUZILLÉ","BOUZILLÉ","49530","FRANCE","49",-1.11273,47.3399
262455,"LES SABLES","LES SABLES","72110","FRANCE","72",0.37369,48.18993
262456,"LE PÂTIS DE LA NOUE","LE PÂTIS DE LA NOUE","49630","FRANCE","49",-0.30369,47.46844
262458,"SAINT-SIGISMOND","SAINT-SIGISMOND","49123","FRANCE","49",-0.94269,47.45402
262460,"LA POTERIE","LA POTERIE","44690","FRANCE","44",-1.43683,47.11015
262465,"INGRANDES","INGRANDES","49123","FRANCE","49",-0.92247,47.40478
262478,"ROCHE D'IRÉ","ROCHE D'IRÉ","49440","FRANCE","49",-0.9434,47.6452
262484,"SAINT-GEORGES-DES-GARDES","SAINT-GEORGES-DES-GARDES","49120","FRANCE","49",-0.76031,47.15006
262487,"NEUVY-EN-MAUGES","NEUVY-EN-MAUGES","49120","FRANCE","49",-0.82661,47.26759
262492,"MAILLEZAIS","MAILLEZAIS","85420","FRANCE","85",-0.73484,46.37734
262495,"LA ROCHE FOULQUES","LA ROCHE FOULQUES","49140","FRANCE","49",-0.45462,47.57579
262496,"MÛRS-ERIGNÉ","MÛRS-ERIGNÉ","49610","FRANCE","49",-0.55468,47.39559
262497,"ARDENAY","ARDENAY","49290","FRANCE","49",-0.71058,47.33944
262501,"REQUEIL","REQUEIL","72510","FRANCE","72",0.1622,47.7848
262503,"LA CHAPELLE-SAINT-AUBIN","LA CHAPELLE-SAINT-AUBIN","72650","FRANCE","72",0.16125,48.03454
262505,"LA VOLTIÈRE","LA VOLTIÈRE","85710","FRANCE","85",-1.85189,46.89405
262506,"AMNÉ","AMNÉ","72540","FRANCE","72",-0.05862,48.03913
262509,"GRAZAY","GRAZAY","53440","FRANCE","53",-0.48213,48.29044
262511,"COUPTRAIN","COUPTRAIN","53250","FRANCE","53",-0.29712,48.48526
262512,"COMMER","COMMER","53470","FRANCE","53",-0.6203,48.24114
262517,"SAINT-JEAN-DES-MAUVRETS","SAINT-JEAN-DES-MAUVRETS","49320","FRANCE","49",-0.45696,47.4006
262523,"LA SÉGUINIÈRE","LA SÉGUINIÈRE","49280","FRANCE","49",-0.93675,47.06007
262531,"SAINT-LOUP-DU-DORAT","SAINT-LOUP-DU-DORAT","53290","FRANCE","53",-0.4168,47.89022
262533,"ANDIGNÉ","ANDIGNÉ","49220","FRANCE","49",-0.77776,47.66671
262534,"SAINT-OUEN-EN-BELIN","SAINT-OUEN-EN-BELIN","72220","FRANCE","72",0.21056,47.83287
262535,"LA MONTAGNE","LA MONTAGNE","44620","FRANCE","44",-1.68701,47.19106
262536,"NEAU","NEAU","53150","FRANCE","53",-0.47602,48.15618
262542,"LA BOURNÉE","LA BOURNÉE","49700","FRANCE","49",-0.30263,47.25954
262544,"SAINT-GÉRÉON","SAINT-GÉRÉON","44150","FRANCE","44",-1.20214,47.36612
262550,"LÉZIGNÉ","LÉZIGNÉ","49430","FRANCE","49",-0.29497,47.63674
262553,"LES CHAFFAUDS","LES CHAFFAUDS","85110","FRANCE","85",-1.10564,46.7131
262555,"LES ESSARTS","LES ESSARTS","85140","FRANCE","85",-1.228,46.77312
262562,"JALLAIS","JALLAIS","49510","FRANCE","49",-0.87127,47.19855
262563,"VALLÉE DE TORFOU","VALLÉE DE TORFOU","49660","FRANCE","49",-1.1097,47.01644
262564,"MONTIGNÉ-LE-BRILLANT","MONTIGNÉ-LE-BRILLANT","53970","FRANCE","53",-0.81487,48.01028
262573,"LE HOUSSEAU-BRÉTIGNOLLES","LE HOUSSEAU-BRÉTIGNOLLES","53110","FRANCE","53",-0.52163,48.46836
262578,"COURBERIE","COURBERIE","53110","FRANCE","53",-0.48581,48.42182
262579,"SAINT-HILAIRE-LE-LIERRU","SAINT-HILAIRE-LE-LIERRU","72160","FRANCE","72",0.53821,48.10972
262586,"LA BAZOGE-MONTPINÇON","LA BAZOGE-MONTPINÇON","53440","FRANCE","53",-0.57119,48.27959
262588,"CHAVAGNES-LES-REDOUX","CHAVAGNES-LES-REDOUX","85390","FRANCE","85",-0.91861,46.71722
262590,"DENÉE","DENÉE","49190","FRANCE","49",-0.60608,47.38028
262594,"MOLLAY","MOLLAY","49260","FRANCE","49",-0.10124,47.17278
262595,"LA CHESNAIE","LA CHESNAIE","44240","FRANCE","44",-1.53634,47.28134
262596,"LES ROCHERS","LES ROCHERS","85560","FRANCE","85",-1.4924,46.40817
262597,"SAINT-MARTIN-DU-BOIS","SAINT-MARTIN-DU-BOIS","49500","FRANCE","49",-0.74376,47.70688
262598,"LA CINTRÉE","LA CINTRÉE","85200","FRANCE","85",-0.857,46.47139
262600,"SAINT-LÉZIN","SAINT-LÉZIN","49120","FRANCE","49",-0.77497,47.24949
262604,"VIVOIN","VIVOIN","72170","FRANCE","72",0.15634,48.23373
262607,"BOURG-L'ÉVÊQUE","BOURG-L'ÉVÊQUE","49520","FRANCE","49",-1.01274,47.73593
262611,"LA BERNARDIÈRE","LA BERNARDIÈRE","44330","FRANCE","44",-1.36419,47.17219
262612,"CORON","CORON","49690","FRANCE","49",-0.64495,47.12698
262613,"MAYENNE","MAYENNE","53100","FRANCE","53",-0.61721,48.30577
262614,"OISSEAU","OISSEAU","53300","FRANCE","53",-0.67114,48.35746
262615,"MESQUER","MESQUER","44420","FRANCE","44",-2.46214,47.39887
262621,"PIRIAC-SUR-MER","PIRIAC-SUR-MER","44420","FRANCE","44",-2.54729,47.37854
262624,"DOMHERY","DOMHERY","44350","FRANCE","44",-2.43417,47.35966
262627,"LUCHÉ-PRINGÉ","LUCHÉ-PRINGÉ","72800","FRANCE","72",0.07572,47.70366
262631,"MAREIL-SUR-LOIR","MAREIL-SUR-LOIR","72200","FRANCE","72",0.01195,47.71505
262632,"SAINT-PHILBERT DU PONCHAREAU","SAINT-PHILBERT DU PONCHAREAU","85110","FRANCE","85",-0.99215,46.65713
262633,"LA CHAPELLE-DU-GENÊT","LA CHAPELLE-DU-GENÊT","49600","FRANCE","49",-1.018,47.18272
262640,"HAUTE-INDRE","HAUTE-INDRE","44610","FRANCE","44",-1.64947,47.19432
262641,"SAINT-AVAUGOURD-DES-LANDES","SAINT-AVAUGOURD-DES-LANDES","85540","FRANCE","85",-1.48495,46.51354
262642,"AILLIÈRES-BEAUVOIR","AILLIÈRES-BEAUVOIR","72600","FRANCE","72",0.32417,48.40566
262643,"LOUVAINES","LOUVAINES","49500","FRANCE","49",-0.80148,47.69147
262646,"VAUDELNAY","VAUDELNAY","49260","FRANCE","49",-0.20233,47.13651
262649,"VERNIE","VERNIE","72170","FRANCE","72",0.02064,48.18376
262652,"GUÉMENÉ-PENFAO","GUÉMENÉ-PENFAO","44290","FRANCE","44",-1.83362,47.62846
262660,"SAINT-ÉTIENNE-DU-BOIS","SAINT-ÉTIENNE-DU-BOIS","85670","FRANCE","85",-1.6014,46.83334
262661,"CUNAULT","CUNAULT","49350","FRANCE","49",-0.20151,47.3299
262664,"LA CHEVALLERAIS","LA CHEVALLERAIS","44810","FRANCE","44",-1.66641,47.46774
262667,"CONTRES","CONTRES","72110","FRANCE","72",0.48976,48.28158
262676,"SAINT-LAURENT-SUR-SÈVRE","SAINT-LAURENT-SUR-SÈVRE","85290","FRANCE","85",-0.89136,46.95918
262678,"CHÉRANCÉ","CHÉRANCÉ","53400","FRANCE","53",-0.93561,47.79497
262679,"LE GUINEAU","LE GUINEAU","44450","FRANCE","44",-1.3561,47.26815
262680,"SAINT-CHRISTOPHE-DU-JAMBET","SAINT-CHRISTOPHE-DU-JAMBET","72170","FRANCE","72",0.03504,48.23394
262685,"CHANTRIGNÉ","CHANTRIGNÉ","53300","FRANCE","53",-0.56766,48.41521
262690,"CHAUCHÉ","CHAUCHÉ","85140","FRANCE","85",-1.27052,46.82897
262696,"MIROUX","MIROUX","44350","FRANCE","44",-2.43293,47.35538
262700,"L'ÎLE-D'YEU","L'ÎLE-D'YEU","85350","FRANCE","85",-2.34806,46.72406
262707,"LES VERCHERS-SUR-LAYON","LES VERCHERS-SUR-LAYON","49700","FRANCE","49",-0.29663,47.15418
262711,"MALIGNÉ","MALIGNÉ","49540","FRANCE","49",-0.40881,47.22911
262716,"AVRILLAC","AVRILLAC","44117","FRANCE","44",-2.34448,47.31685
262721,"LE BIGNON-DU-MAINE","LE BIGNON-DU-MAINE","53170","FRANCE","53",-0.61037,47.95019
262725,"LA TOUCHE BASSE","LA TOUCHE BASSE","44260","FRANCE","44",-1.96359,47.35956
262736,"LE BOULAY","LE BOULAY","72290","FRANCE","72",0.17627,48.17797
262739,"LE DRESNY","LE DRESNY","44630","FRANCE","44",-1.93605,47.56657
262741,"MARIGNÉ","MARIGNÉ","49330","FRANCE","49",-0.61932,47.72297
262743,"COËMONT","COËMONT","72500","FRANCE","72",0.43874,47.68639
262745,"LA MORANDAIS","LA MORANDAIS","44160","FRANCE","44",-2.0926,47.38161
262751,"MEIGNÉ-LE-VICOMTE","MEIGNÉ-LE-VICOMTE","49490","FRANCE","49",0.18985,47.51084
262754,"GUÉNOUVRY","GUÉNOUVRY","44290","FRANCE","44",-1.77115,47.60419
262759,"SAINT-PIERRE-DE-CHEVILLÉ","SAINT-PIERRE-DE-CHEVILLÉ","72500","FRANCE","72",0.43905,47.64652
262762,"NOTRE-DAME-DE-RIEZ","NOTRE-DAME-DE-RIEZ","85270","FRANCE","85",-1.90594,46.74589
262765,"SAINT-LAURENT-DES-AUTELS","SAINT-LAURENT-DES-AUTELS","49270","FRANCE","49",-1.19042,47.28655
262767,"CHAMPTOCEAUX","CHAMPTOCEAUX","49270","FRANCE","49",-1.26291,47.33734
262768,"AVRILLÉ","AVRILLÉ","49240","FRANCE","49",-0.58756,47.50506
262772,"LOGE-FOUGEREUSE","LOGE-FOUGEREUSE","85120","FRANCE","85",-0.69195,46.61326
262773,"CHÉRISAY","CHÉRISAY","72610","FRANCE","72",0.11224,48.35481
262778,"SAINT-NAZAIRE","SAINT-NAZAIRE","44600","FRANCE","44",-2.20961,47.2789
262779,"BESSÉ-SUR-BRAYE","BESSÉ-SUR-BRAYE","72310","FRANCE","72",0.74948,47.83276
262781,"LE LOROUX-BOTTEREAU","LE LOROUX-BOTTEREAU","44430","FRANCE","44",-1.34861,47.23789
262791,"LA POMMERAIE-SUR-SÈVRE","LA POMMERAIE-SUR-SÈVRE","85700","FRANCE","85",-0.7758,46.83688
262792,"ÉPINEUX-LE-SEGUIN","ÉPINEUX-LE-SEGUIN","53340","FRANCE","53",-0.36151,47.9419
262797,"PRINGÉ","PRINGÉ","72800","FRANCE","72",0.04811,47.71242
262808,"VOUILLÉ-LES-MARAIS","VOUILLÉ-LES-MARAIS","85450","FRANCE","85",-0.96327,46.38813
262811,"CONFLANS-SUR-ANILLE","CONFLANS-SUR-ANILLE","72120","FRANCE","72",0.7451,47.946
262814,"CHARCÉ-SAINT-ELLIER-SUR-AUBANCE","CHARCÉ-SAINT-ELLIER-SUR-AUBANCE","49320","FRANCE","49",-0.41126,47.35584
262816,"PRUILLÉ-LE-CHÉTIF","PRUILLÉ-LE-CHÉTIF","72700","FRANCE","72",0.10757,47.99349
262825,"LA MARZELLE","LA MARZELLE","85110","FRANCE","85",-1.08523,46.70522
262831,"LA BOISSIÈRE-DE-MONTAIGU","LA BOISSIÈRE-DE-MONTAIGU","85600","FRANCE","85",-1.19068,46.94922
262832,"LE MAZEAU","LE MAZEAU","85420","FRANCE","85",-0.67466,46.33567
262835,"SPAY","SPAY","72700","FRANCE","72",0.15034,47.9234
262836,"BAUGÉ","BAUGÉ","49150","FRANCE","49",-0.10377,47.5414
262837,"LA CHAPELLE-BASSE-MER","LA CHAPELLE-BASSE-MER","44450","FRANCE","44",-1.34064,47.2749
262838,"SAINT-GILLES-CROIX-DE-VIE","SAINT-GILLES-CROIX-DE-VIE","85800","FRANCE","85",-1.93337,46.69637
262840,"SAINT-HILAIRE-LE-VOUHIS","SAINT-HILAIRE-LE-VOUHIS","85480","FRANCE","85",-1.13059,46.68832
262842,"SAINT-OUEN-EN-CHAMPAGNE","SAINT-OUEN-EN-CHAMPAGNE","72350","FRANCE","72",-0.1889,47.94946
262844,"ANDOUILLÉ","ANDOUILLÉ","53240","FRANCE","53",-0.78044,48.18097
262851,"LA GACHETIÈRE","LA GACHETIÈRE","49610","FRANCE","49",-0.50467,47.38361
262852,"ROULLÉE","ROULLÉE","72600","FRANCE","72",0.30481,48.46336
262853,"GUÉ-MORIN","GUÉ-MORIN","49490","FRANCE","49",0.17944,47.47496
262855,"GUÉCÉLARD","GUÉCÉLARD","72230","FRANCE","72",0.1299,47.87803
262860,"SAVENNIÈRES","SAVENNIÈRES","49170","FRANCE","49",-0.65797,47.38266
262861,"BOULOIRE","BOULOIRE","72440","FRANCE","72",0.55413,47.97297
262865,"SAINT-PAUL-EN-PAREDS","SAINT-PAUL-EN-PAREDS","85500","FRANCE","85",-0.98579,46.82355
262867,"VOUVANT","VOUVANT","85120","FRANCE","85",-0.77174,46.57396
262869,"BEAUFORT-EN-VALLÉE","BEAUFORT-EN-VALLÉE","49250","FRANCE","49",-0.21638,47.44022
262874,"LES SABLES-D'OLONNE","LES SABLES-D'OLONNE","85100","FRANCE","85",-1.7821,46.49784
262876,"SAINT-JEAN-DU-BOIS","SAINT-JEAN-DU-BOIS","72430","FRANCE","72",-0.0388,47.87298
262877,"BOISSE","BOISSE","85200","FRANCE","85",-0.82749,46.44697
262882,"KERDRIEN","KERDRIEN","44420","FRANCE","44",-2.51664,47.39247
262884,"SÉRIGNÉ","SÉRIGNÉ","85200","FRANCE","85",-0.8449,46.50084
262885,"SAINT-PAVACE","SAINT-PAVACE","72190","FRANCE","72",0.18767,48.03824
262886,"CHEMIRÉ-LE-GAUDIN","CHEMIRÉ-LE-GAUDIN","72210","FRANCE","72",-0.01754,47.92855
262887,"MULSANNE","MULSANNE","72230","FRANCE","72",0.24428,47.90988
262888,"TASSILLÉ","TASSILLÉ","72540","FRANCE","72",-0.09334,47.99286
262889,"SAINT-AUBIN","SAINT-AUBIN","49420","FRANCE","49",-1.17879,47.75135
262890,"MAUMUSSON","MAUMUSSON","44540","FRANCE","44",-1.10408,47.48268
262891,"BÉTHON","BÉTHON","72610","FRANCE","72",0.08779,48.36111
262894,"GAURE","GAURE","49730","FRANCE","49",0.03432,47.23319
262899,"THOUARSAIS-BOUILDROUX","THOUARSAIS-BOUILDROUX","85410","FRANCE","85",-0.88045,46.62012
262902,"LE MARILLAIS","LE MARILLAIS","49410","FRANCE","49",-1.07388,47.35775
262903,"SAINT-CYR-EN-TALMONDAIS","SAINT-CYR-EN-TALMONDAIS","85540","FRANCE","85",-1.33626,46.46014
262904,"CHEFFES","CHEFFES","49125","FRANCE","49",-0.51216,47.61996
262905,"FONTEVRAUD-L'ABBAYE","FONTEVRAUD-L'ABBAYE","49590","FRANCE","49",0.0502,47.18196
262914,"LA HAIE TROIS SOUS","LA HAIE TROIS SOUS","44690","FRANCE","44",-1.40153,47.12536
262916,"MONTPOLLIN","MONTPOLLIN","49150","FRANCE","49",-0.10517,47.58559
262921,"GENNETEIL","GENNETEIL","49490","FRANCE","49",0.05068,47.59089
262924,"MARILLET","MARILLET","85240","FRANCE","85",-0.63353,46.56745
262925,"PARCÉ-SUR-SARTHE","PARCÉ-SUR-SARTHE","72300","FRANCE","72",-0.2017,47.84373
262929,"LES CONCHES","LES CONCHES","85560","FRANCE","85",-1.47015,46.38797
262931,"DRAIN","DRAIN","49530","FRANCE","49",-1.20675,47.339
262939,"LUCÉ-SOUS-BALLON","LUCÉ-SOUS-BALLON","72290","FRANCE","72",0.21471,48.20838
262941,"TEILLÉ","TEILLÉ","44440","FRANCE","44",-1.28087,47.46184
262951,"SOULAIRE-ET-BOURG","SOULAIRE-ET-BOURG","49460","FRANCE","49",-0.55283,47.57899
262952,"SAINTE-CHRISTINE","SAINTE-CHRISTINE","85490","FRANCE","85",-0.6649,46.35572
262953,"LE VAL DE MORIÈRE","LE VAL DE MORIÈRE","44650","FRANCE","44",-1.67886,46.9367
262961,"LA CHAPELLE-ACHARD","LA CHAPELLE-ACHARD","85150","FRANCE","85",-1.64811,46.58804
262962,"LAUBRIÈRES","LAUBRIÈRES","53540","FRANCE","53",-1.08377,47.94242
262964,"JUILLÉ","JUILLÉ","72170","FRANCE","72",0.1209,48.24664
262965,"SAINT-RÉMY-LA-VARENNE","SAINT-RÉMY-LA-VARENNE","49250","FRANCE","49",-0.31699,47.39769
262969,"RUFFIGNÉ-LE-BOURGNEUF","RUFFIGNÉ-LE-BOURGNEUF","44660","FRANCE","44",-1.46643,47.75904
262970,"LA BAZILLÈRE","LA BAZILLÈRE","44220","FRANCE","44",-1.69257,47.22596
262971,"AMBRIÈRES-LES-VALLÉES","AMBRIÈRES-LES-VALLÉES","53300","FRANCE","53",-0.63008,48.40166
262974,"MOUTIERS-LES-MAUXFAITS","MOUTIERS-LES-MAUXFAITS","85540","FRANCE","85",-1.42643,46.49192
262979,"SUCÉ-SUR-ERDRE","SUCÉ-SUR-ERDRE","44240","FRANCE","44",-1.52598,47.3393
262982,"LA RUE","LA RUE","49700","FRANCE","49",-0.27115,47.25819
262984,"SAINTE-CÉROTTE","SAINTE-CÉROTTE","72120","FRANCE","72",0.69073,47.90062
262986,"DOUILLET","DOUILLET","72130","FRANCE","72",-0.04312,48.27315
262988,"SAINT-MICHEL-DE-LA-ROË","SAINT-MICHEL-DE-LA-ROË","53350","FRANCE","53",-1.128,47.87937
262990,"HARDANGES","HARDANGES","53640","FRANCE","53",-0.40218,48.33725
262993,"SAINT-MARS-DE-LOCQUENAY","SAINT-MARS-DE-LOCQUENAY","72440","FRANCE","72",0.48412,47.92747
263000,"ARGENTRÉ","ARGENTRÉ","53210","FRANCE","53",-0.64086,48.08431
263006,"LA CHEVROLIÈRE","LA CHEVROLIÈRE","44118","FRANCE","44",-1.61117,47.091
263009,"LA CHAPELLE-RAINSOUIN","LA CHAPELLE-RAINSOUIN","53150","FRANCE","53",-0.51972,48.09892
263018,"MEIGNÉ","MEIGNÉ","49700","FRANCE","49",-0.20991,47.23244
263019,"CHÂTEAU-GONTIER","CHÂTEAU-GONTIER","53200","FRANCE","53",-0.70792,47.82595
263023,"BARBECHAT","BARBECHAT","44450","FRANCE","44",-1.28667,47.27744
263027,"LA BRETONNIÈRE","LA BRETONNIÈRE","85320","FRANCE","85",-1.25554,46.48406
263029,"MARTINET","MARTINET","85150","FRANCE","85",-1.6786,46.67636
263032,"SAINT-GEORGES-SUR-ERVE","SAINT-GEORGES-SUR-ERVE","53600","FRANCE","53",-0.29969,48.16796
263041,"LA CHAPELLE-SUR-ERDRE","LA CHAPELLE-SUR-ERDRE","44240","FRANCE","44",-1.55009,47.29948
263046,"PARIGNÉ-SUR-BRAYE","PARIGNÉ-SUR-BRAYE","53100","FRANCE","53",-0.65237,48.3176
263047,"COUDRECIEUX","COUDRECIEUX","72440","FRANCE","72",0.62968,47.99235
263049,"LE GREZ","LE GREZ","72140","FRANCE","72",-0.15266,48.19031
263050,"PORT-BRILLET","PORT-BRILLET","53410","FRANCE","53",-0.97495,48.11367
263058,"SAINT-OUEN-DE-MIMBRÉ","SAINT-OUEN-DE-MIMBRÉ","72130","FRANCE","72",0.04857,48.29347
263061,"CHAMPFLEUR","CHAMPFLEUR","72610","FRANCE","72",0.12612,48.38611
263063,"POILLÉ-SUR-VÈGRE","POILLÉ-SUR-VÈGRE","72350","FRANCE","72",-0.26602,47.91889
263065,"LES MOTTES","LES MOTTES","85210","FRANCE","85",-1.12126,46.52662
263066,"LES CLOUS","LES CLOUS","85110","FRANCE","85",-1.07263,46.69361
263217,"CHÂTEAU-D'OLONNE","CHÂTEAU-D'OLONNE","85180","FRANCE","85",-1.73771,46.50458
263218,"LE BOUT-DES-PONTS","LE BOUT-DES-PONTS","44450","FRANCE","44",-1.4253,47.25822
263219,"LA SALBOIRE","LA SALBOIRE","85700","FRANCE","85",-0.86531,46.72822
263220,"SAINT-THOMAS-DE-COURCERIERS","SAINT-THOMAS-DE-COURCERIERS","53160","FRANCE","53",-0.26593,48.27544
263222,"BOUAYE","BOUAYE","44830","FRANCE","44",-1.6868,47.1441
263223,"MENOMBLET","MENOMBLET","85700","FRANCE","85",-0.71206,46.73246
263227,"DEHAULT","DEHAULT","72400","FRANCE","72",0.57132,48.21057
263229,"BIZAY","BIZAY","49260","FRANCE","49",-0.02945,47.15474
263230,"LE BAILLEUL","LE BAILLEUL","72200","FRANCE","72",-0.1596,47.76863
263231,"LAIROUX","LAIROUX","85400","FRANCE","85",-1.2664,46.44801
263232,"MÂCHELLES","MÂCHELLES","49380","FRANCE","49",-0.49965,47.2388
263234,"CHIGNÉ","CHIGNÉ","49490","FRANCE","49",0.0877,47.58382
263238,"CHÂTEAU-GUIBERT","CHÂTEAU-GUIBERT","85320","FRANCE","85",-1.23643,46.58169
263239,"SOUGÉ-LE-GANELON","SOUGÉ-LE-GANELON","72130","FRANCE","72",-0.03004,48.31796
263246,"THOIRÉ-SOUS-CONTENSOR","THOIRÉ-SOUS-CONTENSOR","72610","FRANCE","72",0.20074,48.31125
263247,"PONTMAIN","PONTMAIN","53220","FRANCE","53",-1.05878,48.43873
263250,"BEAUFAY","BEAUFAY","72110","FRANCE","72",0.36301,48.14717
263074,"SAINT-MARS-SOUS-BALLON","SAINT-MARS-SOUS-BALLON","72290","FRANCE","72",0.2454,48.17263
263075,"MERVENT","MERVENT","85200","FRANCE","85",-0.75903,46.52274
263077,"SAINT-MACAIRE-EN-MAUGES","SAINT-MACAIRE-EN-MAUGES","49450","FRANCE","49",-0.99229,47.12286
263080,"LAIGNÉ","LAIGNÉ","53200","FRANCE","53",-0.81844,47.84192
263081,"QUIMIAC","QUIMIAC","44420","FRANCE","44",-2.48433,47.4065
263083,"NEUILLÉ","NEUILLÉ","49680","FRANCE","49",-0.03697,47.34236
263084,"ÉCORPAIN","ÉCORPAIN","72120","FRANCE","72",0.65935,47.93763
263086,"GENÉ","GENÉ","49220","FRANCE","49",-0.80431,47.63069
263088,"PLACÉ","PLACÉ","53240","FRANCE","53",-0.77762,48.25318
263094,"BREUIL-BARRET","BREUIL-BARRET","85120","FRANCE","85",-0.68172,46.65189
263095,"SAINT-AUBIN-DU-PAVOIL","SAINT-AUBIN-DU-PAVOIL","49500","FRANCE","49",-0.87679,47.70405
263097,"CHEVIRÉ-LE-ROUGE","CHEVIRÉ-LE-ROUGE","49150","FRANCE","49",-0.18276,47.59535
263098,"BEL AIR","BEL AIR","85290","FRANCE","85",-0.88238,46.95573
263102,"BEAUPRÉAU","BEAUPRÉAU","49600","FRANCE","49",-0.99219,47.20171
263108,"BRIGNÉ","BRIGNÉ","49700","FRANCE","49",-0.38318,47.24555
263146,"LA RAFFINIÈRE","LA RAFFINIÈRE","44640","FRANCE","44",-1.84308,47.19345
263147,"BOUGUENAIS","BOUGUENAIS","44340","FRANCE","44",-1.62346,47.17952
263151,"RENNES-EN-GRENOUILLES","RENNES-EN-GRENOUILLES","53110","FRANCE","53",-0.51298,48.49323
263154,"MAZÉ","MAZÉ","49630","FRANCE","49",-0.27221,47.4561
263157,"LA CAVERNIÈRE","LA CAVERNIÈRE","44640","FRANCE","44",-1.86439,47.17892
263158,"BREIL","BREIL","49490","FRANCE","49",0.15804,47.47445
263160,"LONGUÉ","LONGUÉ","49160","FRANCE","49",-0.10653,47.37642
263164,"LES AGETS","LES AGETS","53290","FRANCE","53",-0.42429,47.86709
263165,"PRIGNY","PRIGNY","44760","FRANCE","44",-1.98052,47.067
263167,"MÉZIÈRES-SOUS-LAVARDIN","MÉZIÈRES-SOUS-LAVARDIN","72240","FRANCE","72",0.02997,48.1548
263286,"CLERMONT-CRÉANS","CLERMONT-CRÉANS","72200","FRANCE","72",-0.01609,47.71756
263287,"LE MESNIL-EN-VALLÉE","LE MESNIL-EN-VALLÉE","49410","FRANCE","49",-0.93461,47.36495
263294,"SAINTE-FOY","SAINTE-FOY","85150","FRANCE","85",-1.67088,46.5452
263296,"SAINT-CORNEILLE","SAINT-CORNEILLE","72460","FRANCE","72",0.34339,48.06658
263303,"SAINT-GERMAIN","SAINT-GERMAIN","49640","FRANCE","49",-0.34915,47.70445
263305,"SAINT-CYR-EN-PAIL","SAINT-CYR-EN-PAIL","53140","FRANCE","53",-0.24243,48.44191
263309,"LA ROCHE","LA ROCHE","85700","FRANCE","85",-0.82609,46.74515
263310,"LA BRUÈRE-SUR-LOIR","LA BRUÈRE-SUR-LOIR","72500","FRANCE","72",0.34993,47.65112
263311,"LES BECS","LES BECS","85270","FRANCE","85",-2.02503,46.75914
263315,"LA CORNUAILLE","LA CORNUAILLE","49440","FRANCE","49",-0.98369,47.5111
263320,"LA CORNILLÈRE","LA CORNILLÈRE","44690","FRANCE","44",-1.42543,47.16455
263109,"BOUÈRE","BOUÈRE","53290","FRANCE","53",-0.47694,47.86345
263110,"MAROLLES-LES-BRAULTS","MAROLLES-LES-BRAULTS","72260","FRANCE","72",0.32171,48.25903
263111,"VALENNES","VALENNES","72320","FRANCE","72",0.81329,47.99943
263114,"SAINT-JEAN-DES-ÉCHELLES","SAINT-JEAN-DES-ÉCHELLES","72320","FRANCE","72",0.71277,48.12898
263115,"SAINT-MICHEL-ET-CHANVEAUX","SAINT-MICHEL-ET-CHANVEAUX","49420","FRANCE","49",-1.13123,47.6812
263119,"SIGOURNAIS","SIGOURNAIS","85110","FRANCE","85",-0.9873,46.70629
263123,"CHALLES","CHALLES","72250","FRANCE","72",0.41346,47.93087
263124,"THORIGNÉ-EN-CHARNIE","THORIGNÉ-EN-CHARNIE","53270","FRANCE","53",-0.35862,48.00054
263126,"BRÛLON","BRÛLON","72350","FRANCE","72",-0.23228,47.9676
263130,"POMMERIEUX","POMMERIEUX","53400","FRANCE","53",-0.89823,47.82319
263132,"VILLENEUVE","VILLENEUVE","49540","FRANCE","49",-0.45182,47.22286
263140,"LA SICAUDAIS","LA SICAUDAIS","44320","FRANCE","44",-1.94662,47.18815
263183,"CONTILLY","CONTILLY","72600","FRANCE","72",0.37049,48.40057
263191,"LE CALVAIRE","LE CALVAIRE","44160","FRANCE","44",-2.13158,47.44303
263192,"CHÂTILLON-SUR-COLMONT","CHÂTILLON-SUR-COLMONT","53100","FRANCE","53",-0.74091,48.33822
263197,"AISNE","AISNE","85450","FRANCE","85",-1.02236,46.38116
263198,"LA GIRARDIÈRE","LA GIRARDIÈRE","85280","FRANCE","85",-1.38121,46.73627
263199,"SAINT-SÉBASTIEN-SUR-LOIRE","SAINT-SÉBASTIEN-SUR-LOIRE","44230","FRANCE","44",-1.50104,47.20623
263202,"ROUESSÉ-VASSÉ","ROUESSÉ-VASSÉ","72140","FRANCE","72",-0.1957,48.16006
263206,"NOTRE-DAME-DU-PÉ","NOTRE-DAME-DU-PÉ","72300","FRANCE","72",-0.32655,47.73106
263207,"LA FRESNAYE-SUR-CHÉDOUET","LA FRESNAYE-SUR-CHÉDOUET","72600","FRANCE","72",0.25404,48.44779
263212,"VRITZ","VRITZ","44540","FRANCE","44",-1.07128,47.58171
263215,"PRÉCIGNÉ","PRÉCIGNÉ","72300","FRANCE","72",-0.32464,47.76638
263255,"LE CLION-SUR-MER","LE CLION-SUR-MER","44210","FRANCE","44",-2.05426,47.12259
263258,"SAINT-DENIS-DE-GASTINES","SAINT-DENIS-DE-GASTINES","53500","FRANCE","53",-0.86472,48.3427
263261,"BEILLÉ","BEILLÉ","72160","FRANCE","72",0.51208,48.08344
263266,"LUÇON","LUÇON","85400","FRANCE","85",-1.1666,46.45497
263268,"MONTREUIL-SUR-LOIR","MONTREUIL-SUR-LOIR","49140","FRANCE","49",-0.40503,47.60819
263273,"MONTJEAN","MONTJEAN","53320","FRANCE","53",-0.95917,48.00606
263274,"SAINT-HILAIRE-DES-LOGES","SAINT-HILAIRE-DES-LOGES","85240","FRANCE","85",-0.66507,46.47058
263280,"EMBREIL","EMBREIL","44450","FRANCE","44",-1.43237,47.22051
263284,"LA CHAPELLE-AU-GRAIN","LA CHAPELLE-AU-GRAIN","53100","FRANCE","53",-0.75105,48.28013
263285,"LIGRON","LIGRON","72270","FRANCE","72",0.00903,47.77096
261150,"CHARCHIGNÉ","CHARCHIGNÉ","53250","FRANCE","53",-0.40697,48.4173
261153,"SAINT-SAMSON","SAINT-SAMSON","53140","FRANCE","53",-0.19089,48.4844
261156,"JOUÉ-SUR-ERDRE","JOUÉ-SUR-ERDRE","44440","FRANCE","44",-1.42111,47.49582
261159,"CHASSENON-LE-BOURG","CHASSENON-LE-BOURG","85240","FRANCE","85",-0.70099,46.47784
261161,"SAINT-LÉGER","SAINT-LÉGER","53480","FRANCE","53",-0.45583,48.08246
261164,"JAVRON-LES-CHAPELLES","JAVRON-LES-CHAPELLES","53250","FRANCE","53",-0.3318,48.41872
261165,"LE PETIT PARIS","LE PETIT PARIS","49170","FRANCE","49",-0.72717,47.43145
261169,"LA ROCHE-SUR-YON","LA ROCHE-SUR-YON","85000","FRANCE","85",-1.42738,46.67194
261171,"LA PÉCARDIÈRE","LA PÉCARDIÈRE","72450","FRANCE","72",0.40695,48.04099
261173,"PONTVALLAIN","PONTVALLAIN","72510","FRANCE","72",0.19204,47.75311
261175,"LA TRANCHE-SUR-MER","LA TRANCHE-SUR-MER","85360","FRANCE","85",-1.43885,46.34369
261176,"LE PLANTY","LE PLANTY","85600","FRANCE","85",-1.298,46.96722
261177,"CHERRÉ","CHERRÉ","49330","FRANCE","49",-0.56349,47.71057
261179,"BEAUFOU","BEAUFOU","85170","FRANCE","85",-1.53108,46.82436
261180,"LA PALLU","LA PALLU","53140","FRANCE","53",-0.29966,48.50648
261431,"L'HUMEAU DE BRAY","L'HUMEAU DE BRAY","49260","FRANCE","49",-0.28652,47.11814
261435,"CHEVILLÉ","CHEVILLÉ","72350","FRANCE","72",-0.22513,47.949
261437,"HERBIGNAC","HERBIGNAC","44410","FRANCE","44",-2.31801,47.44881
261439,"LA CHAPELLE-GLAIN","LA CHAPELLE-GLAIN","44670","FRANCE","44",-1.19768,47.62401
261440,"SAINT-DENIS-LA-CHEVASSE","SAINT-DENIS-LA-CHEVASSE","85170","FRANCE","85",-1.3579,46.82244
261441,"ANGRIE","ANGRIE","49440","FRANCE","49",-0.97311,47.5706
261444,"SAINT-MARTIN-D'ARCÉ","SAINT-MARTIN-D'ARCÉ","49150","FRANCE","49",-0.08084,47.55872
261445,"SAINT-ROCH","SAINT-ROCH","44160","FRANCE","44",-2.05481,47.40424
261446,"LAVAL","LAVAL","53000","FRANCE","53",-0.77306,48.07272
261456,"SAINT-SULPICE-EN-PAREDS","SAINT-SULPICE-EN-PAREDS","85410","FRANCE","85",-0.83619,46.60163
261458,"VILLENEUVE","VILLENEUVE","85490","FRANCE","85",-0.60989,46.36347
261460,"NEUVILLALAIS","NEUVILLALAIS","72240","FRANCE","72",-0.00156,48.15601
261711,"BEAUVOIR-SUR-MER","BEAUVOIR-SUR-MER","85230","FRANCE","85",-2.04318,46.91579
261716,"LA BACONNIÈRE","LA BACONNIÈRE","53240","FRANCE","53",-0.89362,48.18332
261722,"LA ROCHE-BLANCHE","LA ROCHE-BLANCHE","44522","FRANCE","44",-1.13285,47.44186
261725,"SAINT-MARTIN-LARS-EN-SAINTE-HERMINE","SAINT-MARTIN-LARS-EN-SAINTE-HERMINE","85210","FRANCE","85",-0.97983,46.59179
261726,"LE PERTHUIS-FOUCQUES","LE PERTHUIS-FOUCQUES","44190","FRANCE","44",-1.262,47.11087
261729,"LE FENOUILLER","LE FENOUILLER","85800","FRANCE","85",-1.90066,46.7197
261733,"SAINT-JULIEN-DES-LANDES","SAINT-JULIEN-DES-LANDES","85150","FRANCE","85",-1.71191,46.64009
261738,"BOUÉE","BOUÉE","44260","FRANCE","44",-1.91027,47.32103
261739,"VILLAINES-LA-CARELLE","VILLAINES-LA-CARELLE","72600","FRANCE","72",0.30055,48.37684
261740,"LE TEMPLE-DE-BRETAGNE","LE TEMPLE-DE-BRETAGNE","44360","FRANCE","44",-1.79034,47.32774
261742,"LES COURTES","LES COURTES","44470","FRANCE","44",-1.4493,47.30036
261990,"CHÂTELAIS","CHÂTELAIS","49520","FRANCE","49",-0.9266,47.7585
261992,"SAINT-JUIRE-CHAMPGILLON","SAINT-JUIRE-CHAMPGILLON","85210","FRANCE","85",-1.02737,46.57857
261993,"MONTOURTIER","MONTOURTIER","53150","FRANCE","53",-0.55233,48.20348
261997,"COMMEQUIERS","COMMEQUIERS","85220","FRANCE","85",-1.83728,46.76174
261998,"BOIRE-COURANT","BOIRE-COURANT","44450","FRANCE","44",-1.43374,47.24771
262003,"LES MÉES","LES MÉES","72260","FRANCE","72",0.23128,48.31485
262005,"MÉSANGER","MÉSANGER","44522","FRANCE","44",-1.23133,47.43219
262018,"FORCÉ","FORCÉ","53260","FRANCE","53",-0.70357,48.03348
262020,"LAUNAY","LAUNAY","44640","FRANCE","44",-1.82966,47.19653
262021,"PLESSÉ","PLESSÉ","44630","FRANCE","44",-1.88812,47.54109
262023,"LA FERRIÈRE-DE-FLÉE","LA FERRIÈRE-DE-FLÉE","49500","FRANCE","49",-0.84635,47.73081
261187,"LE POIRÉ-SUR-VIE","LE POIRÉ-SUR-VIE","85170","FRANCE","85",-1.50954,46.76813
261190,"LA PYRAMIDE","LA PYRAMIDE","49800","FRANCE","49",-0.49166,47.44142
261194,"MÉON","MÉON","49490","FRANCE","49",0.1192,47.49495
261200,"LA HUNIÈRE-LES ÉTOURNEAUX","LA HUNIÈRE-LES ÉTOURNEAUX","44522","FRANCE","44",-1.21887,47.39879
261206,"LE GENEST-SAINT-ISLE","LE GENEST-SAINT-ISLE","53940","FRANCE","53",-0.88805,48.09875
261209,"CLIS","CLIS","44350","FRANCE","44",-2.46677,47.33707
261210,"GRUGÉ-L'HÔPITAL","GRUGÉ-L'HÔPITAL","49520","FRANCE","49",-1.0388,47.75142
261211,"LA LANDE D'UST","LA LANDE D'UST","44117","FRANCE","44",-2.2768,47.32177
261215,"MONSIREIGNE","MONSIREIGNE","85110","FRANCE","85",-0.94952,46.74503
261465,"PONT-SAINT-MARTIN","PONT-SAINT-MARTIN","44860","FRANCE","44",-1.58398,47.12423
261475,"LE LION-D'ANGERS","LE LION-D'ANGERS","49220","FRANCE","49",-0.71313,47.62888
261476,"LA SUZE-SUR-SARTHE","LA SUZE-SUR-SARTHE","72210","FRANCE","72",0.02724,47.88969
261480,"SAINTE-HERMINE","SAINTE-HERMINE","85210","FRANCE","85",-1.06052,46.56021
261482,"CONGRIER","CONGRIER","53800","FRANCE","53",-1.11632,47.81063
261485,"MONTREUIL-LE-CHÉTIF","MONTREUIL-LE-CHÉTIF","72130","FRANCE","72",-0.03607,48.24463
261486,"FATINES","FATINES","72470","FRANCE","72",0.34973,48.04635
261488,"ARDENAY-SUR-MÉRIZE","ARDENAY-SUR-MÉRIZE","72370","FRANCE","72",0.42459,47.99611
261491,"SAINT-AUGUSTIN-DES-BOIS","SAINT-AUGUSTIN-DES-BOIS","49170","FRANCE","49",-0.79539,47.4593
261492,"VALLET","VALLET","44330","FRANCE","44",-1.26522,47.16109
261495,"LES BOURDETTES","LES BOURDETTES","85420","FRANCE","85",-0.71982,46.30791
261497,"LOUPLANDE","LOUPLANDE","72210","FRANCE","72",0.04631,47.94427
261744,"COUESMES-VAUCÉ","COUESMES-VAUCÉ","53300","FRANCE","53",-0.70966,48.4518
261745,"SAINT-CHRISTOPHE-LA-COUPERIE","SAINT-CHRISTOPHE-LA-COUPERIE","49270","FRANCE","49",-1.18447,47.25349
261747,"LE PLESSIS-MACÉ","LE PLESSIS-MACÉ","49770","FRANCE","49",-0.67308,47.54306
261752,"SAINT-MARS-LA-RÉORTHE","SAINT-MARS-LA-RÉORTHE","85590","FRANCE","85",-0.92515,46.8614
261756,"LAILLÉ","LAILLÉ","72220","FRANCE","72",0.33565,47.79408
261758,"NAUVAY","NAUVAY","72260","FRANCE","72",0.39593,48.25436
261762,"LA BRETONNIÈRE-LA-CLAYE","LA BRETONNIÈRE-LA-CLAYE","85320","FRANCE","85",-1.25554,46.48406
261765,"TREILLIÈRES","TREILLIÈRES","44119","FRANCE","44",-1.62246,47.33007
261766,"BOURGON","BOURGON","53410","FRANCE","53",-1.06915,48.16881
261768,"SAINT-ANDRÉ-DE-LA-MARCHE","SAINT-ANDRÉ-DE-LA-MARCHE","49450","FRANCE","49",-1,47,09902
261769,"ROU","ROU","49400","FRANCE","49",-0.15841,47.23514
261772,"FAY","FAY","72550","FRANCE","72",0.07168,48.00796
261773,"LA ROUSSELIÈRE","LA ROUSSELIÈRE","49700","FRANCE","49",-0.18873,47.21567
261774,"LA SALLE-ET-CHAPELLE-AUBRY","LA SALLE-ET-CHAPELLE-AUBRY","49110","FRANCE","49",-0.98599,47.25521
261775,"CHACÉ","CHACÉ","49400","FRANCE","49",-0.06868,47.21451
262024,"LA DAGUENIÈRE","LA DAGUENIÈRE","49800","FRANCE","49",-0.44601,47.42023
262026,"ROCHETREJOUX","ROCHETREJOUX","85510","FRANCE","85",-0.99468,46.78961
262028,"LA SAUZAIE","LA SAUZAIE","85710","FRANCE","85",-1.80456,46.89156
262032,"SAINT-CALAIS","SAINT-CALAIS","72120","FRANCE","72",0.74224,47.92047
262033,"SAINT-JULIEN-DU-TERROUX","SAINT-JULIEN-DU-TERROUX","53110","FRANCE","53",-0.40856,48.47995
262036,"CHARTRENÉ","CHARTRENÉ","49150","FRANCE","49",-0.12766,47.49168
262038,"VERRIE","VERRIE","49400","FRANCE","49",-0.17923,47.26648
262039,"LE GUÉ DE MÉZIÈRES","LE GUÉ DE MÉZIÈRES","72500","FRANCE","72",0.39551,47.65505
262042,"SCEAUX-SUR-HUISNE","SCEAUX-SUR-HUISNE","72160","FRANCE","72",0.58351,48.1049
262045,"L'OIE","L'OIE","85140","FRANCE","85",-1.12958,46.79915
262047,"LES CERQUEUX","LES CERQUEUX","49360","FRANCE","49",-0.64113,46.99958
262048,"LAVAUD","LAVAUD","85320","FRANCE","85",-1.24298,46.50667
262049,"CHAMPIGNY","CHAMPIGNY","49400","FRANCE","49",-0.02182,47.21536
262050,"LA CHAPELLE DU CHÊNE","LA CHAPELLE DU CHÊNE","72300","FRANCE","72",-0.27349,47.81329
262051,"TALMONT-SAINT-HILAIRE","TALMONT-SAINT-HILAIRE","85440","FRANCE","85",-1.61752,46.46527
262053,"SAINT-MICHEL-EN-L'HERM","SAINT-MICHEL-EN-L'HERM","85580","FRANCE","85",-1.25071,46.35351
261220,"GORGES","GORGES","44190","FRANCE","44",-1.30362,47.10102
261221,"VOUVRAY-SUR-HUISNE","VOUVRAY-SUR-HUISNE","72160","FRANCE","72",0.55089,48.08771
261224,"MELLERAY","MELLERAY","72320","FRANCE","72",0.79936,48.09928
261228,"MAQUÈRE","MAQUÈRE","72650","FRANCE","72",0.11485,48.07837
261232,"TUFFÉ","TUFFÉ","72160","FRANCE","72",0.51428,48.11305
261233,"FONTAINES","FONTAINES","85200","FRANCE","85",-0.82768,46.42543
261234,"LA BAROCHE-GONDOUIN","LA BAROCHE-GONDOUIN","53110","FRANCE","53",-0.4431,48.46844
261237,"SAINT-MAURICE-DES-NOUES","SAINT-MAURICE-DES-NOUES","85120","FRANCE","85",-0.72286,46.60156
261238,"MONTBIZOT","MONTBIZOT","72380","FRANCE","72",0.18287,48.14576
261241,"LAVENAY","LAVENAY","72310","FRANCE","72",0.70248,47.79025
261242,"SURFONDS","SURFONDS","72370","FRANCE","72",0.46134,47.97472
261244,"CONTEST","CONTEST","53100","FRANCE","53",-0.65606,48.26211
261248,"LES ROCHELETS","LES ROCHELETS","44250","FRANCE","44",-2.16342,47.21911
261249,"LA BOURCHINIÈRE","LA BOURCHINIÈRE","44690","FRANCE","44",-1.42911,47.15151
261499,"ASSÉ-LE-BÉRENGER","ASSÉ-LE-BÉRENGER","53600","FRANCE","53",-0.32103,48.1552
261501,"AVIRÉ","AVIRÉ","49500","FRANCE","49",-0.79308,47.70709
261504,"BOUILLÉ-MÉNARD","BOUILLÉ-MÉNARD","49520","FRANCE","49",-0.96785,47.74183
261506,"KERDINIO","KERDINIO","44420","FRANCE","44",-2.52553,47.3786
261515,"LA FERRIÈRE","LA FERRIÈRE","85280","FRANCE","85",-1.31482,46.71211
261519,"SAUTRON","SAUTRON","44880","FRANCE","44",-1.67211,47.26371
261522,"COURDAULT","COURDAULT","85420","FRANCE","85",-0.67077,46.38249
261524,"LES GRANDES TAILLES","LES GRANDES TAILLES","49750","FRANCE","49",-0.6399,47.29111
261528,"BEAUSÉJOUR","BEAUSÉJOUR","85180","FRANCE","85",-1.71464,46.50867
261529,"HOUSSAY","HOUSSAY","53360","FRANCE","53",-0.73521,47.91467
261533,"LA TURBALLE","LA TURBALLE","44420","FRANCE","44",-2.50662,47.34331
261779,"LOURESSE-ROCHEMENIER","LOURESSE-ROCHEMENIER","49700","FRANCE","49",-0.31379,47.23966
261781,"LA CHAIZE-LE-VICOMTE","LA CHAIZE-LE-VICOMTE","85310","FRANCE","85",-1.29184,46.67228
261782,"ASSÉ-LE-BOISNE","ASSÉ-LE-BOISNE","72130","FRANCE","72",-0.00748,48.32297
261785,"LA TAILLÉE","LA TAILLÉE","85450","FRANCE","85",-0.94052,46.38359
261787,"CANTENAY-ÉPINARD","CANTENAY-ÉPINARD","49460","FRANCE","49",-0.56903,47.53464
261789,"MONTREUIL-BELLAY","MONTREUIL-BELLAY","49260","FRANCE","49",-0.15354,47.12905
261791,"CHAMBERNOU","CHAMBERNOU","49260","FRANCE","49",-0.30427,47.11488
261792,"SAINT-CÉLERIN","SAINT-CÉLERIN","72110","FRANCE","72",0.43232,48.12375
261793,"SAINT-AUBIN-DES-ORMEAUX","SAINT-AUBIN-DES-ORMEAUX","85130","FRANCE","85",-1.04332,46.99272
261794,"BEAUMONT-PIED-DE-BOEUF","BEAUMONT-PIED-DE-BOEUF","72500","FRANCE","72",0.40141,47.75967
261795,"MONTREUIL","MONTREUIL","85200","FRANCE","85",-0.83535,46.40892
261796,"VEZINS","VEZINS","49340","FRANCE","49",-0.71224,47.12016
261801,"GESNES-LE-GANDELIN","GESNES-LE-GANDELIN","72130","FRANCE","72",0.01701,48.35523
261807,"LA BRUFFIÈRE","LA BRUFFIÈRE","85530","FRANCE","85",-1.19735,47.01348
261809,"LES SORINIÈRES","LES SORINIÈRES","44840","FRANCE","44",-1.53148,47.14858
261813,"CONGÉ-SUR-ORNE","CONGÉ-SUR-ORNE","72290","FRANCE","72",0.25316,48.19968
262060,"LIVET-EN-SAOSNOIS","LIVET-EN-SAOSNOIS","72610","FRANCE","72",0.21207,48.35982
262065,"SAINTE-SUZANNE","SAINTE-SUZANNE","53270","FRANCE","53",-0.35141,48.09732
262069,"ARTHON-EN-RETZ","ARTHON-EN-RETZ","44320","FRANCE","44",-1.93974,47.115
262070,"TREMBLY","TREMBLY","44570","FRANCE","44",-2.2172,47.30574
262075,"BONNE FONTAINE","BONNE FONTAINE","44330","FRANCE","44",-1.30479,47.16031
262076,"MONTBERT","MONTBERT","44140","FRANCE","44",-1.48913,47.05825
262083,"LE BIGNON","LE BIGNON","44140","FRANCE","44",-1.4914,47.09753
262085,"TOUVOIS","TOUVOIS","44650","FRANCE","44",-1.68376,46.90263
262086,"LA CHAPELLE-DU-BOIS","LA CHAPELLE-DU-BOIS","72400","FRANCE","72",0.59282,48.22096
262087,"CRÉ","CRÉ","72200","FRANCE","72",-0.1602,47.67666
262090,"NOYEN-SUR-SARTHE","NOYEN-SUR-SARTHE","72430","FRANCE","72",-0.10315,47.874
262093,"LES DOMAINES","LES DOMAINES","85590","FRANCE","85",-0.8679,46.91042
261256,"QUERRÉ","QUERRÉ","49330","FRANCE","49",-0.62158,47.67961
261257,"CARQUEFOU","CARQUEFOU","44470","FRANCE","44",-1.49181,47.2975
261258,"SAINT-ANDRÉ-GOULE-D'OIE","SAINT-ANDRÉ-GOULE-D'OIE","85250","FRANCE","85",-1.19195,46.83406
261265,"SAINT-CALAIS-DU-DÉSERT","SAINT-CALAIS-DU-DÉSERT","53140","FRANCE","53",-0.26002,48.48557
261268,"LE DORÉ","LE DORÉ","49600","FRANCE","49",-1.18136,47.22865
261279,"DOUÉ-LA-FONTAINE","DOUÉ-LA-FONTAINE","49700","FRANCE","49",-0.27504,47.19717
261281,"LA LIMOUZINIÈRE","LA LIMOUZINIÈRE","85310","FRANCE","85",-1.31091,46.62896
261282,"SAINT-COLOMBAN","SAINT-COLOMBAN","44310","FRANCE","44",-1.58342,47.00997
261284,"SAINT-PIERRE-SUR-ORTHE","SAINT-PIERRE-SUR-ORTHE","53160","FRANCE","53",-0.21095,48.2133
261288,"VAAS","VAAS","72500","FRANCE","72",0.31686,47.66801
261535,"LA REMAUDIÈRE","LA REMAUDIÈRE","44430","FRANCE","44",-1.24737,47.23912
261539,"LA TANNIÈRE","LA TANNIÈRE","53220","FRANCE","53",-0.98621,48.40727
261540,"THORIGNÉ-D'ANJOU","THORIGNÉ-D'ANJOU","49220","FRANCE","49",-0.66048,47.6396
261541,"SAINT-LONGIS","SAINT-LONGIS","72600","FRANCE","72",0.34784,48.35545
261543,"PUYRAVAULT","PUYRAVAULT","85450","FRANCE","85",-1.0787,46.37417
261545,"CHAMBRETAUD","CHAMBRETAUD","85500","FRANCE","85",-0.963,46.92271
261548,"SAINT-HILAIRE-DE-VOUST","SAINT-HILAIRE-DE-VOUST","85120","FRANCE","85",-0.64936,46.5904
261555,"ROUEZ","ROUEZ","72140","FRANCE","72",-0.1152,48.14005
261563,"LA GRIÈRE PLAGE","LA GRIÈRE PLAGE","85360","FRANCE","85",-1.40525,46.34827
261565,"LA NAULIÈRE","LA NAULIÈRE","85150","FRANCE","85",-1.56365,46.65119
261568,"LES HERBIERS","LES HERBIERS","85500","FRANCE","85",-1.01537,46.87127
261815,"COURCELLES-LA-FORÊT","COURCELLES-LA-FORÊT","72270","FRANCE","72",-0.01791,47.78353
261821,"LES PLANTES","LES PLANTES","49230","FRANCE","49",-1.11859,47.1035
261823,"BOUFFÉRÉ","BOUFFÉRÉ","85600","FRANCE","85",-1.34153,46.96054
261826,"MILLY","MILLY","49350","FRANCE","49",-0.25536,47.28714
261828,"LE HORPS","LE HORPS","53640","FRANCE","53",-0.46197,48.39755
261830,"COURCIVAL","COURCIVAL","72110","FRANCE","72",0.39671,48.22962
261839,"LE BOURG DION","LE BOURG DION","49250","FRANCE","49",-0.34228,47.38512
261841,"FENEU","FENEU","49460","FRANCE","49",-0.59235,47.5709
261842,"POUZAUGES","POUZAUGES","85700","FRANCE","85",-0.83611,46.78221
261846,"ÉCHEMIRÉ","ÉCHEMIRÉ","49150","FRANCE","49",-0.16972,47.55129
261848,"BRÉE","BRÉE","53150","FRANCE","53",-0.52027,48.15025
262094,"BOURG PHILIPPE","BOURG PHILIPPE","53200","FRANCE","53",-0.80636,47.77255
262096,"SAINT-MARCEAU","SAINT-MARCEAU","72170","FRANCE","72",0.12696,48.17953
262098,"MACHÉ","MACHÉ","85190","FRANCE","85",-1.68539,46.75496
262101,"LUÉ-EN-BAUGEOIS","LUÉ-EN-BAUGEOIS","49140","FRANCE","49",-0.28024,47.52433
262102,"LERGAT","LERGAT","44420","FRANCE","44",-2.48397,47.33168
262103,"CHAZÉ-SUR-ARGOS","CHAZÉ-SUR-ARGOS","49500","FRANCE","49",-0.89197,47.61903
262104,"LA GUIERCHE","LA GUIERCHE","72380","FRANCE","72",0.19415,48.1137
262105,"CHÊNEHUTTE-TRÈVES-CUNAULT","CHÊNEHUTTE-TRÈVES-CUNAULT","49350","FRANCE","49",-0.15236,47.30759
262106,"NEUVY-EN-CHAMPAGNE","NEUVY-EN-CHAMPAGNE","72240","FRANCE","72",-0.03993,48.08391
262107,"TIERCÉ","TIERCÉ","49125","FRANCE","49",-0.46842,47.615
262109,"BESSAY","BESSAY","85320","FRANCE","85",-1.15603,46.5385
262113,"MONTSOREAU","MONTSOREAU","49730","FRANCE","49",0.056,47.21553
262114,"FOURCHAUD","FOURCHAUD","85200","FRANCE","85",-0.80738,46.53237
262116,"SAINT-PAUL-LE-GAULTIER","SAINT-PAUL-LE-GAULTIER","72130","FRANCE","72",-0.10909,48.32138
262117,"SAINT-AUBIN-LA-PLAINE","SAINT-AUBIN-LA-PLAINE","85210","FRANCE","85",-1.05935,46.50865
262118,"CORMES","CORMES","72400","FRANCE","72",0.70409,48.16942
262125,"LA GARATIÈRE","LA GARATIÈRE","85150","FRANCE","85",-1.55842,46.65252
262128,"BRAIN-SUR-LONGUENÉE","BRAIN-SUR-LONGUENÉE","49220","FRANCE","49",-0.7626,47.58445
261291,"SAINT-HILAIRE-DE-RIEZ","SAINT-HILAIRE-DE-RIEZ","85270","FRANCE","85",-1.94674,46.72266
261294,"BOURG-LE-ROI","BOURG-LE-ROI","72610","FRANCE","72",0.13268,48.34737
261295,"SAINT-MARTIN-DES-MONTS","SAINT-MARTIN-DES-MONTS","72400","FRANCE","72",0.59686,48.15077
261297,"SAINT-GERMAIN-DE-PRINÇAY","SAINT-GERMAIN-DE-PRINÇAY","85110","FRANCE","85",-1.02655,46.7233
261302,"SAINT-LAMBERT-LA-POTHERIE","SAINT-LAMBERT-LA-POTHERIE","49070","FRANCE","49",-0.67645,47.48331
261305,"LA CHAPELLE-HULLIN","LA CHAPELLE-HULLIN","49420","FRANCE","49",-1.06966,47.75818
261306,"LA MARIONNIÈRE","LA MARIONNIÈRE","85600","FRANCE","85",-1.32984,46.97759
261309,"LA PLANCHE","LA PLANCHE","44140","FRANCE","44",-1.44218,47.01995
261310,"LOUVERNÉ","LOUVERNÉ","53950","FRANCE","53",-0.72005,48.12269
261318,"BALLÉE","BALLÉE","53340","FRANCE","53",-0.41864,47.93399
261569,"SAINT-AUBIN-FOSSE-LOUVAIN","SAINT-AUBIN-FOSSE-LOUVAIN","53120","FRANCE","53",-0.83102,48.46428
261571,"LA ROUXIÈRE","LA ROUXIÈRE","44370","FRANCE","44",-1.0666,47.44292
261574,"BALLOTS","BALLOTS","53350","FRANCE","53",-1.04804,47.89515
261577,"LOMBRON","LOMBRON","72450","FRANCE","72",0.41838,48.08014
261579,"LA CHAPELLE-LAUNAY","LA CHAPELLE-LAUNAY","44260","FRANCE","44",-1.97102,47.37065
261581,"MOREILLES","MOREILLES","85450","FRANCE","85",-1.08673,46.42291
261586,"NOTRE-DAME-D'ALLENÇON","NOTRE-DAME-D'ALLENÇON","49380","FRANCE","49",-0.45184,47.30315
261596,"SAINT-PIERRE-DU-CHEMIN","SAINT-PIERRE-DU-CHEMIN","85120","FRANCE","85",-0.70007,46.69638
261599,"SAINT-GEORGES-DU-BOIS","SAINT-GEORGES-DU-BOIS","49250","FRANCE","49",-0.22465,47.49764
261601,"JOUÉ-L'ABBÉ","JOUÉ-L'ABBÉ","72380","FRANCE","72",0.21693,48.11046
261602,"POINTINDOUX","POINTINDOUX","85150","FRANCE","85",-1.61528,46.65232
261603,"BRAIS","BRAIS","44600","FRANCE","44",-2.29225,47.29635
261850,"SAINT-MARS-DE-COUTAIS","SAINT-MARS-DE-COUTAIS","44680","FRANCE","44",-1.73841,47.11404
261863,"PINCÉ","PINCÉ","72300","FRANCE","72",-0.37973,47.79407
261864,"FÉGRÉAC","FÉGRÉAC","44460","FRANCE","44",-2.04463,47.58484
261865,"ENTRAMMES","ENTRAMMES","53260","FRANCE","53",-0.71655,47.99821
261870,"LA CHAUSSÉE","LA CHAUSSÉE","72440","FRANCE","72",0.46102,47.97363
261871,"GREZ-EN-BOUÈRE","GREZ-EN-BOUÈRE","53290","FRANCE","53",-0.52274,47.874
261873,"LA TERRIÈRE","LA TERRIÈRE","85360","FRANCE","85",-1.45686,46.36168
261874,"SAINT-SULPICE-DES-LANDES","SAINT-SULPICE-DES-LANDES","44540","FRANCE","44",-1.20549,47.57521
261875,"CHÂTEAU-THÉBAUD","CHÂTEAU-THÉBAUD","44690","FRANCE","44",-1.41914,47.12459
261877,"MORTAGNE-SUR-SÈVRE","MORTAGNE-SUR-SÈVRE","85290","FRANCE","85",-0.954,46.99482
261878,"SARRÉ","SARRÉ","49350","FRANCE","49",-0.26728,47.32692
261880,"THOIGNÉ","THOIGNÉ","72260","FRANCE","72",0.25374,48.28915
261882,"LA MEMBROLLE-SUR-LONGUENÉE","LA MEMBROLLE-SUR-LONGUENÉE","49770","FRANCE","49",-0.67195,47.56014
262132,"LE VIEIL","LE VIEIL","85330","FRANCE","85",-2.25145,47.0245
262135,"BONCHAMP-LÈS-LAVAL","BONCHAMP-LÈS-LAVAL","53960","FRANCE","53",-0.69919,48.07033
262136,"AHUILLÉ","AHUILLÉ","53940","FRANCE","53",-0.87094,48.02014
262146,"LE MAY-SUR-ÈVRE","LE MAY-SUR-ÈVRE","49122","FRANCE","49",-0.89252,47.13774
262149,"BESLON","BESLON","44350","FRANCE","44",-2.39316,47.29215
262150,"SAINT-MAUR","SAINT-MAUR","49350","FRANCE","49",-0.28229,47.39156
262151,"MOULIN D'IVRAY","MOULIN D'IVRAY","49330","FRANCE","49",-0.46229,47.6378
262152,"BOIS-DE-CÉNÉ","BOIS-DE-CÉNÉ","85710","FRANCE","85",-1.88632,46.93752
262156,"MONTJEAN-SUR-LOIRE","MONTJEAN-SUR-LOIRE","49570","FRANCE","49",-0.86265,47.3896
262160,"SAINT-DENAC","SAINT-DENAC","44117","FRANCE","44",-2.33626,47.32044
262161,"LA TRANCHERIE","LA TRANCHERIE","44640","FRANCE","44",-1.80041,47.1792
261325,"THOUARCÉ","THOUARCÉ","49380","FRANCE","49",-0.50317,47.26705
261329,"LA BAUCHE TUE LOUP","LA BAUCHE TUE LOUP","44860","FRANCE","44",-1.55016,47.14068
261333,"MÉNAC","MÉNAC","44720","FRANCE","44",-2.18627,47.37627
261336,"RUILLÉ-FROID-FONDS","RUILLÉ-FROID-FONDS","53170","FRANCE","53",-0.64253,47.90053
261338,"MAUVES-SUR-LOIRE","MAUVES-SUR-LOIRE","44470","FRANCE","44",-1.39448,47.29755
261340,"ARDELAY","ARDELAY","85500","FRANCE","85",-1.00585,46.85338
261341,"MONTFLOURS","MONTFLOURS","53240","FRANCE","53",-0.73293,48.17091
261342,"SAINT-CLÉMENT-DE-LA-PLACE","SAINT-CLÉMENT-DE-LA-PLACE","49370","FRANCE","49",-0.74616,47.5259
261344,"SAINT-SYLVAIN-D'ANJOU","SAINT-SYLVAIN-D'ANJOU","49480","FRANCE","49",-0.47225,47.52043
261348,"CHAMP-SUR-LAYON","CHAMP-SUR-LAYON","49380","FRANCE","49",-0.57627,47.26615
261349,"VOLNAY","VOLNAY","72440","FRANCE","72",0.46762,47.93268
261353,"SAINT-PIERRE-DES-BOIS","SAINT-PIERRE-DES-BOIS","72430","FRANCE","72",-0.14025,47.94024
261355,"CHEMELLIER","CHEMELLIER","49320","FRANCE","49",-0.3556,47.34291
261604,"MÉZERAY","MÉZERAY","72270","FRANCE","72",-0.01805,47.82597
261607,"GASTINES","GASTINES","53540","FRANCE","53",-1.10495,47.95235
261615,"RIOU","RIOU","49400","FRANCE","49",-0.13931,47.24191
261621,"SOULVACHE","SOULVACHE","44660","FRANCE","44",-1.47396,47.82913
261626,"LA POMMERAYE","LA POMMERAYE","49620","FRANCE","49",-0.85941,47.35594
261628,"PRÉFAILLES","PRÉFAILLES","44770","FRANCE","44",-2.21275,47.12897
261633,"QUARTIER DE VERRON","QUARTIER DE VERRON","72200","FRANCE","72",-0.10501,47.72055
261634,"SAINT-SATURNIN-DU-LIMET","SAINT-SATURNIN-DU-LIMET","53800","FRANCE","53",-1.06771,47.81191
261635,"ÉTIVAL-LÈS-LE-MANS","ÉTIVAL-LÈS-LE-MANS","72700","FRANCE","72",0.09253,47.95726
261636,"SOULAINES-SUR-AUBANCE","SOULAINES-SUR-AUBANCE","49610","FRANCE","49",-0.52286,47.36357
261890,"KERVIN","KERVIN","44420","FRANCE","44",-2.52932,47.37095
261892,"SAINT-PHILBERT-DU-PEUPLE","SAINT-PHILBERT-DU-PEUPLE","49160","FRANCE","49",-0.04366,47.39298
261895,"PAYRÉ","PAYRÉ","85240","FRANCE","85",-0.67646,46.51207
261896,"POUILLÉ-LES-CÔTEAUX","POUILLÉ-LES-CÔTEAUX","44522","FRANCE","44",-1.16153,47.45437
261898,"ANGLES","ANGLES","85750","FRANCE","85",-1.3995,46.40938
261899,"LA GUYONNIÈRE","LA GUYONNIÈRE","85600","FRANCE","85",-1.24898,46.96586
261900,"LOUÉ","LOUÉ","72540","FRANCE","72",-0.14811,47.99552
261904,"PARNÉ-SUR-ROC","PARNÉ-SUR-ROC","53260","FRANCE","53",-0.66787,48.00598
261905,"LA JAILLE-YVON","LA JAILLE-YVON","49220","FRANCE","49",-0.67396,47.72263
261908,"LE GRAND CHEMIN","LE GRAND CHEMIN","44640","FRANCE","44",-1.78172,47.19736
261909,"YVRÉ-L'ÉVÊQUE","YVRÉ-L'ÉVÊQUE","72530","FRANCE","72",0.27168,48.01391
261916,"SAINT-LÉGER-SOUS-CHOLET","SAINT-LÉGER-SOUS-CHOLET","49280","FRANCE","49",-0.90952,47.0943
262165,"LA GARENNE DE LONGÈVES","LA GARENNE DE LONGÈVES","85200","FRANCE","85",-0.84691,46.48291
262166,"CHAMPAGNÉ","CHAMPAGNÉ","72470","FRANCE","72",0.33032,48.02407
262169,"LE TRONCHET","LE TRONCHET","72170","FRANCE","72",0.07628,48.18132
262174,"PASSAVANT-SUR-LAYON","PASSAVANT-SUR-LAYON","49560","FRANCE","49",-0.39008,47.1072
262178,"LA BERNARDIÈRE","LA BERNARDIÈRE","85610","FRANCE","85",-1.26655,47.05105
262181,"COULON","COULON","49260","FRANCE","49",-0.13227,47.09141
262187,"FROIDFOND","FROIDFOND","85300","FRANCE","85",-1.7578,46.8695
262191,"BOULAY-LES-IFS","BOULAY-LES-IFS","53370","FRANCE","53",-0.13294,48.42054
262192,"SOEURDRES","SOEURDRES","49330","FRANCE","49",-0.57444,47.73847
262193,"LUSANGER","LUSANGER","44590","FRANCE","44",-1.58754,47.68146
262196,"PANNECÉ","PANNECÉ","44440","FRANCE","44",-1.24013,47.48526
261360,"LA BAULE-ESCOUBLAC","LA BAULE-ESCOUBLAC","44500","FRANCE","44",-2.3916,47.28173
261361,"THOIRÉ-SUR-DINAN","THOIRÉ-SUR-DINAN","72500","FRANCE","72",0.44843,47.75364
261362,"CHAMPTOCÉ-SUR-LOIRE","CHAMPTOCÉ-SUR-LOIRE","49123","FRANCE","49",-0.8652,47.41257
261365,"TASSÉ","TASSÉ","72430","FRANCE","72",-0.13673,47.89012
261372,"SAVENAY","SAVENAY","44260","FRANCE","44",-1.94213,47.36087
261374,"LES SABLONNIÈRES","LES SABLONNIÈRES","53200","FRANCE","53",-0.70804,47.81763
261377,"LA CHAPELLE-SAINT-LAUD","LA CHAPELLE-SAINT-LAUD","49140","FRANCE","49",-0.30812,47.60941
261378,"AVERTON","AVERTON","53700","FRANCE","53",-0.22561,48.33264
261383,"LA JONCHÈRE","LA JONCHÈRE","85540","FRANCE","85",-1.37236,46.43978
261384,"SAINT-PAUL-DU-BOIS","SAINT-PAUL-DU-BOIS","49310","FRANCE","49",-0.54474,47.08019
261385,"PORT ÉTROIT","PORT ÉTROIT","72300","FRANCE","72",-0.3177,47.84805
261386,"CERNUSSON","CERNUSSON","49310","FRANCE","49",-0.48475,47.17561
261387,"BÉHUARD","BÉHUARD","49170","FRANCE","49",-0.64533,47.37883
261389,"CHAVANNES","CHAVANNES","49260","FRANCE","49",-0.22346,47.10852
261391,"INDRE","INDRE","44610","FRANCE","44",-1.67112,47.19857
261393,"NIEUL-SUR-L'AUTISE","NIEUL-SUR-L'AUTISE","85240","FRANCE","85",-0.6811,46.42185
261643,"SAINT-LYPHARD","SAINT-LYPHARD","44410","FRANCE","44",-2.30653,47.39801
261645,"DISTRÉ","DISTRÉ","49400","FRANCE","49",-0.1109,47.22341
261646,"BAZOUGERS","BAZOUGERS","53170","FRANCE","53",-0.58121,48.0167
261652,"DOUVY","DOUVY","49260","FRANCE","49",-0.06245,47.11512
261656,"CÉRANS-FOULLETOURTE","CÉRANS-FOULLETOURTE","72330","FRANCE","72",0.07535,47.82697
261657,"MOUILLERON-EN-PAREDS","MOUILLERON-EN-PAREDS","85390","FRANCE","85",-0.84855,46.67727
261658,"BEL AIR","BEL AIR","44420","FRANCE","44",-2.47074,47.40614
261661,"SAINT-BENOIST-SUR-MER","SAINT-BENOIST-SUR-MER","85540","FRANCE","85",-1.35455,46.42435
261664,"FOUGERÉ","FOUGERÉ","49150","FRANCE","49",-0.14904,47.62786
261667,"ARNAGE","ARNAGE","72230","FRANCE","72",0.18541,47.92864
261669,"PELLOUAILLES-LES-VIGNES","PELLOUAILLES-LES-VIGNES","49112","FRANCE","49",-0.44053,47.52182
261670,"RAHAY","RAHAY","72120","FRANCE","72",0.83007,47.96108
261671,"LE PILON","LE PILON","44640","FRANCE","44",-1.787,47.17434
261919,"SIMPLÉ","SIMPLÉ","53360","FRANCE","53",-0.8516,47.88779
261920,"LA CROIX MORICEAU","LA CROIX MORICEAU","44690","FRANCE","44",-1.38409,47.15943
261923,"BERGON","BERGON","44780","FRANCE","44",-2.21017,47.46083
261930,"THUBOEUF","THUBOEUF","53110","FRANCE","53",-0.45161,48.50251
261937,"SAINT-DENIS-D'ORQUES","SAINT-DENIS-D'ORQUES","72350","FRANCE","72",-0.27299,48.02831
261944,"ROÉZÉ-SUR-SARTHE","ROÉZÉ-SUR-SARTHE","72210","FRANCE","72",0.06672,47.89526
261946,"SAINT-GEORGES-DU-BOIS","SAINT-GEORGES-DU-BOIS","72700","FRANCE","72",0.09937,47.97252
261949,"CHAMPCLOU","CHAMPCLOU","85340","FRANCE","85",-1.80412,46.54657
259184,"RUILLÉ-SUR-LOIR","RUILLÉ-SUR-LOIR","72340","FRANCE","72",0.61807,47.74977
259185,"APREMONT","APREMONT","85220","FRANCE","85",-1.74062,46.74914
259186,"LA SAUZAIE","LA SAUZAIE","85470","FRANCE","85",-1.89154,46.64855
259187,"SAINT-GERMAIN-DE-COULAMER","SAINT-GERMAIN-DE-COULAMER","53700","FRANCE","53",-0.17182,48.26337
259189,"LA SELLE-CRAONNAISE","LA SELLE-CRAONNAISE","53800","FRANCE","53",-1.04309,47.84282
259190,"SAINT-HILAIRE","SAINT-HILAIRE","85290","FRANCE","85",-0.94033,46.97588
259204,"OULMES","OULMES","85420","FRANCE","85",-0.66473,46.39989
259205,"PIZIEUX","PIZIEUX","72600","FRANCE","72",0.33217,48.3229
259209,"SAINTE-REINE-DE-BRETAGNE","SAINTE-REINE-DE-BRETAGNE","44160","FRANCE","44",-2.19516,47.44067
259211,"VERNEIL-LE-CHÉTIF","VERNEIL-LE-CHÉTIF","72360","FRANCE","72",0.29443,47.73321
259212,"SAINT-LÉONARD-DES-BOIS","SAINT-LÉONARD-DES-BOIS","72130","FRANCE","72",-0.07712,48.35283
259213,"CORZÉ","CORZÉ","49140","FRANCE","49",-0.39174,47.55902
259466,"LES RAIRIES","LES RAIRIES","49430","FRANCE","49",-0.20668,47.65176
259470,"ERNÉE","ERNÉE","53500","FRANCE","53",-0.93351,48.29638
259473,"LA COPECHAGNIÈRE","LA COPECHAGNIÈRE","85260","FRANCE","85",-1.34737,46.85004
259474,"LE BOUPÈRE","LE BOUPÈRE","85510","FRANCE","85",-0.92497,46.79384
259477,"KERRO","KERRO","44420","FRANCE","44",-2.4908,47.39905
259479,"VIHIERS","VIHIERS","49310","FRANCE","49",-0.53395,47.14676
259480,"L'ÉPINAY","L'ÉPINAY","44190","FRANCE","44",-1.26274,47.10734
259485,"TENNIE","TENNIE","72240","FRANCE","72",-0.07442,48.10851
259494,"JUMELLES","JUMELLES","49160","FRANCE","49",-0.1038,47.43453
259747,"SAINT-JEAN-DE-LA-CROIX","SAINT-JEAN-DE-LA-CROIX","49130","FRANCE","49",-0.59312,47.41039
259753,"ARQUENAY","ARQUENAY","53170","FRANCE","53",-0.57016,47.98657
259754,"BRÉZÉ","BRÉZÉ","49260","FRANCE","49",-0.05967,47.17452
259760,"SAINT-MARTIN-DES-TILLEULS","SAINT-MARTIN-DES-TILLEULS","85130","FRANCE","85",-1.05247,46.9738
259762,"SAINT-CHRISTOPHE-DU-BOIS","SAINT-CHRISTOPHE-DU-BOIS","49280","FRANCE","49",-0.94083,47.02988
259763,"CHARMONT","CHARMONT","49500","FRANCE","49",-0.89052,47.73041
259764,"SAINT-SAUVEUR","SAINT-SAUVEUR","85350","FRANCE","85",-2.33196,46.706
259768,"SAINT-OMER DE BLAIN","SAINT-OMER DE BLAIN","44130","FRANCE","44",-1.85798,47.47528
259772,"SAINT-PHILBERT-DE-GRAND-LIEU","SAINT-PHILBERT-DE-GRAND-LIEU","44310","FRANCE","44",-1.64242,47.03675
259773,"SAVIGNÉ-L'ÉVÊQUE","SAVIGNÉ-L'ÉVÊQUE","72460","FRANCE","72",0.30114,48.07734
259779,"CHÂLONS-DU-MAINE","CHÂLONS-DU-MAINE","53470","FRANCE","53",-0.64379,48.16319
260049,"POCÉ-DISTRÉ","POCÉ-DISTRÉ","49400","FRANCE","49",-0.11842,47.2347
260050,"TRANGÉ","TRANGÉ","72650","FRANCE","72",0.11111,48.02724
260053,"CHÂTEAU-L'HERMITAGE","CHÂTEAU-L'HERMITAGE","72510","FRANCE","72",0.18243,47.80457
260054,"BOUCHEMAINE","BOUCHEMAINE","49080","FRANCE","49",-0.60942,47.4223
260065,"LE FRESNE-SUR-LOIRE","LE FRESNE-SUR-LOIRE","49123","FRANCE","44",-0.93071,47.40046
260066,"MONCÉ-EN-BELIN","MONCÉ-EN-BELIN","72230","FRANCE","72",0.19337,47.89757
260068,"PONTIGNÉ","PONTIGNÉ","49150","FRANCE","49",-0.04111,47.54794
260069,"SAINT-FRAIMBAULT-DE-PRIÈRES","SAINT-FRAIMBAULT-DE-PRIÈRES","53300","FRANCE","53",-0.58131,48.34946
260072,"FONTAINE-MILON","FONTAINE-MILON","49140","FRANCE","49",-0.25062,47.50152
260073,"LA PELLERINE","LA PELLERINE","49490","FRANCE","49",0.12175,47.46173
260075,"SAINT-SIGISMOND","SAINT-SIGISMOND","85420","FRANCE","85",-0.69101,46.35013
260083,"LE LANDREAU","LE LANDREAU","44430","FRANCE","44",-1.30532,47.2043
260086,"CHAZÉ-HENRY","CHAZÉ-HENRY","49420","FRANCE","49",-1.10891,47.75157
260088,"SAINT-VINCENT PUYMAUFRAIS","SAINT-VINCENT PUYMAUFRAIS","85480","FRANCE","85",-1.09833,46.58925
260099,"LOIRÉ","LOIRÉ","49440","FRANCE","49",-0.97903,47.61472
260101,"BONNÉTABLE","BONNÉTABLE","72110","FRANCE","72",0.42629,48.17953
260105,"CARELLES","CARELLES","53120","FRANCE","53",-0.90489,48.38189
260107,"SAINT-JEAN-DE-BEUGNÉ","SAINT-JEAN-DE-BEUGNÉ","85210","FRANCE","85",-1.08443,46.52152
260111,"COGNERS","COGNERS","72310","FRANCE","72",0.65871,47.86824
260115,"LES PONTS-DE-CÉ","LES PONTS-DE-CÉ","49130","FRANCE","49",-0.52496,47.42455
260122,"SAINT-HILAIRE-DU-BOIS","SAINT-HILAIRE-DU-BOIS","49310","FRANCE","49",-0.55066,47.12536
260125,"LE PETIT BRANGOURÉ","LE PETIT BRANGOURÉ","44117","FRANCE","44",-2.32587,47.30976
260126,"VAY","VAY","44170","FRANCE","44",-1.70135,47.55463
260129,"LA RÉORTHE","LA RÉORTHE","85210","FRANCE","85",-1.04917,46.60695
260130,"LA DOURIE","LA DOURIE","44190","FRANCE","44",-1.24427,47.10841
260131,"SAINT-GEORGES-SUR-LAYON","SAINT-GEORGES-SUR-LAYON","49700","FRANCE","49",-0.36741,47.19757
260132,"SAINT-SÉBASTIEN","SAINT-SÉBASTIEN","44420","FRANCE","44",-2.51658,47.36741
260136,"MONTAIGU","MONTAIGU","85600","FRANCE","85",-1.31274,46.97538
260138,"FRESNAY-SUR-SARTHE","FRESNAY-SUR-SARTHE","72130","FRANCE","72",0.01739,48.28119
260139,"COULAINES","COULAINES","72190","FRANCE","72",0.20346,48.02419
260144,"L'ÉTANG-BERNARD","L'ÉTANG-BERNARD","44360","FRANCE","44",-1.74947,47.2407
260145,"MARANS","MARANS","49500","FRANCE","49",-0.85858,47.64086
260151,"LES MOUTIERS-EN-RETZ","LES MOUTIERS-EN-RETZ","44760","FRANCE","44",-2.00731,47.06627
260152,"ÉPINEU-LE-CHEVREUIL","ÉPINEU-LE-CHEVREUIL","72540","FRANCE","72",-0.11544,48.03807
260155,"SAINT-VINCENT-SUR-JARD","SAINT-VINCENT-SUR-JARD","85520","FRANCE","85",-1.54752,46.41558
260156,"BAZOGES-EN-PAILLERS","BAZOGES-EN-PAILLERS","85130","FRANCE","85",-1.13391,46.90772
260159,"CHAMPROND","CHAMPROND","72320","FRANCE","72",0.74454,48.0775
260160,"LA GAUBRETIÈRE","LA GAUBRETIÈRE","85130","FRANCE","85",-1.06527,46.94349
260164,"MAISDON-SUR-SÈVRE","MAISDON-SUR-SÈVRE","44690","FRANCE","44",-1.38487,47.09715
260165,"GENNES-SUR-GLAIZE","GENNES-SUR-GLAIZE","53200","FRANCE","53",-0.6078,47.85405
260170,"CHAMPÉON","CHAMPÉON","53640","FRANCE","53",-0.51799,48.36743
260171,"BARACÉ","BARACÉ","49430","FRANCE","49",-0.35567,47.64071
260177,"CHAUMONT-D'ANJOU","CHAUMONT-D'ANJOU","49140","FRANCE","49",-0.28304,47.54019
260182,"PUYBELLIARD","PUYBELLIARD","85110","FRANCE","85",-1.0338,46.70681
260192,"BROSSAY","BROSSAY","49700","FRANCE","49",-0.21388,47.16274
260195,"VERN-D'ANJOU","VERN-D'ANJOU","49220","FRANCE","49",-0.83453,47.60043
260196,"L'HALBRANDIÈRE","L'HALBRANDIÈRE","44860","FRANCE","44",-1.61691,47.12071
260197,"LE GUÉ DE LAUNAY","LE GUÉ DE LAUNAY","72320","FRANCE","72",0.77555,48.03751
260206,"MONTREUIL-JUIGNÉ","MONTREUIL-JUIGNÉ","49460","FRANCE","49",-0.61194,47.52935
260207,"ANTOIGNÉ","ANTOIGNÉ","49260","FRANCE","49",-0.11202,47.08439
260212,"DOUCELLES","DOUCELLES","72170","FRANCE","72",0.16995,48.25663
260215,"SAINT-PROUANT","SAINT-PROUANT","85110","FRANCE","85",-0.9562,46.75778
260217,"ROUANS","ROUANS","44640","FRANCE","44",-1.86009,47.18565
260219,"CLEFS","CLEFS","49150","FRANCE","49",-0.07044,47.62536
260225,"SAINT-MALO-DE-GUERSAC","SAINT-MALO-DE-GUERSAC","44550","FRANCE","44",-2.18009,47.35013
260227,"NEUVILLE-SUR-SARTHE","NEUVILLE-SUR-SARTHE","72190","FRANCE","72",0.1907,48.076
260229,"THORIGNY","THORIGNY","85480","FRANCE","85",-1.24098,46.61332
260232,"SAINT-CHARLES-LA-FORÊT","SAINT-CHARLES-LA-FORÊT","53170","FRANCE","53",-0.55745,47.91605
260239,"BEAUREPAIRE","BEAUREPAIRE","85500","FRANCE","85",-1.08843,46.91068
260240,"SAINT-PIERRE-SUR-ERVE","SAINT-PIERRE-SUR-ERVE","53270","FRANCE","53",-0.39292,48.00798
260242,"BALLON","BALLON","72290","FRANCE","72",0.23475,48.17565
260244,"SAINT-MARTIN-DES-NOYERS","SAINT-MARTIN-DES-NOYERS","85140","FRANCE","85",-1.17815,46.72118
260249,"MÉZIÈRES-SUR-PONTHOUIN","MÉZIÈRES-SUR-PONTHOUIN","72290","FRANCE","72",0.29931,48.19316
260251,"VION","VION","72300","FRANCE","72",-0.23901,47.81868
260252,"ÎLE D'AIGNAC","ÎLE D'AIGNAC","44720","FRANCE","44",-2.18798,47.36515
260253,"LANDE ÉLEVÉE","LANDE ÉLEVÉE","49700","FRANCE","49",-0.22753,47.20591
260258,"SAINT-URBAIN","SAINT-URBAIN","85230","FRANCE","85",-2.00932,46.87657
260259,"LAIGNÉ-EN-BELIN","LAIGNÉ-EN-BELIN","72220","FRANCE","72",0.2274,47.87775
260260,"SAINTE-JAMME-SUR-SARTHE","SAINTE-JAMME-SUR-SARTHE","72380","FRANCE","72",0.1668,48.14167
260262,"LA FÉVRIE","LA FÉVRIE","44690","FRANCE","44",-1.3833,47.14064
260267,"NALLIERS","NALLIERS","85370","FRANCE","85",-1.02777,46.4722
260270,"SAINT-CYR-EN-RETZ","SAINT-CYR-EN-RETZ","44580","FRANCE","44",-1.90385,47.02968
260271,"TRIAIZE","TRIAIZE","85580","FRANCE","85",-1.19753,46.39337
260273,"VILLEPAIL","VILLEPAIL","53250","FRANCE","53",-0.26862,48.39653
260278,"BOCÉ","BOCÉ","49150","FRANCE","49",-0.08199,47.5065
260282,"THARON-PLAGE","THARON-PLAGE","44730","FRANCE","44",-2.16467,47.16504
260284,"VERNANTES","VERNANTES","49390","FRANCE","49",0.04988,47.39345
260288,"LEGÉ","LEGÉ","44650","FRANCE","44",-1.5981,46.88512
260289,"CHAMPIGNÉ","CHAMPIGNÉ","49330","FRANCE","49",-0.57073,47.66707
260292,"SAINT-AUBIN-DES-COUDRAIS","SAINT-AUBIN-DES-COUDRAIS","72400","FRANCE","72",0.58527,48.17271
260293,"LA BARRE-DE-MONTS","LA BARRE-DE-MONTS","85550","FRANCE","85",-2.11928,46.88207
260296,"CONQUEREUIL","CONQUEREUIL","44290","FRANCE","44",-1.75309,47.62551
260297,"CHANZEAUX","CHANZEAUX","49750","FRANCE","49",-0.64491,47.26422
260302,"LA HAUTIÈRE","LA HAUTIÈRE","44690","FRANCE","44",-1.39745,47.13897
260307,"MONTREUIL-SUR-MAINE","MONTREUIL-SUR-MAINE","49220","FRANCE","49",-0.69905,47.64993
260310,"SAINT-FRAIMBAULT-DE-LASSAY","SAINT-FRAIMBAULT-DE-LASSAY","53110","FRANCE","53",-0.47437,48.43693
260321,"TANCOIGNÉ","TANCOIGNÉ","49310","FRANCE","49",-0.40937,47.1752
260323,"BONNEZEAUX","BONNEZEAUX","49380","FRANCE","49",-0.48549,47.27662
260325,"LA MEILLERAIE","LA MEILLERAIE","44370","FRANCE","44",-1.02316,47.37246
260329,"SAINT-ELLIER-DU-MAINE","SAINT-ELLIER-DU-MAINE","53220","FRANCE","53",-1.04676,48.4006
260333,"QUARTIER DE SAINT-GERMAIN DU VAL","QUARTIER DE SAINT-GERMAIN DU VAL","72200","FRANCE","72",-0.06148,47.71525
260335,"KERVALET","KERVALET","44740","FRANCE","44",-2.45918,47.28006
260336,"CRISSÉ","CRISSÉ","72140","FRANCE","72",-0.06192,48.16859
260337,"LES BELLES CAVES","LES BELLES CAVES","49260","FRANCE","49",-0.05696,47.18589
260339,"PRUILLÉ","PRUILLÉ","49220","FRANCE","49",-0.6632,47.57699
260340,"SAINT-SYMPHORIEN","SAINT-SYMPHORIEN","72240","FRANCE","72",-0.11207,48.07143
260342,"POUILLÉ","POUILLÉ","85570","FRANCE","85",-0.95054,46.50841
260343,"LESBOIS","LESBOIS","53120","FRANCE","53",-0.80444,48.44087
260347,"BESLÉ","BESLÉ","44290","FRANCE","44",-1.86761,47.69704
260352,"SAINTE-PEXINE","SAINTE-PEXINE","85320","FRANCE","85",-1.13961,46.56067
260358,"MONTOURNAIS","MONTOURNAIS","85700","FRANCE","85",-0.76308,46.74127
260359,"LA FONTAINE-SAINT-MARTIN","LA FONTAINE-SAINT-MARTIN","72330","FRANCE","72",0.05013,47.79068
260363,"ISSÉ","ISSÉ","44520","FRANCE","44",-1.45313,47.62082
260367,"PORT JOINVILLE","PORT JOINVILLE","85350","FRANCE","85",-2.34806,46.72406
260371,"VILLEBERNIER","VILLEBERNIER","49400","FRANCE","49",-0.03029,47.25328
260376,"BOUSSAY","BOUSSAY","44190","FRANCE","44",-1.18582,47.04471
260377,"LANDEVIEILLE","LANDEVIEILLE","85220","FRANCE","85",-1.80609,46.64095
260382,"ROUSSAY","ROUSSAY","49450","FRANCE","49",-1.06481,47.0913
260383,"MONTRENAULT","MONTRENAULT","72600","FRANCE","72",0.30842,48.32482
260386,"SAINT-MARS-DU-DÉSERT","SAINT-MARS-DU-DÉSERT","44850","FRANCE","44",-1.40518,47.36686
260389,"BRETIGNOLLES-SUR-MER","BRETIGNOLLES-SUR-MER","85470","FRANCE","85",-1.85671,46.62754
260391,"LHOMME","LHOMME","72340","FRANCE","72",0.56053,47.74522
260394,"LES LUCS-SUR-BOULOGNE","LES LUCS-SUR-BOULOGNE","85170","FRANCE","85",-1.49378,46.84462
260395,"BAS BRIACÉ","BAS BRIACÉ","44430","FRANCE","44",-1.34465,47.19596
260398,"VILLAINES-SOUS-LUCÉ","VILLAINES-SOUS-LUCÉ","72150","FRANCE","72",0.48241,47.86563
260400,"SAINT-RÉVÉREND","SAINT-RÉVÉREND","85220","FRANCE","85",-1.82924,46.70054
260407,"MONTSÛRS","MONTSÛRS","53150","FRANCE","53",-0.55386,48.13426
260409,"LA PLAINE","LA PLAINE","49360","FRANCE","49",-0.63503,47.06825
260414,"DAMPIERRE-SUR-LOIRE","DAMPIERRE-SUR-LOIRE","49400","FRANCE","49",-0.02794,47.24242
260416,"CHAILLÉ-SOUS-LES-ORMEAUX","CHAILLÉ-SOUS-LES-ORMEAUX","85310","FRANCE","85",-1.36644,46.58372
260418,"MORMAISON","MORMAISON","85260","FRANCE","85",-1.45033,46.90726
260419,"TRANS","TRANS","53160","FRANCE","53",-0.30769,48.27439
260424,"PONT DE TRÉMONT","PONT DE TRÉMONT","49310","FRANCE","49",-0.4415,47.15223
260427,"TEILLÉ","TEILLÉ","72290","FRANCE","72",0.18802,48.18127
260429,"FOLHAIE","FOLHAIE","44350","FRANCE","44",-2.37841,47.33367
260432,"JARZÉ","JARZÉ","49140","FRANCE","49",-0.23345,47.55537
260438,"LA CHAPELLE-AU-RIBOUL","LA CHAPELLE-AU-RIBOUL","53440","FRANCE","53",-0.43332,48.31921
260440,"MESSEMÉ","MESSEMÉ","49260","FRANCE","49",-0.24563,47.14841
260441,"SAINT-MARTIN-VILLENGLOSE","SAINT-MARTIN-VILLENGLOSE","53290","FRANCE","53",-0.4715,47.77611
260446,"BOURGENAY-QUERRY-PIGEON","BOURGENAY-QUERRY-PIGEON","85440","FRANCE","85",-1.66922,46.44462
260447,"TILLAY","TILLAY","85700","FRANCE","85",-0.89529,46.73666
260450,"SAINT-LOUIS","SAINT-LOUIS","44440","FRANCE","44",-1.31696,47.49636
260455,"NIAFLES","NIAFLES","53400","FRANCE","53",-1.00141,47.84614
260456,"LE GIVRE","LE GIVRE","85540","FRANCE","85",-1.3952,46.4638
260458,"SOUSSIGNÉ","SOUSSIGNÉ","49540","FRANCE","49",-0.40653,47.2552
260459,"L'HERBRAIRE","L'HERBRAIRE","44370","FRANCE","44",-1.10491,47.44329
260460,"PONT-MAHÉ","PONT-MAHÉ","44410","FRANCE","44",-2.4516,47.4481
260463,"DREFFÉAC","DREFFÉAC","44530","FRANCE","44",-2.05636,47.4765
260466,"YVRÉ-LE-PÔLIN","YVRÉ-LE-PÔLIN","72330","FRANCE","72",0.15299,47.81854
260469,"LA FLOCELLIÈRE","LA FLOCELLIÈRE","85300","FRANCE","85",-1.8088,46.85965
260470,"SAINT-VINCENT-DES-PRÉS","SAINT-VINCENT-DES-PRÉS","72600","FRANCE","72",0.38481,48.29465
260472,"L'HERBERGEMENT","L'HERBERGEMENT","85260","FRANCE","85",-1.37704,46.90802
260473,"BÉRUS","BÉRUS","72610","FRANCE","72",0.05206,48.37519
260474,"SAINT-MAIXENT-SUR-VIE","SAINT-MAIXENT-SUR-VIE","85220","FRANCE","85",-1.81793,46.74081
260479,"SAINT-ANDRÉ-TREIZE-VOIES","SAINT-ANDRÉ-TREIZE-VOIES","85260","FRANCE","85",-1.41232,46.93461
260483,"SAINT-MARS-SUR-LA-FUTAIE","SAINT-MARS-SUR-LA-FUTAIE","53220","FRANCE","53",-1.01483,48.43261
260489,"CRENNES-SUR-FRAUBÉE","CRENNES-SUR-FRAUBÉE","53700","FRANCE","53",-0.27353,48.37944
260491,"DERVAL","DERVAL","44590","FRANCE","44",-1.66092,47.66857
260495,"SAINT-PATERNE","SAINT-PATERNE","72610","FRANCE","72",0.10902,48.41676
260498,"MAULÉVRIER","MAULÉVRIER","49360","FRANCE","49",-0.74583,47.00738
260504,"L'AURORE","L'AURORE","49140","FRANCE","49",-0.43248,47.52322
260511,"SAINT-MELAINE-SUR-AUBANCE","SAINT-MELAINE-SUR-AUBANCE","49610","FRANCE","49",-0.49641,47.37045
260513,"RUAUDIN","RUAUDIN","72230","FRANCE","72",0.26351,47.9445
260518,"DEGRÉ","DEGRÉ","72550","FRANCE","72",0.06875,48.04982
260519,"VIX","VIX","85770","FRANCE","85",-0.85905,46.36416
260520,"SAINT-GERMAIN-DES-PRÉS","SAINT-GERMAIN-DES-PRÉS","49170","FRANCE","49",-0.83335,47.41143
260525,"HAUTE PERCHE","HAUTE PERCHE","49610","FRANCE","49",-0.51139,47.39843
260526,"GESTÉ","GESTÉ","49600","FRANCE","49",-1.11272,47.18182
260531,"LOUZES","LOUZES","72600","FRANCE","72",0.30183,48.42789
260532,"SAINT-JEAN-DE-MONTS","SAINT-JEAN-DE-MONTS","85160","FRANCE","85",-2.06359,46.79165
260535,"BAUNÉ","BAUNÉ","49140","FRANCE","49",-0.31777,47.49945
260538,"SAINT-JEAN-SUR-ERVE","SAINT-JEAN-SUR-ERVE","53270","FRANCE","53",-0.39056,48.03616
260541,"LA ROBRIE","LA ROBRIE","44830","FRANCE","44",-1.72413,47.15897
260542,"LE VIEIL-BAUGÉ","LE VIEIL-BAUGÉ","49150","FRANCE","49",-0.12023,47.53181
260543,"LA CHAPELLE-HEULIN","LA CHAPELLE-HEULIN","44330","FRANCE","44",-1.34076,47.17632
260544,"SAINT-JULIEN DES ÉGLANTIERS","SAINT-JULIEN DES ÉGLANTIERS","53140","FRANCE","53",-0.18905,48.41407
260545,"ARON","ARON","53440","FRANCE","53",-0.55679,48.29559
260546,"LE POIRÉ-SUR-VELLUIRE","LE POIRÉ-SUR-VELLUIRE","85770","FRANCE","85",-0.89463,46.4137
260547,"MOUZAC","MOUZAC","44350","FRANCE","44",-2.41541,47.29727
260550,"MELAY","MELAY","49120","FRANCE","49",-0.69539,47.18439
260551,"LA TESSOUALLE","LA TESSOUALLE","49280","FRANCE","49",-0.84939,47.00534
260553,"LA COUTARDIÈRE","LA COUTARDIÈRE","49800","FRANCE","49",-0.40751,47.46915
260554,"QUELAINES-SAINT-GAULT","QUELAINES-SAINT-GAULT","53360","FRANCE","53",-0.80306,47.9248
260555,"AVESNES-EN-SAOSNOIS","AVESNES-EN-SAOSNOIS","72260","FRANCE","72",0.37247,48.26459
260562,"SAINT-VALÉRIEN","SAINT-VALÉRIEN","85570","FRANCE","85",-0.93971,46.5265
260563,"SEGRÉ","SEGRÉ","49500","FRANCE","49",-0.8708,47.68478
260564,"LA TOURLANDRY","LA TOURLANDRY","49120","FRANCE","49",-0.69743,47.14499
260569,"LA MOTHE-ACHARD","LA MOTHE-ACHARD","85150","FRANCE","85",-1.6579,46.61842
260570,"L'ÉGRENIÈRE","L'ÉGRENIÈRE","44140","FRANCE","44",-1.42689,47.00927
260573,"SAINT-CYR-EN-BOURG","SAINT-CYR-EN-BOURG","49260","FRANCE","49",-0.06049,47.1934
260580,"SAINT-SAUVEUR-DE-FLÉE","SAINT-SAUVEUR-DE-FLÉE","49500","FRANCE","49",-0.79104,47.75393
260588,"POMPAS","POMPAS","44410","FRANCE","44",-2.35428,47.40911
260590,"PLAGE DES DEMOISELLES","PLAGE DES DEMOISELLES","85270","FRANCE","85",-2.05325,46.77285
260595,"DOLBEAU","DOLBEAU","85220","FRANCE","85",-1.79694,46.74754
260602,"LUIGNÉ","LUIGNÉ","49320","FRANCE","49",-0.39115,47.28504
260607,"VIBRAYE","VIBRAYE","72320","FRANCE","72",0.73641,48.05949
260608,"SOULIGNÉ-FLACÉ","SOULIGNÉ-FLACÉ","72210","FRANCE","72",0.01275,47.97394
260609,"SAINT-MICHEL-MONT-MERCURE","SAINT-MICHEL-MONT-MERCURE","85700","FRANCE","85",-0.88455,46.83098
260616,"BEAUMONT-SUR-SARTHE","BEAUMONT-SUR-SARTHE","72170","FRANCE","72",0.12833,48.22583
260617,"CURZON","CURZON","85540","FRANCE","85",-1.31072,46.44903
260623,"AZÉ","AZÉ","53200","FRANCE","53",-0.68791,47.82258
260625,"GREZ-NEUVILLE","GREZ-NEUVILLE","49220","FRANCE","49",-0.68187,47.60251
260631,"LA BOURDINIÈRE","LA BOURDINIÈRE","44440","FRANCE","44",-1.22611,47.49437
260633,"LE SALE VILLAGE","LE SALE VILLAGE","49350","FRANCE","49",-0.27602,47.35297
260634,"TIGNÉ","TIGNÉ","49540","FRANCE","49",-0.42742,47.20041
260641,"SAULGES","SAULGES","53340","FRANCE","53",-0.40683,47.98298
260646,"VILLEMOISAN","VILLEMOISAN","49370","FRANCE","49",-0.89277,47.46366
260647,"FROSSE","FROSSE","85320","FRANCE","85",-1.18215,46.51356
260649,"SAINT-AUBIN-DE-LUIGNÉ","SAINT-AUBIN-DE-LUIGNÉ","49190","FRANCE","49",-0.6703,47.32891
260652,"BEL-AIR","BEL-AIR","44150","FRANCE","44",-1.16095,47.37214
260654,"BOËSSÉ-LE-SEC","BOËSSÉ-LE-SEC","72400","FRANCE","72",0.56376,48.13462
260655,"MALICORNE-SUR-SARTHE","MALICORNE-SUR-SARTHE","72270","FRANCE","72",-0.08216,47.81323
260657,"LES SOURCES DE LA VENDÉE","LES SOURCES DE LA VENDÉE","85120","FRANCE","85",-0.72419,46.6477
260670,"SAINT-BREVIN-LES-PINS","SAINT-BREVIN-LES-PINS","44250","FRANCE","44",-2.1652,47.24835
260673,"ARGENTON-NOTRE-DAME","ARGENTON-NOTRE-DAME","53290","FRANCE","53",-0.58883,47.78026
260675,"LA CHARTRE-SUR-LE-LOIR","LA CHARTRE-SUR-LE-LOIR","72340","FRANCE","72",0.57945,47.72731
260681,"BOURNEZEAU","BOURNEZEAU","85480","FRANCE","85",-1.17095,46.63729
260684,"SOUZAY-CHAMPIGNY","SOUZAY-CHAMPIGNY","49400","FRANCE","49",-0.0072,47.23621
260685,"NOYANT","NOYANT","49490","FRANCE","49",0.1139,47.51264
260686,"CORNILLÉ-LES-CAVES","CORNILLÉ-LES-CAVES","49140","FRANCE","49",-0.29996,47.50063
260687,"ATHÉE","ATHÉE","53400","FRANCE","53",-0.95103,47.88735
260692,"FAYMOREAU","FAYMOREAU","85240","FRANCE","85",-0.6278,46.53817
260694,"SAINT-JOACHIM","SAINT-JOACHIM","44720","FRANCE","44",-2.20114,47.38336
260696,"LANDIVY","LANDIVY","53190","FRANCE","53",-1.03482,48.48069
260701,"DURTAL","DURTAL","49430","FRANCE","49",-0.24354,47.67087
260706,"MILLÉ","MILLÉ","49380","FRANCE","49",-0.44435,47.25822
260708,"DAON","DAON","53200","FRANCE","53",-0.6385,47.74985
260709,"EMPIRÉ","EMPIRÉ","49130","FRANCE","49",-0.59294,47.42312
260710,"OLONNE-SUR-MER","OLONNE-SUR-MER","85340","FRANCE","85",-1.77315,46.53655
260715,"VIEILLEVIGNE","VIEILLEVIGNE","44116","FRANCE","44",-1.43371,46.97169
260718,"SAINT-GUILLAUME","SAINT-GUILLAUME","44160","FRANCE","44",-2.12088,47.42205
260720,"SAINTE-ANNE-SUR-BRIVET","SAINTE-ANNE-SUR-BRIVET","44160","FRANCE","44",-2.00443,47.45999
260722,"LES MAISONS ROUGES","LES MAISONS ROUGES","72650","FRANCE","72",0.09831,48.02242
260723,"LA CHAPELLE-AUX-LYS","LA CHAPELLE-AUX-LYS","85120","FRANCE","85",-0.65733,46.62971
260724,"ÎLE DE MAZIN","ÎLE DE MAZIN","44720","FRANCE","44",-2.19527,47.39268
260725,"LE POITOU","LE POITOU","49260","FRANCE","49",-0.11334,47.19422
260727,"SAINT-JEAN-D'ASSÉ","SAINT-JEAN-D'ASSÉ","72380","FRANCE","72",0.12038,48.15023
260731,"COLOMBIERS-DU-PLESSIS","COLOMBIERS-DU-PLESSIS","53120","FRANCE","53",-0.84005,48.39134
260739,"SAINT-DENIS-D'ANJOU","SAINT-DENIS-D'ANJOU","53290","FRANCE","53",-0.44237,47.79093
260743,"MONTIGNÉ-SUR-MOINE","MONTIGNÉ-SUR-MOINE","49230","FRANCE","49",-1.13611,47.0863
260747,"ASSÉ-LE-RIBOUL","ASSÉ-LE-RIBOUL","72170","FRANCE","72",0.08677,48.19382
260752,"FAVERAYE-MÂCHELLES","FAVERAYE-MÂCHELLES","49380","FRANCE","49",-0.49965,47.2388
260753,"SAINT-AUBIN-DU-DÉSERT","SAINT-AUBIN-DU-DÉSERT","53700","FRANCE","53",-0.19374,48.30417
260756,"FONTAINE","FONTAINE","85560","FRANCE","85",-1.42531,46.42902
260757,"LA CROIX","LA CROIX","85350","FRANCE","85",-2.31097,46.69695
260758,"SAINT-VIAUD","SAINT-VIAUD","44320","FRANCE","44",-2.01847,47.25653
260761,"SAINT-SULPICE-LE-VERDON","SAINT-SULPICE-LE-VERDON","85260","FRANCE","85",-1.41708,46.89379
260764,"MEURCÉ","MEURCÉ","72170","FRANCE","72",0.20139,48.23425
260766,"SABLÉ-SUR-SARTHE","SABLÉ-SUR-SARTHE","72300","FRANCE","72",-0.33327,47.84011
260768,"LE BOIS D'OUIN","LE BOIS D'OUIN","49300","FRANCE","49",-0.83113,47.05121
260775,"LE POULIGUEN","LE POULIGUEN","44510","FRANCE","44",-2.43061,47.27852
260776,"CHALLANS","CHALLANS","85300","FRANCE","85",-1.87932,46.84588
260781,"LA MEILLERAIE","LA MEILLERAIE","85200","FRANCE","85",-0.73289,46.47378
260783,"JUVIGNÉ","JUVIGNÉ","53380","FRANCE","53",-1.03547,48.2303
260784,"VILLIERS-CHARLEMAGNE","VILLIERS-CHARLEMAGNE","53170","FRANCE","53",-0.67682,47.92179
260791,"SALLERTAINE","SALLERTAINE","85300","FRANCE","85",-1.95564,46.86051
260792,"CHEVRETTE","CHEVRETTE","85370","FRANCE","85",-1.06706,46.47522
260794,"GORRON","GORRON","53120","FRANCE","53",-0.81341,48.41061
260795,"LIRÉ","LIRÉ","49530","FRANCE","49",-1.16285,47.34461
260797,"BOURGNEUF-EN-RETZ","BOURGNEUF-EN-RETZ","44580","FRANCE","44",-1.9543,47.04229
260799,"BRIOLLAY","BRIOLLAY","49125","FRANCE","49",-0.50473,47.56636
260800,"SAINT-FLORENT-LE-VIEIL","SAINT-FLORENT-LE-VIEIL","49410","FRANCE","49",-1.01511,47.36286
260801,"NOYAL-SUR-BRUTZ","NOYAL-SUR-BRUTZ","44110","FRANCE","44",-1.34658,47.77539
260803,"SAINT-PIERRE-DU-LOROUËR","SAINT-PIERRE-DU-LOROUËR","72150","FRANCE","72",0.522,47.80632
260808,"CHAMPGILLON","CHAMPGILLON","85210","FRANCE","85",-1.0077,46.57528
260809,"OIZÉ","OIZÉ","72330","FRANCE","72",0.10464,47.81037
260814,"LA QUINTE","LA QUINTE","72550","FRANCE","72",0.03775,48.05916
260817,"LES ALLEUDS","LES ALLEUDS","49320","FRANCE","49",-0.40991,47.31997
260823,"BRIVES","BRIVES","72150","FRANCE","72",0.53938,47.79117
260824,"AISNE","AISNE","44570","FRANCE","44",-2.22016,47.32092
260829,"PIACÉ","PIACÉ","72170","FRANCE","72",0.11433,48.26018
260833,"CHENU","CHENU","72500","FRANCE","72",0.3386,47.61247
260834,"DISSÉ-SOUS-BALLON","DISSÉ-SOUS-BALLON","72260","FRANCE","72",0.29723,48.2381
260837,"GUÉRANDE","GUÉRANDE","44350","FRANCE","44",-2.42953,47.3279
260839,"VERGONNES","VERGONNES","49420","FRANCE","49",-1.08981,47.72671
260841,"SAINTE-SABINE-SUR-LONGÈVE","SAINTE-SABINE-SUR-LONGÈVE","72380","FRANCE","72",0.09432,48.14077
260843,"FOSSE-BELLAY","FOSSE-BELLAY","49700","FRANCE","49",-0.1664,47.18227
260844,"BRISSAC-QUINCÉ","BRISSAC-QUINCÉ","49320","FRANCE","49",-0.44867,47.35452
260848,"LES LOGES","LES LOGES","72440","FRANCE","72",0.60279,47.98188
260851,"OLIVET","OLIVET","53410","FRANCE","53",-0.9168,48.12179
260854,"SAINT-JULIEN-DE-CONCELLES","SAINT-JULIEN-DE-CONCELLES","44450","FRANCE","44",-1.38825,47.25336
260855,"PETIT-MARS","PETIT-MARS","44390","FRANCE","44",-1.45484,47.39577
260864,"BOUZAIRE","BOUZAIRE","44350","FRANCE","44",-2.38063,47.36608
260865,"SARGÉ-LÈS-LE-MANS","SARGÉ-LÈS-LE-MANS","72190","FRANCE","72",0.23992,48.03345
260869,"POIROUX","POIROUX","85440","FRANCE","85",-1.53445,46.50542
260873,"LA FLÈCHE","LA FLÈCHE","72200","FRANCE","72",-0.07575,47.69773
260887,"SILLÉ-LE-PHILIPPE","SILLÉ-LE-PHILIPPE","72460","FRANCE","72",0.35464,48.1095
260890,"BAZOUGES-SUR-LE-LOIR","BAZOUGES-SUR-LE-LOIR","72200","FRANCE","72",-0.16833,47.68951
260894,"LES VENTES DU FOUR","LES VENTES DU FOUR","72600","FRANCE","72",0.26147,48.43552
260896,"HILAY","HILAY","49700","FRANCE","49",-0.37066,47.23974
260900,"CHAVAGNES","CHAVAGNES","49380","FRANCE","49",-0.45544,47.26926
260901,"COULEMENT","COULEMENT","44780","FRANCE","44",-2.25698,47.45969
260904,"LE CORMIER","LE CORMIER","44770","FRANCE","44",-2.17119,47.15577
260905,"LE LUART","LE LUART","72390","FRANCE","72",0.5869,48.06974
260906,"SAINT-VINCENT-SUR-GRAON","SAINT-VINCENT-SUR-GRAON","85540","FRANCE","85",-1.38773,46.51648
260908,"MARIGNÉ-LAILLÉ","MARIGNÉ-LAILLÉ","72220","FRANCE","72",0.33998,47.81849
260911,"PANON","PANON","72600","FRANCE","72",0.2955,48.33921
260913,"LES CAVES","LES CAVES","49260","FRANCE","49",-0.24578,47.13497
260914,"CHÂTEAUROUX","CHÂTEAUROUX","72300","FRANCE","72",-0.25493,47.79388
260915,"SAINT-QUENTIN-LÈS-BEAUREPAIRE","SAINT-QUENTIN-LÈS-BEAUREPAIRE","49150","FRANCE","49",-0.10854,47.62707
260918,"LE PETIT VIHIERS","LE PETIT VIHIERS","49310","FRANCE","49",-0.52663,47.15257
260920,"LA BOHALLE","LA BOHALLE","49800","FRANCE","49",-0.39102,47.42038
260923,"LE MANS","LE MANS","72000","FRANCE","72",0.19744,48.00832
260925,"LA PLAINE-SUR-MER","LA PLAINE-SUR-MER","44770","FRANCE","44",-2.19145,47.13783
260926,"LES MOUETTES","LES MOUETTES","85270","FRANCE","85",-2.01538,46.75062
260927,"LA RUE D'ORNE","LA RUE D'ORNE","72290","FRANCE","72",0.22696,48.18183
260930,"MOULIHERNE","MOULIHERNE","49390","FRANCE","49",0.01607,47.46677
260939,"RUILLÉ-LE-GRAVELAIS","RUILLÉ-LE-GRAVELAIS","53320","FRANCE","53",-0.95613,48.05623
260942,"SAINT-GERVAIS-EN-BELIN","SAINT-GERVAIS-EN-BELIN","72220","FRANCE","72",0.21982,47.87777
260944,"LE FRÉTY","LE FRÉTY","44860","FRANCE","44",-1.60581,47.12338
260946,"LES BROUZILS","LES BROUZILS","85260","FRANCE","85",-1.32116,46.88611
260947,"LA GRAVELLE","LA GRAVELLE","53410","FRANCE","53",-1.01323,48.07266
260953,"LA LANDE","LA LANDE","44720","FRANCE","44",-2.17838,47.36671
260956,"SAINTE-GEMMES-LE-ROBERT","SAINTE-GEMMES-LE-ROBERT","53600","FRANCE","53",-0.37438,48.19638
260961,"SOULITRÉ","SOULITRÉ","72370","FRANCE","72",0.45655,48.01151
261079,"COULOMBIERS","COULOMBIERS","72130","FRANCE","72",0.12654,48.29817
261080,"YZERNAY","YZERNAY","49360","FRANCE","49",-0.69832,47.02343
261086,"LOIGNÉ-SUR-MAYENNE","LOIGNÉ-SUR-MAYENNE","53200","FRANCE","53",-0.74837,47.873
261089,"SAINT-SULPICE","SAINT-SULPICE","53360","FRANCE","53",-0.71823,47.90225
261092,"TRESSON","TRESSON","72440","FRANCE","72",0.57453,47.90348
261093,"COURTILLERS","COURTILLERS","72300","FRANCE","72",-0.30227,47.7998
261094,"BENET","BENET","85490","FRANCE","85",-0.59583,46.36923
261103,"MAREUIL-SUR-LAY-DISSAIS","MAREUIL-SUR-LAY-DISSAIS","85320","FRANCE","85",-1.21754,46.53401
261105,"BRETTE-LES-PINS","BRETTE-LES-PINS","72250","FRANCE","72",0.33738,47.91262
261110,"LE PLESSIS","LE PLESSIS","49750","FRANCE","49",-0.64607,47.30844
260974,"RUFFIGNÉ","RUFFIGNÉ","44660","FRANCE","44",-1.49431,47.75708
260981,"SAINT-RÉMY-DES-MONTS","SAINT-RÉMY-DES-MONTS","72600","FRANCE","72",0.40101,48.30792
260984,"PRÉVAL","PRÉVAL","72400","FRANCE","72",0.6235,48.23713
260995,"PONT-JAMES","PONT-JAMES","44310","FRANCE","44",-1.56932,47.01541
260996,"LA CHAPELLE-D'ALIGNÉ","LA CHAPELLE-D'ALIGNÉ","72300","FRANCE","72",-0.23546,47.73257
261000,"SAINT-GERMAIN-LE-GUILLAUME","SAINT-GERMAIN-LE-GUILLAUME","53240","FRANCE","53",-0.8261,48.20646
261006,"SÉVÉRAC","SÉVÉRAC","44530","FRANCE","44",-2.07761,47.54818
261046,"MOUCHAMPS","MOUCHAMPS","85640","FRANCE","85",-1.06173,46.78169
261054,"ÉCOUFLANT","ÉCOUFLANT","49000","FRANCE","49",-0.52998,47.52855
261055,"AMPOIGNÉ","AMPOIGNÉ","53200","FRANCE","53",-0.82513,47.81093
261060,"LA MAISON BRÛLÉE","LA MAISON BRÛLÉE","85200","FRANCE","85",-0.77093,46.47188
261063,"LA BRÛLATTE","LA BRÛLATTE","53410","FRANCE","53",-0.9519,48.08588
261064,"LE BOURG-D'IRÉ","LE BOURG-D'IRÉ","49520","FRANCE","49",-0.96778,47.68041
261068,"LA CRÊTE DES LANDES","LA CRÊTE DES LANDES","49520","FRANCE","49",-0.97785,47.70866
261071,"JUBLAINS","JUBLAINS","53160","FRANCE","53",-0.49545,48.25611
261073,"LE PÉNELO","LE PÉNELO","44410","FRANCE","44",-2.33521,47.36177
261074,"SAINT-MARTIN-DE-CONNÉE","SAINT-MARTIN-DE-CONNÉE","53160","FRANCE","53",-0.21739,48.21402
261118,"L'HUISSERIE","L'HUISSERIE","53970","FRANCE","53",-0.77002,48.0228
261120,"MARCILLÉ-LA-VILLE","MARCILLÉ-LA-VILLE","53440","FRANCE","53",-0.48984,48.30735
261137,"LA CHAPELLE-HERMIER","LA CHAPELLE-HERMIER","85220","FRANCE","85",-1.72044,46.68445
261141,"LA GUIBRETIÈRE","LA GUIBRETIÈRE","44440","FRANCE","44",-1.27501,47.4444
261142,"SAINT-LAMBERT-DES-LEVÉES","SAINT-LAMBERT-DES-LEVÉES","49400","FRANCE","49",-0.08137,47.27688
261143,"TURQUANT","TURQUANT","49730","FRANCE","49",0.02864,47.22259
261144,"ASSÉRAC","ASSÉRAC","44410","FRANCE","44",-2.39012,47.42907
261145,"LA MEILLERAIE-TILLAY","LA MEILLERAIE-TILLAY","85700","FRANCE","85",-0.84553,46.74136
261012,"CLISSON","CLISSON","44190","FRANCE","44",-1.27853,47.08956
261015,"LA CHAPELLE-SAINT-RÉMY","LA CHAPELLE-SAINT-RÉMY","72160","FRANCE","72",0.45698,48.10747
261017,"NOYANT-LA-GRAVOYÈRE","NOYANT-LA-GRAVOYÈRE","49520","FRANCE","49",-0.95872,47.70489
261018,"TREIZE-VENTS","TREIZE-VENTS","85590","FRANCE","85",-0.84823,46.9205
261019,"LA HAUTE GRÉZILLE","LA HAUTE GRÉZILLE","49700","FRANCE","49",-0.36189,47.25105
261026,"ABBARETZ","ABBARETZ","44170","FRANCE","44",-1.52634,47.55299
261027,"SAINT-GEORGES-DE-LA-COUÉE","SAINT-GEORGES-DE-LA-COUÉE","72150","FRANCE","72",0.58203,47.84165
261028,"FALLERON","FALLERON","85670","FRANCE","85",-1.70069,46.88222
261029,"COURDEMANCHE","COURDEMANCHE","72150","FRANCE","72",0.56293,47.81619
261030,"SAINTE-OSMANE","SAINTE-OSMANE","72120","FRANCE","72",0.60936,47.89052
261033,"FYÉ","FYÉ","72610","FRANCE","72",0.07947,48.32611
261038,"LES GASTINES","LES GASTINES","49600","FRANCE","49",-1.1514,47.25524
261042,"VILLAINES-SOUS-MALICORNE","VILLAINES-SOUS-MALICORNE","72270","FRANCE","72",-0.09884,47.7645
261043,"NOTRE-DAME-DES-LANDES","NOTRE-DAME-DES-LANDES","44130","FRANCE","44",-1.70984,47.38157
258904,"LA FONDANIÈRE","LA FONDANIÈRE","85120","FRANCE","85",-0.73682,46.65312
258907,"CHAMPGENÉTEUX","CHAMPGENÉTEUX","53160","FRANCE","53",-0.36235,48.2909
258912,"LINIÈRE","LINIÈRE","49700","FRANCE","49",-0.37931,47.26953
258914,"LA MADELEINE","LA MADELEINE","44350","FRANCE","44",-2.36913,47.35657
258915,"SAINT-AIGNAN-SUR-ROË","SAINT-AIGNAN-SUR-ROË","53390","FRANCE","53",-1.13722,47.84205
258921,"BAGNEUX","BAGNEUX","49400","FRANCE","49",-0.08869,47.25084
258925,"LA COINDIÈRE","LA COINDIÈRE","44522","FRANCE","44",-1.25615,47.43287
258930,"LA JAUDONNIÈRE","LA JAUDONNIÈRE","85110","FRANCE","85",-0.9631,46.64285
258933,"COURGENARD","COURGENARD","72320","FRANCE","72",0.73642,48.15227
258934,"LA MERLATIÈRE","LA MERLATIÈRE","85140","FRANCE","85",-1.30113,46.7697
259220,"BESNÉ","BESNÉ","44160","FRANCE","44",-2.09148,47.39722
259222,"SAINT-BERTHEVIN","SAINT-BERTHEVIN","53940","FRANCE","53",-0.83092,48.06962
259225,"AZIRÉ","AZIRÉ","85490","FRANCE","85",-0.63746,46.36576
259232,"PORT-GIRAUD","PORT-GIRAUD","44770","FRANCE","44",-2.19438,47.15678
259236,"LE COUDRAY","LE COUDRAY","44630","FRANCE","44",-1.83863,47.55794
259243,"MOULINS-LE-CARBONNEL","MOULINS-LE-CARBONNEL","72130","FRANCE","72",-0.02439,48.37162
259246,"LE PORT LA CLAYE","LE PORT LA CLAYE","85540","FRANCE","85",-1.2927,46.46598
259247,"POULAY","POULAY","53640","FRANCE","53",-0.51836,48.37524
259500,"CHAVAIGNES","CHAVAIGNES","49490","FRANCE","49",0.03693,47.54116
259501,"TRANS-SUR-ERDRE","TRANS-SUR-ERDRE","44440","FRANCE","44",-1.37259,47.47671
259503,"LE SABLEAU","LE SABLEAU","85450","FRANCE","85",-0.99163,46.36667
259505,"SAINT-CYR-DES-GÂTS","SAINT-CYR-DES-GÂTS","85410","FRANCE","85",-0.8834,46.56975
259508,"PEZÉ-LE-ROBERT","PEZÉ-LE-ROBERT","72140","FRANCE","72",-0.06016,48.19473
259509,"MADRÉ","MADRÉ","53250","FRANCE","53",-0.37983,48.47747
259511,"MAREIL-EN-CHAMPAGNE","MAREIL-EN-CHAMPAGNE","72540","FRANCE","72",-0.16763,47.98435
259512,"GRAND-AUVERNÉ","GRAND-AUVERNÉ","44520","FRANCE","44",-1.33049,47.59134
259513,"LA CAILLÈRE-SAINT-HILAIRE","LA CAILLÈRE-SAINT-HILAIRE","85410","FRANCE","85",-0.91003,46.6192
259516,"COURGAINS","COURGAINS","72260","FRANCE","72",0.28084,48.2925
259520,"OISSEAU-LE-PETIT","OISSEAU-LE-PETIT","72610","FRANCE","72",0.08999,48.34959
259521,"SAILLÉ","SAILLÉ","44350","FRANCE","44",-2.43195,47.29545
259523,"RÉAUMUR","RÉAUMUR","85700","FRANCE","85",-0.80313,46.72166
259524,"CAHÉRAULT","CAHÉRAULT","44450","FRANCE","44",-1.41596,47.24248
259782,"SAINT-MATHURIN","SAINT-MATHURIN","85150","FRANCE","85",-1.71467,46.56445
259784,"BRAIN-SUR-L'AUTHION","BRAIN-SUR-L'AUTHION","49800","FRANCE","49",-0.40928,47.44836
259785,"SAINT-ÉTIENNE-DE-BRILLOUET","SAINT-ÉTIENNE-DE-BRILLOUET","85210","FRANCE","85",-0.99894,46.52661
259789,"LE BURET","LE BURET","53170","FRANCE","53",-0.51492,47.92224
259791,"LE NAY","LE NAY","85200","FRANCE","85",-0.73491,46.54471
259792,"LA CHAPELLE-SAINT-SAUVEUR","LA CHAPELLE-SAINT-SAUVEUR","44370","FRANCE","44",-0.98447,47.44128
259793,"BERNAY-EN-CHAMPAGNE","BERNAY-EN-CHAMPAGNE","72240","FRANCE","72",-0.05715,48.0749
259794,"MARESCHÉ","MARESCHÉ","72170","FRANCE","72",0.14625,48.2129
259797,"LÉRAT","LÉRAT","44420","FRANCE","44",-2.53208,47.36712
259798,"CIGNÉ","CIGNÉ","53300","FRANCE","53",-0.60827,48.42323
259800,"CHERRÉ","CHERRÉ","72400","FRANCE","72",0.6565,48.17348
259802,"AUCARD","AUCARD","44570","FRANCE","44",-2.21976,47.30819
259804,"SCEAUX-D'ANJOU","SCEAUX-D'ANJOU","49330","FRANCE","49",-0.60647,47.62115
259805,"LA ROË","LA ROË","53350","FRANCE","53",-1.11145,47.89537
259807,"AUVERS-SOUS-MONTFAUCON","AUVERS-SOUS-MONTFAUCON","72540","FRANCE","72",-0.07033,48.00625
259808,"SAINT-RIGOMER-DES-BOIS","SAINT-RIGOMER-DES-BOIS","72610","FRANCE","72",0.17161,48.38951
258940,"SAINTE-GEMMES-SUR-LOIRE","SAINTE-GEMMES-SUR-LOIRE","49130","FRANCE","49",-0.55727,47.42505
258941,"LA CROIX GEORGETTE","LA CROIX GEORGETTE","72700","FRANCE","72",0.14995,47.98379
258942,"NEUFCHÂTEL-EN-SAOSNOIS","NEUFCHÂTEL-EN-SAOSNOIS","72600","FRANCE","72",0.24575,48.37579
258947,"SAINT-CALEZ-EN-SAOSNOIS","SAINT-CALEZ-EN-SAOSNOIS","72600","FRANCE","72",0.30303,48.31343
258949,"MOUZEUIL-SAINT-MARTIN","MOUZEUIL-SAINT-MARTIN","85370","FRANCE","85",-0.98423,46.46548
258953,"KERCABELLEC","KERCABELLEC","44420","FRANCE","44",-2.46376,47.40825
258957,"BLAISON-GOHIER","BLAISON-GOHIER","49320","FRANCE","49",-0.37104,47.39998
258960,"MARLAIS","MARLAIS","44410","FRANCE","44",-2.29861,47.41075
258961,"AIGNÉ","AIGNÉ","72650","FRANCE","72",0.11928,48.06563
258962,"LE SAUZAY","LE SAUZAY","44190","FRANCE","44",-1.25263,47.10307
258964,"BRON","BRON","49260","FRANCE","49",-0.12322,47.17552
259256,"SAINT-GAULT","SAINT-GAULT","53360","FRANCE","53",-0.78289,47.89989
259257,"LE POUZAC","LE POUZAC","85210","FRANCE","85",-0.97251,46.57402
259258,"SARCÉ","SARCÉ","72360","FRANCE","72",0.22224,47.72037
259260,"THORÉE-LES-PINS","THORÉE-LES-PINS","72800","FRANCE","72",0.04281,47.68731
259264,"CHÂTEAUMUR","CHÂTEAUMUR","85700","FRANCE","85",-0.83116,46.84839
259265,"SOUDAN","SOUDAN","44110","FRANCE","44",-1.30648,47.73796
259268,"LA BUJAUDIÈRE","LA BUJAUDIÈRE","85700","FRANCE","85",-0.82509,46.74683
259269,"CHEMIRÉ-SUR-SARTHE","CHEMIRÉ-SUR-SARTHE","49640","FRANCE","49",-0.43194,47.75166
259282,"ARDENNES","ARDENNES","85200","FRANCE","85",-0.74727,46.46778
259283,"QUENIQUEN","QUENIQUEN","44350","FRANCE","44",-2.45842,47.32182
259287,"MIRVILLE","MIRVILLE","85600","FRANCE","85",-1.32603,46.97215
259288,"PORTILLON","PORTILLON","44120","FRANCE","44",-1.46865,47.14959
259537,"BERT","BERT","44570","FRANCE","44",-2.20847,47.31869
259540,"LA FLOCELLIÈRE","LA FLOCELLIÈRE","85700","FRANCE","85",-0.86429,46.83196
259541,"CEZAIS","CEZAIS","85410","FRANCE","85",-0.81795,46.5905
259553,"SAINT-JEAN-DE-LINIÈRES","SAINT-JEAN-DE-LINIÈRES","49070","FRANCE","49",-0.6584,47.45776
259563,"GRANDCHAMPS-DES-FONTAINES","GRANDCHAMPS-DES-FONTAINES","44119","FRANCE","44",-1.606,47.36472
259568,"ÉVRON","ÉVRON","53600","FRANCE","53",-0.39451,48.15303
259824,"LES BOUCHETTES","LES BOUCHETTES","49260","FRANCE","49",-0.29058,47.12736
259825,"LA PORTE DE L'ÎLE","LA PORTE DE L'ÎLE","85420","FRANCE","85",-0.7313,46.38929
259830,"VANCÉ","VANCÉ","72310","FRANCE","72",0.64685,47.83256
259831,"CONTIGNÉ","CONTIGNÉ","49330","FRANCE","49",-0.51693,47.72986
259832,"LA JUBAUDIÈRE","LA JUBAUDIÈRE","49510","FRANCE","49",-0.89027,47.17104
259835,"CHÉMÉRÉ","CHÉMÉRÉ","44680","FRANCE","44",-1.9146,47.12221
259837,"BELGEARD","BELGEARD","53440","FRANCE","53",-0.54927,48.25502
259839,"MARSON","MARSON","49400","FRANCE","49",-0.14644,47.25065
259841,"LES ROSIERS-SUR-LOIRE","LES ROSIERS-SUR-LOIRE","49350","FRANCE","49",-0.22557,47.35095
259842,"BEAUCOUZÉ","BEAUCOUZÉ","49070","FRANCE","49",-0.6307,47.47457
259844,"LA CHAUSSAIRE","LA CHAUSSAIRE","49600","FRANCE","49",-1.14601,47.20116
259847,"LA BOUTOUCHÈRE","LA BOUTOUCHÈRE","49410","FRANCE","49",-0.99377,47.32908
259849,"TELOCHÉ","TELOCHÉ","72220","FRANCE","72",0.26731,47.88987
258975,"PARIGNÉ-L'ÉVÊQUE","PARIGNÉ-L'ÉVÊQUE","72250","FRANCE","72",0.36432,47.9366
258980,"SALIGNY","SALIGNY","85170","FRANCE","85",-1.42485,46.80747
258981,"ORVAULT","ORVAULT","44700","FRANCE","44",-1.62313,47.27093
258982,"MINDIN","MINDIN","44250","FRANCE","44",-2.16663,47.26687
258987,"LE GIROUARD","LE GIROUARD","85150","FRANCE","85",-1.59906,46.56952
258990,"LES MOULIÈRES","LES MOULIÈRES","85150","FRANCE","85",-1.62794,46.65155
258994,"VAL DE VIE BEAUSÉJOUR","VAL DE VIE BEAUSÉJOUR","85800","FRANCE","85",-1.92339,46.70129
258995,"LA MÉNITRÉ","LA MÉNITRÉ","49250","FRANCE","49",-0.26853,47.40258
259006,"LA CHAPELLE-SAINT-FRAY","LA CHAPELLE-SAINT-FRAY","72240","FRANCE","72",0.08067,48.11014
259290,"SAINT-FULGENT","SAINT-FULGENT","85250","FRANCE","85",-1.17881,46.85413
259293,"BONNOEUVRE","BONNOEUVRE","44540","FRANCE","44",-1.23827,47.52769
259294,"COURLÉON","COURLÉON","49390","FRANCE","49",0.14375,47.3902
259296,"MANSIGNÉ","MANSIGNÉ","72510","FRANCE","72",0.13602,47.74658
259297,"PRÉAUX","PRÉAUX","53340","FRANCE","53",-0.46613,47.93617
259301,"BOULOGNE","BOULOGNE","85140","FRANCE","85",-1.32057,46.79488
259305,"L'ÉPINAY","L'ÉPINAY","49610","FRANCE","49",-0.49772,47.3765
259307,"LA ROMAGNE","LA ROMAGNE","49740","FRANCE","49",-1.02163,47.06064
259309,"SAINT-LUMINE-DE-CLISSON","SAINT-LUMINE-DE-CLISSON","44190","FRANCE","44",-1.33501,47.08476
259310,"LAUNAY-VILLIERS","LAUNAY-VILLIERS","53410","FRANCE","53",-1.00471,48.13527
259314,"GRANGES","GRANGES","85200","FRANCE","85",-0.76749,46.44906
259570,"LA SAVAUDIÈRE","LA SAVAUDIÈRE","44470","FRANCE","44",-1.50509,47.29248
259571,"MAROLLETTE","MAROLLETTE","72600","FRANCE","72",0.35154,48.36945
259574,"CUON","CUON","49150","FRANCE","49",-0.10174,47.47872
259575,"SAINT-LOUP-DU-GAST","SAINT-LOUP-DU-GAST","53300","FRANCE","53",-0.58687,48.38615
259578,"PIRMIL","PIRMIL","72430","FRANCE","72",-0.09722,47.91276
259579,"LA CHAPELLE-HUON","LA CHAPELLE-HUON","72310","FRANCE","72",0.74481,47.85953
259581,"GRÉEZ-SUR-ROC","GRÉEZ-SUR-ROC","72320","FRANCE","72",0.79543,48.13783
259585,"FÉDRUN","FÉDRUN","44720","FRANCE","44",-2.20988,47.37503
259588,"CAMERUN","CAMERUN","44410","FRANCE","44",-2.23683,47.42119
259589,"LE PUY-SAINT-BONNET","LE PUY-SAINT-BONNET","49300","FRANCE","49",-0.89268,46.99605
259590,"LE PUY-NOTRE-DAME","LE PUY-NOTRE-DAME","49260","FRANCE","49",-0.2364,47.12549
259594,"PONT D'ARMES","PONT D'ARMES","44410","FRANCE","44",-2.40028,47.41529
259595,"LA CROIXILLE","LA CROIXILLE","53380","FRANCE","53",-1.05579,48.2052
259597,"SOUCELLES","SOUCELLES","49140","FRANCE","49",-0.41825,47.5683
259861,"ARÇONNAY","ARÇONNAY","72610","FRANCE","72",0.08528,48.39751
259868,"LA BREILLE-LES-PINS","LA BREILLE-LES-PINS","49390","FRANCE","49",0.07641,47.34082
259872,"LA BOISSIÈRE","LA BOISSIÈRE","53800","FRANCE","53",-0.98294,47.78115
259875,"SAINT-BERTHEVIN-LA-TANNIÈRE","SAINT-BERTHEVIN-LA-TANNIÈRE","53220","FRANCE","53",-0.947,48.40175
259880,"MOISDON-LA-RIVIÈRE","MOISDON-LA-RIVIÈRE","44520","FRANCE","44",-1.37265,47.62171
259881,"DUNEAU","DUNEAU","72160","FRANCE","72",0.51874,48.06923
259011,"PAREDS","PAREDS","85110","FRANCE","85",-0.95138,46.66292
259012,"MARTIGNÉ-BRIAND","MARTIGNÉ-BRIAND","49540","FRANCE","49",-0.42876,47.23484
259013,"GÉE","GÉE","49250","FRANCE","49",-0.23023,47.45734
259018,"SAINT-MARS-LA-JAILLE","SAINT-MARS-LA-JAILLE","44540","FRANCE","44",-1.18491,47.5265
259019,"VÉRIGNÉ","VÉRIGNÉ","49125","FRANCE","49",-0.49307,47.58867
259023,"SAINT-JEAN-DE-LA-MOTTE","SAINT-JEAN-DE-LA-MOTTE","72510","FRANCE","72",0.05747,47.74295
259025,"LA PELLERINE","LA PELLERINE","53220","FRANCE","53",-1.05042,48.31643
259028,"BOURGNEUF-EN-MAUGES","BOURGNEUF-EN-MAUGES","49290","FRANCE","49",-0.83533,47.31148
259029,"SAINT-CLÉMENT-DES-LEVÉES","SAINT-CLÉMENT-DES-LEVÉES","49350","FRANCE","49",-0.18159,47.33472
259033,"LA ROUSSELIÈRE","LA ROUSSELIÈRE","44522","FRANCE","44",-1.20555,47.41361
259035,"PORNIC","PORNIC","44210","FRANCE","44",-2.09944,47.11574
259036,"BREM-SUR-MER","BREM-SUR-MER","85470","FRANCE","85",-1.82965,46.606
259038,"LA FERTÉ-BERNARD","LA FERTÉ-BERNARD","72400","FRANCE","72",0.65489,48.18681
259039,"TREIZE-SEPTIERS","TREIZE-SEPTIERS","85600","FRANCE","85",-1.23092,46.98484
259040,"LA RONDE","LA RONDE","85600","FRANCE","85",-1.20546,46.94388
259041,"PONTCHÂTEAU","PONTCHÂTEAU","44160","FRANCE","44",-2.08906,47.43743
259042,"KERBIRONNÉ","KERBIRONNÉ","44350","FRANCE","44",-2.37314,47.33611
259332,"BARBÂTRE","BARBÂTRE","85630","FRANCE","85",-2.18434,46.95134
259334,"LE FOURNEAU","LE FOURNEAU","49530","FRANCE","49",-1.17465,47.35848
259337,"BATZ-SUR-MER","BATZ-SUR-MER","44740","FRANCE","44",-2.48085,47.27685
259342,"SAINT-GERMAIN-L'AIGUILLER","SAINT-GERMAIN-L'AIGUILLER","85390","FRANCE","85",-0.84132,46.68868
259343,"SACÉ","SACÉ","53470","FRANCE","53",-0.71215,48.18558
259345,"BEAULIEU-SUR-OUDON","BEAULIEU-SUR-OUDON","53320","FRANCE","53",-0.99437,48.00415
259351,"MONTRELAIS","MONTRELAIS","44370","FRANCE","44",-0.96783,47.38941
259353,"SOUCÉ","SOUCÉ","53300","FRANCE","53",-0.66497,48.47445
259354,"COURCITÉ","COURCITÉ","53700","FRANCE","53",-0.24886,48.3058
259355,"THIRÉ","THIRÉ","85210","FRANCE","85",-1.00831,46.54998
259356,"PEN-BÉ","PEN-BÉ","44410","FRANCE","44",-2.4557,47.42569
259605,"HAUTE-GOULAINE","HAUTE-GOULAINE","44115","FRANCE","44",-1.4291,47.19931
259609,"LES CHAPELLES","LES CHAPELLES","53250","FRANCE","53",-0.33396,48.44346
259610,"MAISONCELLES-DU-MAINE","MAISONCELLES-DU-MAINE","53170","FRANCE","53",-0.65192,47.9646
259611,"VILLEDIEU-LA-BLOUÈRE","VILLEDIEU-LA-BLOUÈRE","49450","FRANCE","49",-1.06303,47.14757
259613,"CANDÉ","CANDÉ","49440","FRANCE","49",-1.03597,47.56042
259616,"SAOSNES","SAOSNES","72600","FRANCE","72",0.27759,48.32521
259623,"FÉOLE","FÉOLE","85210","FRANCE","85",-1.03841,46.59401
259632,"LE LOUROUX-BÉCONNAIS","LE LOUROUX-BÉCONNAIS","49370","FRANCE","49",-0.88566,47.52174
259638,"ANDARD","ANDARD","49800","FRANCE","49",-0.39954,47.45622
259639,"CHANGÉ","CHANGÉ","53810","FRANCE","53",-0.7897,48.09901
259893,"COSMES","COSMES","53230","FRANCE","53",-0.88023,47.92022
259896,"SAINT-OUËN-DES-TOITS","SAINT-OUËN-DES-TOITS","53410","FRANCE","53",-0.90519,48.13801
259897,"LA GUITTIÈRE","LA GUITTIÈRE","85440","FRANCE","85",-1.62878,46.44332
259898,"SAINT-MARTIN-DE-LA-PLACE","SAINT-MARTIN-DE-LA-PLACE","49160","FRANCE","49",-0.14906,47.31555
259908,"SAINT-GERMAIN-D'ANXURE","SAINT-GERMAIN-D'ANXURE","53240","FRANCE","53",-0.73516,48.22256
259910,"LE VIEUX BRIOLLAY","LE VIEUX BRIOLLAY","49125","FRANCE","49",-0.48779,47.57279
259913,"LA BAZOGE","LA BAZOGE","72650","FRANCE","72",0.15426,48.09971
259914,"MOUILLERON-LE-CAPTIF","MOUILLERON-LE-CAPTIF","85000","FRANCE","85",-1.45889,46.71957
259919,"LE GUÉ-LIAN","LE GUÉ-LIAN","72170","FRANCE","72",0.04584,48.25426
259920,"SANDUN","SANDUN","44350","FRANCE","44",-2.33824,47.35037
259047,"DISSÉ-SOUS-LE-LUDE","DISSÉ-SOUS-LE-LUDE","72800","FRANCE","72",0.15529,47.60852
259053,"SAINT-MARTIN-DES-FONTAINES","SAINT-MARTIN-DES-FONTAINES","85570","FRANCE","85",-0.90282,46.54296
259056,"LA ROUAUDIÈRE","LA ROUAUDIÈRE","53390","FRANCE","53",-1.18974,47.83001
259057,"SAINT-OUEN","SAINT-OUEN","85320","FRANCE","85",-1.1432,46.59905
259058,"VIRÉ-EN-CHAMPAGNE","VIRÉ-EN-CHAMPAGNE","72350","FRANCE","72",-0.28795,47.98459
259059,"SAINT-VICTEUR","SAINT-VICTEUR","72130","FRANCE","72",0.03832,48.32219
259062,"MUNET","MUNET","49400","FRANCE","49",-0.09587,47.22461
259066,"NANTES","NANTES","44000","FRANCE","44",-1.55306,47.21811
259068,"SAINT-PIERRE-DES-NIDS","SAINT-PIERRE-DES-NIDS","53370","FRANCE","53",-0.09892,48.39978
259069,"BEAUVAU","BEAUVAU","49140","FRANCE","49",-0.2559,47.57968
259072,"IZÉ","IZÉ","53160","FRANCE","53",-0.30806,48.23023
259074,"LES OUILLÈRES","LES OUILLÈRES","85200","FRANCE","85",-0.73915,46.53148
259075,"LA POITEVINIÈRE","LA POITEVINIÈRE","49510","FRANCE","49",-0.897,47.22724
259364,"LE LONGERON","LE LONGERON","49710","FRANCE","49",-1.06046,47.01844
259365,"LONGNES","LONGNES","72540","FRANCE","72",-0.07895,48.02098
259371,"VIEUVY","VIEUVY","53120","FRANCE","53",-0.86342,48.44504
259373,"LIGNÉ","LIGNÉ","85570","FRANCE","85",-0.96265,46.53537
259380,"SAINT-DENIS-DU-MAINE","SAINT-DENIS-DU-MAINE","53170","FRANCE","53",-0.52645,47.9667
259383,"LASSAY-LES-CHÂTEAUX","LASSAY-LES-CHÂTEAUX","53110","FRANCE","53",-0.49712,48.43812
259386,"LANDERONDE","LANDERONDE","85150","FRANCE","85",-1.57225,46.65869
259389,"MÉE","MÉE","53400","FRANCE","53",-0.86074,47.79721
259392,"CORSEPT","CORSEPT","44560","FRANCE","44",-2.0624,47.27814
259643,"SAINT-DENIS-DU-PAYRÉ","SAINT-DENIS-DU-PAYRÉ","85580","FRANCE","85",-1.26972,46.41087
259644,"MONTGUILLON","MONTGUILLON","49500","FRANCE","49",-0.74514,47.7285
259647,"SAINT-LAURENT-DES-MORTIERS","SAINT-LAURENT-DES-MORTIERS","53290","FRANCE","53",-0.5469,47.77206
259652,"VOUTRÉ","VOUTRÉ","53600","FRANCE","53",-0.29161,48.1365
259653,"SAINT-MACAIRE-DU-BOIS","SAINT-MACAIRE-DU-BOIS","49260","FRANCE","49",-0.27647,47.11827
259654,"BOTZ-EN-MAUGES","BOTZ-EN-MAUGES","49110","FRANCE","49",-1.00097,47.30591
259659,"ROUILLON","ROUILLON","72700","FRANCE","72",0.13604,48.00839
259660,"LES MAZERIES","LES MAZERIES","44521","FRANCE","44",-1.31099,47.38724
259663,"LA GRIGONNAIS","LA GRIGONNAIS","44170","FRANCE","44",-1.66734,47.52716
259666,"COMMERVEIL","COMMERVEIL","72600","FRANCE","72",0.35649,48.31774
259669,"LASSE","LASSE","49490","FRANCE","49",0.01089,47.53643
259670,"BOURSEGUIN","BOURSEGUIN","85200","FRANCE","85",-0.83128,46.55068
259671,"BRIOSNE-LÈS-SABLES","BRIOSNE-LÈS-SABLES","72110","FRANCE","72",0.39519,48.17522
259674,"LARCHAMP","LARCHAMP","53220","FRANCE","53",-0.99886,48.36249
259931,"TALLUD-SAINTE-GEMME","TALLUD-SAINTE-GEMME","85390","FRANCE","85",-0.8856,46.68713
259935,"LA BERTHELIÈRE","LA BERTHELIÈRE","85170","FRANCE","85",-1.39967,46.72416
259936,"ROSNAY","ROSNAY","85320","FRANCE","85",-1.3071,46.53932
259941,"VARRAINS","VARRAINS","49400","FRANCE","49",-0.06554,47.22267
259947,"LA BIGOTTIÈRE","LA BIGOTTIÈRE","53240","FRANCE","53",-0.79917,48.21812
259953,"BASSE-GOULAINE","BASSE-GOULAINE","44115","FRANCE","44",-1.46566,47.21521
259955,"FONTENAY-SUR-VÈGRE","FONTENAY-SUR-VÈGRE","72350","FRANCE","72",-0.22118,47.90449
259079,"SAINT-SULPICE","SAINT-SULPICE","49320","FRANCE","49",-0.41919,47.40037
259080,"MESLAY-DU-MAINE","MESLAY-DU-MAINE","53170","FRANCE","53",-0.55603,47.95149
259083,"PORNICHET","PORNICHET","44380","FRANCE","44",-2.34312,47.26956
259085,"MONTREVAULT","MONTREVAULT","49110","FRANCE","49",-1.04648,47.26111
259086,"MONTFORT-LE-GESNOIS","MONTFORT-LE-GESNOIS","72450","FRANCE","72",0.40066,48.04874
259087,"SAINTE-MARIE-DU-BOIS","SAINTE-MARIE-DU-BOIS","53110","FRANCE","53",-0.48013,48.46691
259088,"COURCHAMPS","COURCHAMPS","49260","FRANCE","49",-0.16655,47.20103
259089,"LA MIGEONNIÈRE","LA MIGEONNIÈRE","85600","FRANCE","85",-1.2969,46.95063
259093,"LE BOURGNEUF-LA-FORÊT","LE BOURGNEUF-LA-FORÊT","53410","FRANCE","53",-0.97055,48.16383
259095,"VIGNEUX-DE-BRETAGNE","VIGNEUX-DE-BRETAGNE","44360","FRANCE","44",-1.73721,47.32616
259096,"PÉAULT","PÉAULT","85320","FRANCE","85",-1.22259,46.50225
259106,"LA MEULE","LA MEULE","85350","FRANCE","85",-2.34875,46.70058
259108,"BAIS","BAIS","44720","FRANCE","44",-2.18882,47.3808
259109,"LA CHEBUETTE","LA CHEBUETTE","44450","FRANCE","44",-1.4102,47.26791
259395,"ASNIÈRES-SUR-VÈGRE","ASNIÈRES-SUR-VÈGRE","72430","FRANCE","72",-0.2327,47.88765
259398,"SAINT-MÊME-LE-TENU","SAINT-MÊME-LE-TENU","44270","FRANCE","44",-1.79164,47.02154
259405,"RIAILLÉ","RIAILLÉ","44440","FRANCE","44",-1.29126,47.51653
259407,"SOLESMES","SOLESMES","72300","FRANCE","72",-0.30071,47.85236
259408,"LE THOUREIL","LE THOUREIL","49350","FRANCE","49",-0.26518,47.37141
259411,"LE PLESSIS","LE PLESSIS","85640","FRANCE","85",-1.07331,46.79157
259417,"CHAMPAGNÉ-LES-MARAIS","CHAMPAGNÉ-LES-MARAIS","85450","FRANCE","85",-1.12735,46.38169
259420,"LES EPESSES","LES EPESSES","85590","FRANCE","85",-0.90159,46.88639
259422,"BRION","BRION","49250","FRANCE","49",-0.15694,47.44363
259425,"LA BÉNATE","LA BÉNATE","44650","FRANCE","44",-1.60342,46.95585
259427,"HUILLÉ","HUILLÉ","49430","FRANCE","49",-0.30543,47.64807
259428,"LE PORT GAUTHIER","LE PORT GAUTHIER","72500","FRANCE","72",0.47924,47.71087
259677,"LA CHAIZE-GIRAUD","LA CHAIZE-GIRAUD","85220","FRANCE","85",-1.81101,46.64705
259680,"NESMY","NESMY","85310","FRANCE","85",-1.40596,46.59332
259681,"MOUTIERS-SUR-LE-LAY","MOUTIERS-SUR-LE-LAY","85320","FRANCE","85",-1.15904,46.55364
259686,"CONCOURSON-SUR-LAYON","CONCOURSON-SUR-LAYON","49700","FRANCE","49",-0.33776,47.17487
259691,"SAINT-AIGNAN","SAINT-AIGNAN","72110","FRANCE","72",0.34272,48.21494
259692,"ÉPIEDS","ÉPIEDS","49260","FRANCE","49",-0.04626,47.14415
259693,"LAVAU-SUR-LOIRE","LAVAU-SUR-LOIRE","44260","FRANCE","44",-1.96535,47.30954
259698,"SAINT-RÉMY-DU-VAL","SAINT-RÉMY-DU-VAL","72600","FRANCE","72",0.25523,48.34931
259699,"SOUVIGNÉ-SUR-SARTHE","SOUVIGNÉ-SUR-SARTHE","72300","FRANCE","72",-0.38811,47.8268
259702,"BÉCON-LES-GRANITS","BÉCON-LES-GRANITS","49370","FRANCE","49",-0.80147,47.50295
259709,"SAINT-ERBLON","SAINT-ERBLON","53390","FRANCE","53",-1.16827,47.78735
259960,"SAINT-GEORGES-LE-FLÉCHARD","SAINT-GEORGES-LE-FLÉCHARD","53480","FRANCE","53",-0.51124,48.03635
259962,"LES MÉTAIRIES","LES MÉTAIRIES","85520","FRANCE","85",-1.56655,46.4209
259964,"MONTAUDIN","MONTAUDIN","53220","FRANCE","53",-0.98909,48.38568
259971,"LA FOSSE À L'ÂNE","LA FOSSE À L'ÂNE","49270","FRANCE","49",-1.13082,47.272
259973,"PONT DE BRAYE","PONT DE BRAYE","72310","FRANCE","72",0.69084,47.77098
259974,"FONTAINE-COUVERTE","FONTAINE-COUVERTE","53350","FRANCE","53",-1.14228,47.90824
259976,"TRÉLAZÉ","TRÉLAZÉ","49800","FRANCE","49",-0.46675,47.44556
259977,"MARSAC-SUR-DON","MARSAC-SUR-DON","44170","FRANCE","44",-1.68003,47.59625
259981,"SAINT-ROCH","SAINT-ROCH","53410","FRANCE","53",-0.87886,48.15191
259986,"L'ÎLE-D'OLONNE","L'ÎLE-D'OLONNE","85340","FRANCE","85",-1.78001,46.56203
259987,"CROSMIÈRES","CROSMIÈRES","72200","FRANCE","72",-0.15084,47.747
259113,"CHASSÉ","CHASSÉ","72600","FRANCE","72",0.20067,48.44703
259115,"SAINT-PIERRE-LA-COUR","SAINT-PIERRE-LA-COUR","53410","FRANCE","53",-1.02698,48.11524
259116,"LE CHEMIN NANTAIS","LE CHEMIN NANTAIS","44470","FRANCE","44",-1.43337,47.28883
259117,"LOUERRE","LOUERRE","49700","FRANCE","49",-0.3241,47.29614
259124,"GRUES","GRUES","85580","FRANCE","85",-1.30646,46.39837
259132,"AVEZÉ","AVEZÉ","72400","FRANCE","72",0.67858,48.22698
259133,"CHALONNES-SUR-LOIRE","CHALONNES-SUR-LOIRE","49290","FRANCE","49",-0.7629,47.35156
259139,"BRÉZÉAN","BRÉZÉAN","44350","FRANCE","44",-2.45087,47.36031
259142,"LE PISSOT","LE PISSOT","85270","FRANCE","85",-1.95485,46.74318
259143,"SAINTE-RADÉGONDE","SAINTE-RADÉGONDE","85570","FRANCE","85",-0.86062,46.52657
259432,"FONTAINE-DANIEL","FONTAINE-DANIEL","53100","FRANCE","53",-0.67439,48.27841
259435,"VENDRENNES","VENDRENNES","85250","FRANCE","85",-1.12295,46.82523
259436,"BRÈGES","BRÈGES","49500","FRANCE","49",-0.91376,47.70395
259438,"LA GUÉRINIÈRE","LA GUÉRINIÈRE","85680","FRANCE","85",-2.23775,46.96749
259441,"SAINT-PIERRE-LE-POTIER","SAINT-PIERRE-LE-POTIER","53000","FRANCE","53",-0.75645,48.03629
259443,"LESSON","LESSON","85490","FRANCE","85",-0.57427,46.38246
259448,"SAINT-MARTIN-DU-FOUILLOUX","SAINT-MARTIN-DU-FOUILLOUX","49170","FRANCE","49",-0.7048,47.43145
259449,"BAIS","BAIS","53160","FRANCE","53",-0.3636,48.25123
259454,"BOUILLÉ-COURDAULT","BOUILLÉ-COURDAULT","85420","FRANCE","85",-0.6871,46.39118
259455,"CHAHAIGNES","CHAHAIGNES","72340","FRANCE","72",0.51326,47.74145
259456,"SAINT-GEORGES-BUTTAVENT","SAINT-GEORGES-BUTTAVENT","53100","FRANCE","53",-0.69403,48.31021
259459,"SAINT-AIGNAN-GRANDLIEU","SAINT-AIGNAN-GRANDLIEU","44860","FRANCE","44",-1.63348,47.12294
259460,"NUILLÉ-SUR-VICOIN","NUILLÉ-SUR-VICOIN","53970","FRANCE","53",-0.78298,47.98547
259714,"PARNAY","PARNAY","49730","FRANCE","49",0.01679,47.22773
259716,"LES GARDES","LES GARDES","49120","FRANCE","49",-0.7386,47.15041
259717,"ROUGÉ","ROUGÉ","44660","FRANCE","44",-1.45148,47.78455
259719,"LE BRUNET","LE BRUNET","44410","FRANCE","44",-2.33328,47.36429
259721,"SAINT-GEORGES-LE-GAULTIER","SAINT-GEORGES-LE-GAULTIER","72130","FRANCE","72",-0.10471,48.29798
259732,"CHEMAZÉ","CHEMAZÉ","53200","FRANCE","53",-0.77365,47.78638
259733,"BANNES","BANNES","53340","FRANCE","53",-0.35131,47.98167
259736,"JUIGNÉ-DES-MOUTIERS","JUIGNÉ-DES-MOUTIERS","44670","FRANCE","44",-1.18359,47.67882
259737,"MELLERAY-LA-VALLÉE","MELLERAY-LA-VALLÉE","53110","FRANCE","53",-0.5725,48.45977
259738,"LA JONCHÈRE","LA JONCHÈRE","85640","FRANCE","85",-1.02157,46.81034
259741,"TRÉPIED","TRÉPIED","44350","FRANCE","44",-2.3693,47.33946
259993,"VENANSAULT","VENANSAULT","85190","FRANCE","85",-1.51332,46.68682
259998,"ÉCUILLÉ","ÉCUILLÉ","49460","FRANCE","49",-0.56236,47.61534
259999,"CHÂTEAUNEUF-SUR-SARTHE","CHÂTEAUNEUF-SUR-SARTHE","49330","FRANCE","49",-0.48553,47.68196
260001,"CHAUDEFONDS-SUR-LAYON","CHAUDEFONDS-SUR-LAYON","49290","FRANCE","49",-0.70725,47.325
260002,"LE BOUIL","LE BOUIL","85520","FRANCE","85",-1.53301,46.4121
260005,"MORICQ","MORICQ","85750","FRANCE","85",-1.38103,46.40539
260006,"LA MARE BIOTTE","LA MARE BIOTTE","49610","FRANCE","49",-0.50691,47.38005
260008,"CORPE","CORPE","85320","FRANCE","85",-1.18177,46.50463
260009,"CIZAY-LA-MADELEINE","CIZAY-LA-MADELEINE","49700","FRANCE","49",-0.18668,47.18869
260010,"LOUVIGNY","LOUVIGNY","72600","FRANCE","72",0.20263,48.33831
260013,"MONTFORT","MONTFORT","49700","FRANCE","49",-0.20888,47.19774
260016,"MOUZEIL","MOUZEIL","44850","FRANCE","44",-1.34858,47.44838
260018,"SAINT-ISLE","SAINT-ISLE","53940","FRANCE","53",-0.91277,48.08323
260020,"SENONNES","SENONNES","53390","FRANCE","53",-1.20342,47.79791
260021,"CHASSILLÉ","CHASSILLÉ","72540","FRANCE","72",-0.11671,48.02097
260023,"LES REGNIERS-LES PÉGERS EN VERTOU","LES REGNIERS-LES PÉGERS EN VERTOU","44120","FRANCE","44",-1.46804,47.13757
259151,"FERCÉ-SUR-SARTHE","FERCÉ-SUR-SARTHE","72430","FRANCE","72",-0.03107,47.90243
259153,"LA CHAPELLE-CRAONNAISE","LA CHAPELLE-CRAONNAISE","53230","FRANCE","53",-0.916,47.89838
259155,"MONTOIR-DE-BRETAGNE","MONTOIR-DE-BRETAGNE","44550","FRANCE","44",-2.15318,47.32776
259157,"LE PALLET","LE PALLET","44330","FRANCE","44",-1.33995,47.14105
259159,"LOUVIGNÉ","LOUVIGNÉ","53210","FRANCE","53",-0.6303,48.05682
259165,"CHEIX-EN-RETZ","CHEIX-EN-RETZ","44640","FRANCE","44",-1.81404,47.18268
259166,"CARBAY","CARBAY","49420","FRANCE","49",-1.21651,47.73225
259167,"TOURNOLY","TOURNOLY","44780","FRANCE","44",-2.22459,47.4687
259169,"LE PONT-DE-MOINE","LE PONT-DE-MOINE","49230","FRANCE","49",-1.1256,47.09647
259171,"MAZAIRE","MAZAIRE","44240","FRANCE","44",-1.56337,47.2924
259175,"MARIGNÉ-PEUTON","MARIGNÉ-PEUTON","53200","FRANCE","53",-0.81444,47.872
259176,"LE LUDE","LE LUDE","72800","FRANCE","72",0.15464,47.64707
259179,"LA NOUE","LA NOUE","44860","FRANCE","44",-1.60751,47.14073
263601,"LA CRÉANCIÈRE","LA CRÉANCIÈRE","85170","FRANCE","85",-1.39783,46.7253
263602,"ANCENIS","ANCENIS","44150","FRANCE","44",-1.17891,47.37208
263604,"LA NOÉ NOZOU","LA NOÉ NOZOU","44860","FRANCE","44",-1.63934,47.13116
263321,"LES CARTES","LES CARTES","72800","FRANCE","72",0.03527,47.66497
263322,"CHAILLÉ-LES-MARAIS","CHAILLÉ-LES-MARAIS","85450","FRANCE","85",-1.02217,46.39662
263325,"MARÇON","MARÇON","72340","FRANCE","72",0.50971,47.71016
263326,"LA CLAYE","LA CLAYE","85320","FRANCE","85",-1.28412,46.47817
263328,"TOUTLEMONDE","TOUTLEMONDE","49360","FRANCE","49",-0.76591,47.0549
263331,"VIVY","VIVY","49680","FRANCE","49",-0.05752,47.32753
263337,"LA FAUTE-SUR-MER","LA FAUTE-SUR-MER","85460","FRANCE","85",-1.32971,46.33619
263340,"PARENNES","PARENNES","72140","FRANCE","72",-0.18485,48.11953
263344,"MÉRON","MÉRON","49260","FRANCE","49",-0.11083,47.13463
263349,"CURETTE","CURETTE","44119","FRANCE","44",-1.63198,47.35956
263350,"L'AURORE","L'AURORE","49140","FRANCE","49",-0.35892,47.56987
263351,"GARE DE POUZAUGES","GARE DE POUZAUGES","85700","FRANCE","85",-0.81821,46.75408
263352,"COURBEVEILLE","COURBEVEILLE","53230","FRANCE","53",-0.88824,47.99199
263356,"VIMARCÉ","VIMARCÉ","53160","FRANCE","53",-0.21535,48.19525
263357,"SAINT-CÉNERÉ","SAINT-CÉNERÉ","53150","FRANCE","53",-0.59496,48.12195
263362,"GRAND FOND","GRAND FOND","49260","FRANCE","49",-0.03872,47.16567
263365,"LES CHÂTELLIERS","LES CHÂTELLIERS","85700","FRANCE","85",-0.82224,46.8577
263374,"CUILLÉ","CUILLÉ","53540","FRANCE","53",-1.11946,47.9705
263377,"PRÉBANT","PRÉBANT","49350","FRANCE","49",-0.1828,47.32006
263379,"SAINT-ÉTIENNE-DE-MONTLUC","SAINT-ÉTIENNE-DE-MONTLUC","44360","FRANCE","44",-1.78179,47.27446
263382,"CHÉRANCÉ","CHÉRANCÉ","72170","FRANCE","72",0.17416,48.28651
263383,"SAINT-RÉMY-EN-MAUGES","SAINT-RÉMY-EN-MAUGES","49110","FRANCE","49",-1.0786,47.2726
263390,"CHÂTEAUBRIANT","CHÂTEAUBRIANT","44110","FRANCE","44",-1.37819,47.71809
263391,"BEAUMONT-PIED-DE-BOEUF","BEAUMONT-PIED-DE-BOEUF","53290","FRANCE","53",-0.43253,47.90474
263392,"SAINT-MICHEL-LE-CLOUCQ","SAINT-MICHEL-LE-CLOUCQ","85200","FRANCE","85",-0.74839,46.48452
263396,"LE FIEF-SAUVIN","LE FIEF-SAUVIN","49600","FRANCE","49",-1.04249,47.22136
263398,"CHAMPFRÉMONT","CHAMPFRÉMONT","53370","FRANCE","53",-0.09072,48.42718
263402,"BERFAY","BERFAY","72320","FRANCE","72",0.76418,47.99325
263403,"LA MILESSE","LA MILESSE","72650","FRANCE","72",0.13712,48.06476
263404,"FILLÉ","FILLÉ","72210","FRANCE","72",0.12531,47.89853
263415,"LONGÈVES","LONGÈVES","85200","FRANCE","85",-0.85513,46.48013
263417,"JUIGNÉ-SUR-LOIRE","JUIGNÉ-SUR-LOIRE","49610","FRANCE","49",-0.47616,47.40774
263420,"LA MINIÈRE","LA MINIÈRE","44690","FRANCE","44",-1.35116,47.12069
263422,"FROMENTIÈRES","FROMENTIÈRES","53200","FRANCE","53",-0.66809,47.8657
263424,"LE HAM","LE HAM","53250","FRANCE","53",-0.37711,48.38029
263426,"CHÂTEAUNEUF","CHÂTEAUNEUF","85710","FRANCE","85",-1.9176,46.91942
263430,"SAINT-PAUL-MONT-PENIT","SAINT-PAUL-MONT-PENIT","85670","FRANCE","85",-1.66265,46.79751
263431,"LA BAZOUGE-DES-ALLEUX","LA BAZOUGE-DES-ALLEUX","53470","FRANCE","53",-0.61066,48.18385
263432,"LES AULNEAUX","LES AULNEAUX","72600","FRANCE","72",0.332,48.43714
263436,"FONTENAY-LE-COMTE","FONTENAY-LE-COMTE","85200","FRANCE","85",-0.80228,46.46488
263438,"GRÉZILLE","GRÉZILLE","49700","FRANCE","49",-0.34386,47.24866
263441,"VIAIS","VIAIS","44860","FRANCE","44",-1.53768,47.11855
263444,"PIERRIC","PIERRIC","44290","FRANCE","44",-1.73714,47.68716
263446,"AUVERS-LE-HAMON","AUVERS-LE-HAMON","72300","FRANCE","72",-0.3513,47.90373
263451,"LA CHAPELLE-GAUGAIN","LA CHAPELLE-GAUGAIN","72310","FRANCE","72",0.67921,47.79888
263453,"MONTENAY","MONTENAY","53500","FRANCE","53",-0.89294,48.28843
263456,"VAIRÉ","VAIRÉ","85150","FRANCE","85",-1.75613,46.60182
263460,"SÉGRIE","SÉGRIE","72170","FRANCE","72",0.02532,48.19962
263462,"LIVRÉ-LA-TOUCHE","LIVRÉ-LA-TOUCHE","53400","FRANCE","53",-0.98205,47.88127
263466,"MOUAIS","MOUAIS","44590","FRANCE","44",-1.64404,47.69636
263469,"SOULAIRE","SOULAIRE","49460","FRANCE","49",-0.55283,47.57899
263472,"MÉZANGERS","MÉZANGERS","53600","FRANCE","53",-0.43156,48.19237
263477,"LE PUISET-DORÉ","LE PUISET-DORÉ","49600","FRANCE","49",-1.11509,47.23213
263480,"SAINT-LAURENT-DU-MOTTAY","SAINT-LAURENT-DU-MOTTAY","49410","FRANCE","49",-0.94973,47.35082
263482,"MAROLLES-LÈS-SAINT-CALAIS","MAROLLES-LÈS-SAINT-CALAIS","72120","FRANCE","72",0.78419,47.91823
263490,"JANS","JANS","44170","FRANCE","44",-1.61508,47.62011
263491,"VAL DE MAINE","VAL DE MAINE","49080","FRANCE","49",-0.60746,47.44139
263499,"LA CROPTE","LA CROPTE","53170","FRANCE","53",-0.49284,47.9582
263503,"ROCHESERVIÈRE","ROCHESERVIÈRE","85620","FRANCE","85",-1.50083,46.94222
263505,"LA MOTTE","LA MOTTE","49260","FRANCE","49",-0.09901,47.18895
263510,"BLANDOUET","BLANDOUET","53270","FRANCE","53",-0.32781,48.0517
263511,"HAMBERS","HAMBERS","53160","FRANCE","53",-0.42004,48.25554
263514,"MONT-SAINT-JEAN","MONT-SAINT-JEAN","72140","FRANCE","72",-0.10674,48.24657
263520,"LA CHAPELLE-AUX-PIES","LA CHAPELLE-AUX-PIES","49520","FRANCE","49",-0.98237,47.72901
263521,"SAINT-GILDAS-DES-BOIS","SAINT-GILDAS-DES-BOIS","44530","FRANCE","44",-2.03757,47.51729
263525,"HAUTE-PERCHE","HAUTE-PERCHE","44320","FRANCE","44",-1.97024,47.13167
263530,"SAINT-GEORGES-DU-ROSAY","SAINT-GEORGES-DU-ROSAY","72110","FRANCE","72",0.50163,48.19971
263531,"SERMAISE","SERMAISE","49140","FRANCE","49",-0.21319,47.52512
263537,"MAYET","MAYET","72360","FRANCE","72",0.27186,47.75951
263539,"MORANNES","MORANNES","49640","FRANCE","49",-0.41635,47.74522
263540,"NIEUL-LE-DOLENT","NIEUL-LE-DOLENT","85430","FRANCE","85",-1.51015,46.57523
263543,"DOIX","DOIX","85200","FRANCE","85",-0.80796,46.39253
263546,"PRINQUIAU","PRINQUIAU","44260","FRANCE","44",-2.0108,47.36246
263548,"L'ORBRIE","L'ORBRIE","85200","FRANCE","85",-0.78577,46.48837
263549,"CHAUFOUR-NOTRE-DAME","CHAUFOUR-NOTRE-DAME","72550","FRANCE","72",0.0744,48.02544
263552,"MISENGRAIN","MISENGRAIN","49520","FRANCE","49",-0.9647,47.71953
263554,"LA BARRE","LA BARRE","49120","FRANCE","49",-0.73013,47.20256
263558,"LA BROSSETTE","LA BROSSETTE","85140","FRANCE","85",-1.30492,46.83195
263559,"LA BOUVARDIÈRE","LA BOUVARDIÈRE","44360","FRANCE","44",-1.69541,47.32107
263562,"NIEUL-SUR-L'AUTIZE","NIEUL-SUR-L'AUTIZE","85240","FRANCE","85",-0.6811,46.42185
263563,"LA CROIX-VIAU","LA CROIX-VIAU","49320","FRANCE","49",-0.4068,47.37733
263567,"PARENCE","PARENCE","72530","FRANCE","72",0.28875,48.03609
263568,"BÉNER","BÉNER","72530","FRANCE","72",0.23952,47.99971
263576,"LA FAVERIE","LA FAVERIE","85220","FRANCE","85",-1.74881,46.67356
263577,"CIX","CIX","49260","FRANCE","49",-0.24304,47.11824
263581,"QUINSIGNAC","QUINSIGNAC","44460","FRANCE","44",-2.07268,47.63175
263582,"BENASTON","BENASTON","85250","FRANCE","85",-1.26846,46.88127
263583,"LES LANDES-GENUSSON","LES LANDES-GENUSSON","85130","FRANCE","85",-1.11898,46.9647
263584,"SAINT PÈRE","SAINT PÈRE","85530","FRANCE","85",-1.20435,47.00841
263585,"LA BOUTINIÈRE","LA BOUTINIÈRE","85250","FRANCE","85",-1.17891,46.84473
263586,"LE SIMON","LE SIMON","85210","FRANCE","85",-1.08485,46.56274
263591,"SAINT-SORNIN","SAINT-SORNIN","85540","FRANCE","85",-1.37008,46.47788
263592,"JUIGNÉ","JUIGNÉ","49640","FRANCE","49",-0.39569,47.71929
263595,"COISPÉAN","COISPÉAN","44420","FRANCE","44",-2.4669,47.36531
263597,"LA GAUTRONNIÈRE","LA GAUTRONNIÈRE","44830","FRANCE","44",-1.73686,47.17043
